INSERT INTO `weather_metar_archives` (`time_to`,`pressure`,`created_at`,`snow`,`raw`,`rain`,`temperature`,`time_from`,`wind`,`city_id`) VALUES (1280201400,'996',1289975497,NULL,'OMDB 270300Z 18006KT 150V210 8000 NSC 33/29 Q0996 NOSIG',NULL,'33.0',1280199600,'3.08333333333333',10);
INSERT INTO `weather_metar_archives` (`time_to`,`pressure`,`created_at`,`snow`,`raw`,`rain`,`temperature`,`time_from`,`wind`,`city_id`) VALUES (1280205000,'996',1289975497,NULL,'OMDB 270400Z 21005KT 180V260 8000 NSC 33/29 Q0996 NOSIG',NULL,'33.0',1280203200,'2.56944444444444',10);
INSERT INTO `weather_metar_archives` (`time_to`,`pressure`,`created_at`,`snow`,`raw`,`rain`,`temperature`,`time_from`,`wind`,`city_id`) VALUES (1280208600,'996',1289975497,NULL,'OMDB 270500Z 23005KT 200V260 8000 NSC 35/28 Q0996 NOSIG',NULL,'35.0',1280206800,'2.56944444444444',10);
INSERT INTO `weather_metar_archives` (`time_to`,`pressure`,`created_at`,`snow`,`raw`,`rain`,`temperature`,`time_from`,`wind`,`city_id`) VALUES (1280212200,'996',1289975497,NULL,'OMDB 270600Z 26006KT 180V310 CAVOK 36/27 Q0996 NOSIG',NULL,'36.0',1280210400,'3.08333333333333',10);
INSERT INTO `weather_metar_archives` (`time_to`,`pressure`,`created_at`,`snow`,`raw`,`rain`,`temperature`,`time_from`,`wind`,`city_id`) VALUES (1280215800,'995',1289975497,NULL,'OMDB 270700Z 25006KT 170V310 CAVOK 38/27 Q0995 NOSIG',NULL,'38.0',1280214000,'3.08333333333333',10);
INSERT INTO `weather_metar_archives` (`time_to`,`pressure`,`created_at`,`snow`,`raw`,`rain`,`temperature`,`time_from`,`wind`,`city_id`) VALUES (1280219400,'995',1289975497,NULL,'OMDB 270800Z 29008KT 250V360 CAVOK 39/26 Q0995 NOSIG',NULL,'39.0',1280217600,'4.11111111111111',10);
INSERT INTO `weather_metar_archives` (`time_to`,`pressure`,`created_at`,`snow`,`raw`,`rain`,`temperature`,`time_from`,`wind`,`city_id`) VALUES (1280223000,'994',1289975497,NULL,'OMDB 270900Z 28008KT 250V310 CAVOK 39/27 Q0994 NOSIG',NULL,'39.0',1280221200,'4.11111111111111',10);
INSERT INTO `weather_metar_archives` (`time_to`,`pressure`,`created_at`,`snow`,`raw`,`rain`,`temperature`,`time_from`,`wind`,`city_id`) VALUES (1280226600,'994',1289975497,NULL,'OMDB 271000Z 32011KT CAVOK 38/25 Q0994 NOSIG',NULL,'38.0',1280224800,'5.65277777777778',10);
INSERT INTO `weather_metar_archives` (`time_to`,`pressure`,`created_at`,`snow`,`raw`,`rain`,`temperature`,`time_from`,`wind`,`city_id`) VALUES (1280230200,NULL,1289975497,NULL,'OMDB 271100Z 31010KT 280V350 CAVOK 39/26 Q099',NULL,'39.0',1280228400,'5.13888888888889',10);
INSERT INTO `weather_metar_archives` (`time_to`,`pressure`,`created_at`,`snow`,`raw`,`rain`,`temperature`,`time_from`,`wind`,`city_id`) VALUES (1280230200,'993',1289975497,NULL,'OMDB 271100Z 31010KT 280V350 CAVOK 39/26 Q0993 NOSIG',NULL,'39.0',1280228400,'5.13888888888889',10);
INSERT INTO `weather_metar_archives` (`time_to`,`pressure`,`created_at`,`snow`,`raw`,`rain`,`temperature`,`time_from`,`wind`,`city_id`) VALUES (1280233800,'993',1289975497,NULL,'OMDB 271200Z 33010KT 310V050 CAVOK 38/26 Q0993 NOSIG',NULL,'38.0',1280232000,'5.13888888888889',10);
INSERT INTO `weather_metar_archives` (`time_to`,`pressure`,`created_at`,`snow`,`raw`,`rain`,`temperature`,`time_from`,`wind`,`city_id`) VALUES (1280237400,'993',1289975497,NULL,'OMDB 271300Z 33010KT 300V010 CAVOK 37/26 Q0993 NOSIG',NULL,'37.0',1280235600,'5.13888888888889',10);
INSERT INTO `weather_metar_archives` (`time_to`,`pressure`,`created_at`,`snow`,`raw`,`rain`,`temperature`,`time_from`,`wind`,`city_id`) VALUES (1280241000,'992',1289975497,NULL,'OMDB 271400Z 32008KT 290V020 CAVOK 36/27 Q0992 NOSIG',NULL,'36.0',1280239200,'4.11111111111111',10);
INSERT INTO `weather_metar_archives` (`time_to`,`pressure`,`created_at`,`snow`,`raw`,`rain`,`temperature`,`time_from`,`wind`,`city_id`) VALUES (1280244600,'993',1289975497,NULL,'OMDB 271500Z 33006KT CAVOK 36/26 Q0993 NOSIG',NULL,'36.0',1280242800,'3.08333333333333',10);
INSERT INTO `weather_metar_archives` (`time_to`,`pressure`,`created_at`,`snow`,`raw`,`rain`,`temperature`,`time_from`,`wind`,`city_id`) VALUES (1280248200,NULL,1289975497,NULL,'OMDB 271600Z 34004KT 300V050 CAVOK 35/28 Q099',NULL,'35.0',1280246400,'2.05555555555556',10);
INSERT INTO `weather_metar_archives` (`time_to`,`pressure`,`created_at`,`snow`,`raw`,`rain`,`temperature`,`time_from`,`wind`,`city_id`) VALUES (1280248200,'993',1289975497,NULL,'OMDB 271600Z 34004KT 300V050 CAVOK 35/28 Q0993 NOSIG',NULL,'35.0',1280246400,'2.05555555555556',10);
INSERT INTO `weather_metar_archives` (`time_to`,`pressure`,`created_at`,`snow`,`raw`,`rain`,`temperature`,`time_from`,`wind`,`city_id`) VALUES (1280251800,'994',1289975497,NULL,'OMDB 271700Z 23004KT CAVOK 36/27 Q0994 NOSIG',NULL,'36.0',1280250000,'2.05555555555556',10);
INSERT INTO `weather_metar_archives` (`time_to`,`pressure`,`created_at`,`snow`,`raw`,`rain`,`temperature`,`time_from`,`wind`,`city_id`) VALUES (1280255400,'994',1289975497,NULL,'OMDB 271800Z 21003KT CAVOK 35/28 Q0994 NOSIG',NULL,'35.0',1280253600,'1.54166666666667',10);
INSERT INTO `weather_metar_archives` (`time_to`,`pressure`,`created_at`,`snow`,`raw`,`rain`,`temperature`,`time_from`,`wind`,`city_id`) VALUES (1280259000,'995',1289975497,NULL,'OMDB 271900Z VRB02KT CAVOK 35/29 Q0995 NOSIG',NULL,'35.0',1280257200,NULL,10);
INSERT INTO `weather_metar_archives` (`time_to`,`pressure`,`created_at`,`snow`,`raw`,`rain`,`temperature`,`time_from`,`wind`,`city_id`) VALUES (1280262600,'994',1289975497,NULL,'OMDB 272000Z 25004KT 210V300 CAVOK 35/28 Q0994 NOSIG',NULL,'35.0',1280260800,'2.05555555555556',10);
INSERT INTO `weather_metar_archives` (`time_to`,`pressure`,`created_at`,`snow`,`raw`,`rain`,`temperature`,`time_from`,`wind`,`city_id`) VALUES (1280262600,NULL,1289975497,NULL,'OMDB 272000Z 25004KT 210V300 CAVOK 35/28 Q099',NULL,'35.0',1280260800,'2.05555555555556',10);
INSERT INTO `weather_metar_archives` (`time_to`,`pressure`,`created_at`,`snow`,`raw`,`rain`,`temperature`,`time_from`,`wind`,`city_id`) VALUES (1280266200,'994',1289975497,NULL,'OMDB 272100Z 24005KT CAVOK 34/29 Q0994 NOSIG',NULL,'34.0',1280264400,'2.56944444444444',10);
INSERT INTO `weather_metar_archives` (`time_to`,`pressure`,`created_at`,`snow`,`raw`,`rain`,`temperature`,`time_from`,`wind`,`city_id`) VALUES (1280269800,NULL,1289975497,NULL,'OMDB 272200Z 20006KT 170V230 CAVOK 34/29 Q099',NULL,'34.0',1280268000,'3.08333333333333',10);
INSERT INTO `weather_metar_archives` (`time_to`,`pressure`,`created_at`,`snow`,`raw`,`rain`,`temperature`,`time_from`,`wind`,`city_id`) VALUES (1280269800,'994',1289975497,NULL,'OMDB 272200Z 20006KT 170V230 CAVOK 34/29 Q0994 NOSIG',NULL,'34.0',1280268000,'3.08333333333333',10);
INSERT INTO `weather_metar_archives` (`time_to`,`pressure`,`created_at`,`snow`,`raw`,`rain`,`temperature`,`time_from`,`wind`,`city_id`) VALUES (1280273400,'994',1289975497,NULL,'OMDB 272300Z 25004KT 210V270 CAVOK 34/30 Q0994 NOSIG',NULL,'34.0',1280271600,'2.05555555555556',10);
INSERT INTO `weather_metar_archives` (`time_to`,`pressure`,`created_at`,`snow`,`raw`,`rain`,`temperature`,`time_from`,`wind`,`city_id`) VALUES (1280277000,'994',1289975497,NULL,'OMDB 280000Z 18003KT 150V210 CAVOK 34/29 Q0994 NOSIG',NULL,'34.0',1280275200,'1.54166666666667',10);
INSERT INTO `weather_metar_archives` (`time_to`,`pressure`,`created_at`,`snow`,`raw`,`rain`,`temperature`,`time_from`,`wind`,`city_id`) VALUES (1280280600,'994',1289975497,NULL,'OMDB 280100Z 22004KT 190V250 CAVOK 34/29 Q0994 NOSIG',NULL,'34.0',1280278800,'2.05555555555556',10);
INSERT INTO `weather_metar_archives` (`time_to`,`pressure`,`created_at`,`snow`,`raw`,`rain`,`temperature`,`time_from`,`wind`,`city_id`) VALUES (1280284200,'994',1289975497,NULL,'OMDB 280200Z 17007KT CAVOK 34/29 Q0994 NOSIG',NULL,'34.0',1280282400,'3.59722222222222',10);
INSERT INTO `weather_metar_archives` (`time_to`,`pressure`,`created_at`,`snow`,`raw`,`rain`,`temperature`,`time_from`,`wind`,`city_id`) VALUES (1280287800,'995',1289975497,NULL,'OMDB 280300Z 17007KT CAVOK 34/29 Q0995 NOSIG',NULL,'34.0',1280286000,'3.59722222222222',10);
INSERT INTO `weather_metar_archives` (`time_to`,`pressure`,`created_at`,`snow`,`raw`,`rain`,`temperature`,`time_from`,`wind`,`city_id`) VALUES (1280291400,'996',1289975497,NULL,'OMDB 280400Z 19011KT CAVOK 35/27 Q0996 NOSIG',NULL,'35.0',1280289600,'5.65277777777778',10);
INSERT INTO `weather_metar_archives` (`time_to`,`pressure`,`created_at`,`snow`,`raw`,`rain`,`temperature`,`time_from`,`wind`,`city_id`) VALUES (1280295000,NULL,1289975497,NULL,'OMDB 280500Z 19010KT 160V240 6000 NSC 37/20 Q',NULL,'37.0',1280293200,'5.13888888888889',10);
INSERT INTO `weather_metar_archives` (`time_to`,`pressure`,`created_at`,`snow`,`raw`,`rain`,`temperature`,`time_from`,`wind`,`city_id`) VALUES (1280295000,'996',1289975497,NULL,'OMDB 280500Z 19010KT 160V240 6000 NSC 37/20 Q0996 TEMPO 3000 DU',NULL,'37.0',1280293200,'5.13888888888889',10);
INSERT INTO `weather_metar_archives` (`time_to`,`pressure`,`created_at`,`snow`,`raw`,`rain`,`temperature`,`time_from`,`wind`,`city_id`) VALUES (1280298600,'997',1289975497,NULL,'OMDB 280600Z 20009KT 170V240 6000 NSC 38/19 Q0996 TEMPO 3000 DUWV METAR OMDW 280600Z PQOPWPKT 2000 DU NSC 38/18 Q0997 BECMG 1500',NULL,'38.0',1280296800,'4.625',10);
INSERT INTO `weather_metar_archives` (`time_to`,`pressure`,`created_at`,`snow`,`raw`,`rain`,`temperature`,`time_from`,`wind`,`city_id`) VALUES (1280298600,'996',1289975497,NULL,'OMDB 280600Z 20009KT 170V240 6000 NSC 38/19 Q0996 TEMPO 3000 DUW',NULL,'38.0',1280296800,'4.625',10);
INSERT INTO `weather_metar_archives` (`time_to`,`pressure`,`created_at`,`snow`,`raw`,`rain`,`temperature`,`time_from`,`wind`,`city_id`) VALUES (1280302200,'996',1289975497,NULL,'OMDB 280700Z 21012KT 160V240 6000 NSC 40/19 Q0996 TEMPO 3000 DU',NULL,'40.0',1280300400,'6.16666666666667',10);
INSERT INTO `weather_metar_archives` (`time_to`,`pressure`,`created_at`,`snow`,`raw`,`rain`,`temperature`,`time_from`,`wind`,`city_id`) VALUES (1280305800,'995',1289975497,NULL,'OMDB 280800Z 21010KT 170V240 6000 NSC 41/19 Q0995 TEMPO 3000 DU',NULL,'41.0',1280304000,'5.13888888888889',10);
INSERT INTO `weather_metar_archives` (`time_to`,`pressure`,`created_at`,`snow`,`raw`,`rain`,`temperature`,`time_from`,`wind`,`city_id`) VALUES (1280309400,'995',1289975497,NULL,'OMDB 280900Z 20010KT 150V240 7000 NSC 42/18 Q0995 NOSIG',NULL,'42.0',1280307600,'5.13888888888889',10);
INSERT INTO `weather_metar_archives` (`time_to`,`pressure`,`created_at`,`snow`,`raw`,`rain`,`temperature`,`time_from`,`wind`,`city_id`) VALUES (1280313000,'994',1289975497,NULL,'OMDB 281000Z 22010KT 160V250 7000 NSC 43/17 Q0994 BECMG',NULL,'43.0',1280311200,'5.13888888888889',10);
INSERT INTO `weather_metar_archives` (`time_to`,`pressure`,`created_at`,`snow`,`raw`,`rain`,`temperature`,`time_from`,`wind`,`city_id`) VALUES (1280313000,'994',1289975497,NULL,'OMDB 281000Z 22010KT 160V250 7000 NSC 43/17 Q0994 BECMG 33013KT',NULL,'43.0',1280311200,'6.68055555555556',10);
INSERT INTO `weather_metar_archives` (`time_to`,`pressure`,`created_at`,`snow`,`raw`,`rain`,`temperature`,`time_from`,`wind`,`city_id`) VALUES (1280316600,'994',1289975497,NULL,'OMDB 281100Z 21009KT 170V250 6000 NSC 44/17 Q0994 BECMG 33013KT',NULL,'44.0',1280314800,'6.68055555555556',10);
INSERT INTO `weather_metar_archives` (`time_to`,`pressure`,`created_at`,`snow`,`raw`,`rain`,`temperature`,`time_from`,`wind`,`city_id`) VALUES (1280320200,'994',1289975497,NULL,'OMDB 281200Z 29011KT 6000 NSC 40/23 Q0994 NOSIG',NULL,'40.0',1280318400,'5.65277777777778',10);
INSERT INTO `weather_metar_archives` (`time_to`,`pressure`,`created_at`,`snow`,`raw`,`rain`,`temperature`,`time_from`,`wind`,`city_id`) VALUES (1280323800,NULL,1289975497,NULL,'OMDB 281300Z 30010KT 260V340 6000 NSC 39/24 Q099',NULL,'39.0',1280322000,'5.13888888888889',10);
INSERT INTO `weather_metar_archives` (`time_to`,`pressure`,`created_at`,`snow`,`raw`,`rain`,`temperature`,`time_from`,`wind`,`city_id`) VALUES (1280323800,'994',1289975497,NULL,'OMDB 281300Z 30010KT 260V340 6000 NSC 39/24 Q0994 NOSIG',NULL,'39.0',1280322000,'5.13888888888889',10);
INSERT INTO `weather_metar_archives` (`time_to`,`pressure`,`created_at`,`snow`,`raw`,`rain`,`temperature`,`time_from`,`wind`,`city_id`) VALUES (1280327400,'995',1289975497,NULL,'OMDB 281400Z 29006KT 260V330 6000 NSC 39/23 Q0995 NOSIG',NULL,'39.0',1280325600,'3.08333333333333',10);
INSERT INTO `weather_metar_archives` (`time_to`,`pressure`,`created_at`,`snow`,`raw`,`rain`,`temperature`,`time_from`,`wind`,`city_id`) VALUES (1280331000,'995',1289975497,NULL,'OMDB 281500Z 17013KT 3500 DU NSC 41/16 Q0995 NOSIG',NULL,'41.0',1280329200,'6.68055555555556',10);
INSERT INTO `weather_metar_archives` (`time_to`,`pressure`,`created_at`,`snow`,`raw`,`rain`,`temperature`,`time_from`,`wind`,`city_id`) VALUES (1280334600,NULL,1289975497,NULL,'OMDB 281600Z 19008KT 160V230 5000 DU NSC 40/16 Q099',NULL,'40.0',1280332800,'4.11111111111111',10);
INSERT INTO `weather_metar_archives` (`time_to`,`pressure`,`created_at`,`snow`,`raw`,`rain`,`temperature`,`time_from`,`wind`,`city_id`) VALUES (1280334600,'995',1289975497,NULL,'OMDB 281600Z 19008KT 160V230 5000 DU NSC 40/16 Q0995 NOSIG',NULL,'40.0',1280332800,'4.11111111111111',10);
INSERT INTO `weather_metar_archives` (`time_to`,`pressure`,`created_at`,`snow`,`raw`,`rain`,`temperature`,`time_from`,`wind`,`city_id`) VALUES (1280338200,'996',1289975497,NULL,'OMDB 281700Z 20008KT 160V240 5000 DU NSC 40/16 Q0996 NOSIG',NULL,'40.0',1280336400,'4.11111111111111',10);
INSERT INTO `weather_metar_archives` (`time_to`,`pressure`,`created_at`,`snow`,`raw`,`rain`,`temperature`,`time_from`,`wind`,`city_id`) VALUES (1280341800,'996',1289975497,NULL,'OMDB 281800Z 2100KT 180V240 5000 DU NSC 39/16 Q0996 NOSIG',NULL,'39.0',1280340000,NULL,10);
INSERT INTO `weather_metar_archives` (`time_to`,`pressure`,`created_at`,`snow`,`raw`,`rain`,`temperature`,`time_from`,`wind`,`city_id`) VALUES (1280345400,'996',1289975497,NULL,'OMDB 281900Z 21005KT 170V250 5000 DU NSC 39/16 Q0996 NOSIG',NULL,'39.0',1280343600,'2.56944444444444',10);
INSERT INTO `weather_metar_archives` (`time_to`,`pressure`,`created_at`,`snow`,`raw`,`rain`,`temperature`,`time_from`,`wind`,`city_id`) VALUES (1280349000,'996',1289975497,NULL,'OMDB 282000Z 22004KT 170V240 5000 DU NSC 38/16 Q0996 NOSIG',NULL,'38.0',1280347200,'2.05555555555556',10);
INSERT INTO `weather_metar_archives` (`time_to`,`pressure`,`created_at`,`snow`,`raw`,`rain`,`temperature`,`time_from`,`wind`,`city_id`) VALUES (1280352600,'996',1289975497,NULL,'OMDB 282100Z 18006KT 150V210 5000 DU NSC 38/16 Q0996 NOSIG',NULL,'38.0',1280350800,'3.08333333333333',10);
INSERT INTO `weather_metar_archives` (`time_to`,`pressure`,`created_at`,`snow`,`raw`,`rain`,`temperature`,`time_from`,`wind`,`city_id`) VALUES (1280356200,'996',1289975497,NULL,'OMDB 282200Z 16005KT 6000 NSC 37/16 Q0996 NOSIG',NULL,'37.0',1280354400,'2.56944444444444',10);
INSERT INTO `weather_metar_archives` (`time_to`,`pressure`,`created_at`,`snow`,`raw`,`rain`,`temperature`,`time_from`,`wind`,`city_id`) VALUES (1280359800,'995',1289975497,NULL,'OMDB 282300Z 17005KT 6000 NSC 37/16 Q0995 NOSIG',NULL,'37.0',1280358000,'2.56944444444444',10);
INSERT INTO `weather_metar_archives` (`time_to`,`pressure`,`created_at`,`snow`,`raw`,`rain`,`temperature`,`time_from`,`wind`,`city_id`) VALUES (1280363400,'995',1289975497,NULL,'OMDB 290000Z 17005KT 6000 NSC 36/16 Q0995 NOSIG',NULL,'36.0',1280361600,'2.56944444444444',10);
INSERT INTO `weather_metar_archives` (`time_to`,`pressure`,`created_at`,`snow`,`raw`,`rain`,`temperature`,`time_from`,`wind`,`city_id`) VALUES (1280367000,NULL,1289975497,NULL,'OMDB 290100Z 14005KT 110V170 6000 NSC 36/16 Q099',NULL,'36.0',1280365200,'2.56944444444444',10);
INSERT INTO `weather_metar_archives` (`time_to`,`pressure`,`created_at`,`snow`,`raw`,`rain`,`temperature`,`time_from`,`wind`,`city_id`) VALUES (1280367000,'996',1289975497,NULL,'OMDB 290100Z 14005KT 110V170 6000 NSC 36/16 Q0996 NOSIG',NULL,'36.0',1280365200,'2.56944444444444',10);
INSERT INTO `weather_metar_archives` (`time_to`,`pressure`,`created_at`,`snow`,`raw`,`rain`,`temperature`,`time_from`,`wind`,`city_id`) VALUES (1280370600,'996',1289975497,NULL,'OMDB 290200Z 11005KT 4000 DU NSC 36/16 Q0996 NOSIG',NULL,'36.0',1280368800,'2.56944444444444',10);
INSERT INTO `weather_metar_archives` (`time_to`,`pressure`,`created_at`,`snow`,`raw`,`rain`,`temperature`,`time_from`,`wind`,`city_id`) VALUES (1280374200,NULL,1289975497,NULL,'OMDB 290300Z 13007KT 090V150 4000 DU NSC 36/16 Q099',NULL,'36.0',1280372400,'3.59722222222222',10);
INSERT INTO `weather_metar_archives` (`time_to`,`pressure`,`created_at`,`snow`,`raw`,`rain`,`temperature`,`time_from`,`wind`,`city_id`) VALUES (1280374200,'997',1289975497,NULL,'OMDB 290300Z 13007KT 090V150 4000 DU NSC 36/16 Q0997 NOSIG',NULL,'36.0',1280372400,'3.59722222222222',10);
INSERT INTO `weather_metar_archives` (`time_to`,`pressure`,`created_at`,`snow`,`raw`,`rain`,`temperature`,`time_from`,`wind`,`city_id`) VALUES (1280377800,'997',1289975497,NULL,'OMDB 290400Z VRB02KT 4000 DU NSC 37/16 Q0997 NOSIG',NULL,'37.0',1280376000,NULL,10);
INSERT INTO `weather_metar_archives` (`time_to`,`pressure`,`created_at`,`snow`,`raw`,`rain`,`temperature`,`time_from`,`wind`,`city_id`) VALUES (1280381400,'997',1289975497,NULL,'OMDB 290500Z 25005KT 210V290 4000 DU NSC 39/17 Q0997 BECMG 5000',NULL,'39.0',1280379600,'2.56944444444444',10);
INSERT INTO `weather_metar_archives` (`time_to`,`pressure`,`created_at`,`snow`,`raw`,`rain`,`temperature`,`time_from`,`wind`,`city_id`) VALUES (1280381400,NULL,1289975497,NULL,'OMDB 290500Z 25005KT 210V290 4000 DU NSC 39/17 Q099',NULL,'39.0',1280379600,'2.56944444444444',10);
INSERT INTO `weather_metar_archives` (`time_to`,`pressure`,`created_at`,`snow`,`raw`,`rain`,`temperature`,`time_from`,`wind`,`city_id`) VALUES (1280395800,'996',1289975497,NULL,'OMDB 290900Z 30011KT 260V340 5000 DU NSC 43/15 Q0996 NOSIG',NULL,'43.0',1280394000,'5.65277777777778',10);
INSERT INTO `weather_metar_archives` (`time_to`,`pressure`,`created_at`,`snow`,`raw`,`rain`,`temperature`,`time_from`,`wind`,`city_id`) VALUES (1280399400,'995',1289975497,NULL,'OMDB 291000Z 33014KT 5000 DU NSC 40/19 Q0995 NOSIG',NULL,'40.0',1280397600,'7.19444444444444',10);
INSERT INTO `weather_metar_archives` (`time_to`,`pressure`,`created_at`,`snow`,`raw`,`rain`,`temperature`,`time_from`,`wind`,`city_id`) VALUES (1280403000,NULL,1289975497,NULL,'OMDB 291100Z 34013KT 310V050 5000 DU NSC 40/19 Q099',NULL,'40.0',1280401200,'6.68055555555556',10);
INSERT INTO `weather_metar_archives` (`time_to`,`pressure`,`created_at`,`snow`,`raw`,`rain`,`temperature`,`time_from`,`wind`,`city_id`) VALUES (1280403000,'995',1289975497,NULL,'OMDB 291100Z 34013KT 310V050 5000 DU NSC 40/19 Q0995 NOSIG',NULL,'40.0',1280401200,'6.68055555555556',10);
INSERT INTO `weather_metar_archives` (`time_to`,`pressure`,`created_at`,`snow`,`raw`,`rain`,`temperature`,`time_from`,`wind`,`city_id`) VALUES (1280406600,'995',1289975497,NULL,'OMDB 291200Z 34012KT 5000 DU NSC 39/21 Q0995 NOSIG',NULL,'39.0',1280404800,'6.16666666666667',10);
INSERT INTO `weather_metar_archives` (`time_to`,`pressure`,`created_at`,`snow`,`raw`,`rain`,`temperature`,`time_from`,`wind`,`city_id`) VALUES (1280410200,'994',1289975497,NULL,'OMDB 291300Z 02010KT 6000 NSC 40/20 Q0994 NOSIG',NULL,'40.0',1280408400,'5.13888888888889',10);
INSERT INTO `weather_metar_archives` (`time_to`,`pressure`,`created_at`,`snow`,`raw`,`rain`,`temperature`,`time_from`,`wind`,`city_id`) VALUES (1280413800,NULL,1289975497,NULL,'OMDB 291400Z 03009KT 360V070 6000 NSC 40/20 Q099',NULL,'40.0',1280412000,'4.625',10);
INSERT INTO `weather_metar_archives` (`time_to`,`pressure`,`created_at`,`snow`,`raw`,`rain`,`temperature`,`time_from`,`wind`,`city_id`) VALUES (1280413800,'995',1289975497,NULL,'OMDB 291400Z 03009KT 360V070 6000 NSC 40/20 Q0995 NOSIG',NULL,'40.0',1280412000,'4.625',10);
INSERT INTO `weather_metar_archives` (`time_to`,`pressure`,`created_at`,`snow`,`raw`,`rain`,`temperature`,`time_from`,`wind`,`city_id`) VALUES (1280417400,'995',1289975497,NULL,'OMDB 291500Z 04007KT 010V090 5000 DU NSC 39/19 Q0995 NOS',NULL,'39.0',1280415600,'3.59722222222222',10);
INSERT INTO `weather_metar_archives` (`time_to`,`pressure`,`created_at`,`snow`,`raw`,`rain`,`temperature`,`time_from`,`wind`,`city_id`) VALUES (1280417400,'995',1289975497,NULL,'OMDB

 291500Z 04007KT 010V090 5000 DU NSC 39/19 Q0995 NOSIG',NULL,'39.0',1280415600,'3.59722222222222',10);
INSERT INTO `weather_metar_archives` (`time_to`,`pressure`,`created_at`,`snow`,`raw`,`rain`,`temperature`,`time_from`,`wind`,`city_id`) VALUES (1280421000,'996',1289975497,NULL,'OMDB 291600Z 07008KT 6000 NSC 39/18 Q0996 NOSIG',NULL,'39.0',1280419200,'4.11111111111111',10);
INSERT INTO `weather_metar_archives` (`time_to`,`pressure`,`created_at`,`snow`,`raw`,`rain`,`temperature`,`time_from`,`wind`,`city_id`) VALUES (1280424600,NULL,1289975497,NULL,'OMDB 291700Z 05006KT 010V070 7000 NSC 40/17 Q099',NULL,'40.0',1280422800,'3.08333333333333',10);
INSERT INTO `weather_metar_archives` (`time_to`,`pressure`,`created_at`,`snow`,`raw`,`rain`,`temperature`,`time_from`,`wind`,`city_id`) VALUES (1280424600,'996',1289975497,NULL,'OMDB 291700Z 05006KT 010V070 7000 NSC 40/17 Q0996 NOSIG',NULL,'40.0',1280422800,'3.08333333333333',10);
INSERT INTO `weather_metar_archives` (`time_to`,`pressure`,`created_at`,`snow`,`raw`,`rain`,`temperature`,`time_from`,`wind`,`city_id`) VALUES (1280428200,'996',1289975497,NULL,'OMDB 291800Z 09006KT 030V130 7000 NSC 39/14 Q0996 NOSIG',NULL,'39.0',1280426400,'3.08333333333333',10);
INSERT INTO `weather_metar_archives` (`time_to`,`pressure`,`created_at`,`snow`,`raw`,`rain`,`temperature`,`time_from`,`wind`,`city_id`) VALUES (1280431800,'997',1289975497,NULL,'OMDB 291900Z 09004KT 040V120 7000 NSC 39/13 Q0997 NOSIG',NULL,'39.0',1280430000,'2.05555555555556',10);
INSERT INTO `weather_metar_archives` (`time_to`,`pressure`,`created_at`,`snow`,`raw`,`rain`,`temperature`,`time_from`,`wind`,`city_id`) VALUES (1280435400,'997',1289975497,NULL,'OMDB 292000Z VRB02KT 7000 NSC 39/14 Q0997 NOSIG',NULL,'39.0',1280433600,NULL,10);
INSERT INTO `weather_metar_archives` (`time_to`,`pressure`,`created_at`,`snow`,`raw`,`rain`,`temperature`,`time_from`,`wind`,`city_id`) VALUES (1280439000,NULL,1289975497,NULL,'OMDB 292100Z 07003KT 010V110 7000 NSC 39/14 Q099',NULL,'39.0',1280437200,'1.54166666666667',10);
INSERT INTO `weather_metar_archives` (`time_to`,`pressure`,`created_at`,`snow`,`raw`,`rain`,`temperature`,`time_from`,`wind`,`city_id`) VALUES (1280439000,'996',1289975497,NULL,'OMDB 292100Z 07003KT 010V110 7000 NSC 39/14 Q0996 NOSIG',NULL,'39.0',1280437200,'1.54166666666667',10);
INSERT INTO `weather_metar_archives` (`time_to`,`pressure`,`created_at`,`snow`,`raw`,`rain`,`temperature`,`time_from`,`wind`,`city_id`) VALUES (1280442600,'996',1289975497,NULL,'OMDB 292200Z 09005KT 050V130 7000 NSC 37/15 Q0996 NOSIG',NULL,'37.0',1280440800,'2.56944444444444',10);
INSERT INTO `weather_metar_archives` (`time_to`,`pressure`,`created_at`,`snow`,`raw`,`rain`,`temperature`,`time_from`,`wind`,`city_id`) VALUES (1280446200,'996',1289975497,NULL,'OMDB 292300Z 08007KT 050V150 7000 NSC 37/15 Q0996 NOSIG',NULL,'37.0',1280444400,'3.59722222222222',10);
INSERT INTO `weather_metar_archives` (`time_to`,`pressure`,`created_at`,`snow`,`raw`,`rain`,`temperature`,`time_from`,`wind`,`city_id`) VALUES (1280449800,'996',1289975497,NULL,'OMDB 300000Z 09007KT 6000 NSC 36/1 Q0996 NOSIG',NULL,NULL,1280448000,'3.59722222222222',10);
INSERT INTO `weather_metar_archives` (`time_to`,`pressure`,`created_at`,`snow`,`raw`,`rain`,`temperature`,`time_from`,`wind`,`city_id`) VALUES (1280453400,NULL,1289975497,NULL,'OMDB 300100Z 10005KT 050V160 5000 DU NSC 35/23',NULL,'35.0',1280451600,'2.56944444444444',10);
INSERT INTO `weather_metar_archives` (`time_to`,`pressure`,`created_at`,`snow`,`raw`,`rain`,`temperature`,`time_from`,`wind`,`city_id`) VALUES (1280453400,'997',1289975497,NULL,'OMDB 300100Z 10005KT 050V160 5000 DU NSC 35/23 Q0997 NOSIG',NULL,'35.0',1280451600,'2.56944444444444',10);
INSERT INTO `weather_metar_archives` (`time_to`,`pressure`,`created_at`,`snow`,`raw`,`rain`,`temperature`,`time_from`,`wind`,`city_id`) VALUES (1280457000,'997',1289975497,NULL,'OMDB 300200Z 08004KT 4000 DU NSC 35/23 Q0997 NOSIG',NULL,'35.0',1280455200,'2.05555555555556',10);
INSERT INTO `weather_metar_archives` (`time_to`,`pressure`,`created_at`,`snow`,`raw`,`rain`,`temperature`,`time_from`,`wind`,`city_id`) VALUES (1280460600,NULL,1289975497,NULL,'OMDB 300300Z 13004KT 100V160 4000 DU NSC 36/18 Q099',NULL,'36.0',1280458800,'2.05555555555556',10);
INSERT INTO `weather_metar_archives` (`time_to`,`pressure`,`created_at`,`snow`,`raw`,`rain`,`temperature`,`time_from`,`wind`,`city_id`) VALUES (1280460600,'998',1289975497,NULL,'OMDB 300300Z 13004KT 100V160 4000 DU NSC 36/18 Q0998 NOSIG',NULL,'36.0',1280458800,'2.05555555555556',10);
INSERT INTO `weather_metar_archives` (`time_to`,`pressure`,`created_at`,`snow`,`raw`,`rain`,`temperature`,`time_from`,`wind`,`city_id`) VALUES (1280464200,'998',1289975497,NULL,'OMDB 300400Z 19004KT 7000 NSC 38/15 Q0998 NOSIG',NULL,'38.0',1280462400,'2.05555555555556',10);
INSERT INTO `weather_metar_archives` (`time_to`,`pressure`,`created_at`,`snow`,`raw`,`rain`,`temperature`,`time_from`,`wind`,`city_id`) VALUES (1280467800,'998',1289975497,NULL,'OMDB 300500Z 18008KT 150V210 7000 NSC 39/15 Q0998 NOSIG',NULL,'39.0',1280466000,'4.11111111111111',10);
INSERT INTO `weather_metar_archives` (`time_to`,`pressure`,`created_at`,`snow`,`raw`,`rain`,`temperature`,`time_from`,`wind`,`city_id`) VALUES (1280467800,NULL,1289975497,NULL,'OMDB 300500Z 18008KT 150V210 7000 NSC 39/15 Q099',NULL,'39.0',1280466000,'4.11111111111111',10);
INSERT INTO `weather_metar_archives` (`time_to`,`pressure`,`created_at`,`snow`,`raw`,`rain`,`temperature`,`time_from`,`wind`,`city_id`) VALUES (1280471400,'998',1289975497,NULL,'OMDB 300600Z 20005KT 150V250 7000 NSC 41/15 Q0998 NOSIG',NULL,'41.0',1280469600,'2.56944444444444',10);
INSERT INTO `weather_metar_archives` (`time_to`,`pressure`,`created_at`,`snow`,`raw`,`rain`,`temperature`,`time_from`,`wind`,`city_id`) VALUES (1280475000,'998',1289975497,NULL,'OMDB 300700Z 21003KT 140V250 7000 NSC 42/14 Q0998 NOSIG',NULL,'42.0',1280473200,'1.54166666666667',10);
INSERT INTO `weather_metar_archives` (`time_to`,`pressure`,`created_at`,`snow`,`raw`,`rain`,`temperature`,`time_from`,`wind`,`city_id`) VALUES (1280478600,'998',1289975497,NULL,'OMDB 300800Z VRB05KT 7000 NSC 44/14 Q0998 BECMG 30012KT',NULL,'44.0',1280476800,'6.16666666666667',10);
INSERT INTO `weather_metar_archives` (`time_to`,`pressure`,`created_at`,`snow`,`raw`,`rain`,`temperature`,`time_from`,`wind`,`city_id`) VALUES (1280482200,'997',1289975497,NULL,'OMDB 300900Z 34011KT 300V050 8000 NSC 42/21 Q0997 NOSIG',NULL,'42.0',1280480400,'5.65277777777778',10);
INSERT INTO `weather_metar_archives` (`time_to`,`pressure`,`created_at`,`snow`,`raw`,`rain`,`temperature`,`time_from`,`wind`,`city_id`) VALUES (1280485800,'996',1289975497,NULL,'OMDB 301000Z 34012KT 310V050 8000 NSC 41/20 Q0996 NOSIG',NULL,'41.0',1280484000,'6.16666666666667',10);
INSERT INTO `weather_metar_archives` (`time_to`,`pressure`,`created_at`,`snow`,`raw`,`rain`,`temperature`,`time_from`,`wind`,`city_id`) VALUES (1280489400,'996',1289975497,NULL,'OMDB 301100Z 35013KT 330V050 8000 NSC 40/20 Q0996 NOSIG',NULL,'40.0',1280487600,'6.68055555555556',10);
INSERT INTO `weather_metar_archives` (`time_to`,`pressure`,`created_at`,`snow`,`raw`,`rain`,`temperature`,`time_from`,`wind`,`city_id`) VALUES (1280493000,'8996',1289975497,NULL,'OMDB 301200Z 35811KT 270V050 8000 NSC 39/21 Q8996 NOSIG',NULL,'39.0',1280491200,'5.65277777777778',10);
INSERT INTO `weather_metar_archives` (`time_to`,`pressure`,`created_at`,`snow`,`raw`,`rain`,`temperature`,`time_from`,`wind`,`city_id`) VALUES (1280496600,'995',1289975497,NULL,'OMDB 301300Z 33012KT 8000 NSC 40/20 Q0995 NOSIG',NULL,'40.0',1280494800,'6.16666666666667',10);
INSERT INTO `weather_metar_archives` (`time_to`,`pressure`,`created_at`,`snow`,`raw`,`rain`,`temperature`,`time_from`,`wind`,`city_id`) VALUES (1280500200,NULL,1289975497,NULL,'OMDB 301400Z 34010KT 320V050 8000 NSC 39/22 Q099',NULL,'39.0',1280498400,'5.13888888888889',10);
INSERT INTO `weather_metar_archives` (`time_to`,`pressure`,`created_at`,`snow`,`raw`,`rain`,`temperature`,`time_from`,`wind`,`city_id`) VALUES (1280500200,'996',1289975497,NULL,'OMDB 301400Z 34010KT 320V050 8000 NSC 39/22 Q0996 NOSIG',NULL,'39.0',1280498400,'5.13888888888889',10);
INSERT INTO `weather_metar_archives` (`time_to`,`pressure`,`created_at`,`snow`,`raw`,`rain`,`temperature`,`time_from`,`wind`,`city_id`) VALUES (1280503800,'996',1289975497,NULL,'OMDB 301500Z 05007KT 010V090 8000 NSC 39/20 Q0996 NOSIG',NULL,'39.0',1280502000,'3.59722222222222',10);
INSERT INTO `weather_metar_archives` (`time_to`,`pressure`,`created_at`,`snow`,`raw`,`rain`,`temperature`,`time_from`,`wind`,`city_id`) VALUES (1280507400,'996',1289975497,NULL,'OMDB 301600Z VRB05KT 8000 NSC 39/20 Q0996 NOSIG',NULL,'39.0',1280505600,NULL,10);
INSERT INTO `weather_metar_archives` (`time_to`,`pressure`,`created_at`,`snow`,`raw`,`rain`,`temperature`,`time_from`,`wind`,`city_id`) VALUES (1280511000,'997',1289975497,NULL,'OMDB 301700Z VRB02KT CAVOK 39/18 Q0997 NOSIG',NULL,'39.0',1280509200,NULL,10);
INSERT INTO `weather_metar_archives` (`time_to`,`pressure`,`created_at`,`snow`,`raw`,`rain`,`temperature`,`time_from`,`wind`,`city_id`) VALUES (1280514600,NULL,1289975497,NULL,'OMDB 301800Z 08003KT 030V120 CAVOK 39/17 Q099',NULL,'39.0',1280512800,'1.54166666666667',10);
INSERT INTO `weather_metar_archives` (`time_to`,`pressure`,`created_at`,`snow`,`raw`,`rain`,`temperature`,`time_from`,`wind`,`city_id`) VALUES (1280514600,'997',1289975497,NULL,'OMDB 301800Z 08003KT 030V120 CAVOK 39/17 Q0997 NOSIG',NULL,'39.0',1280512800,'1.54166666666667',10);
INSERT INTO `weather_metar_archives` (`time_to`,`pressure`,`created_at`,`snow`,`raw`,`rain`,`temperature`,`time_from`,`wind`,`city_id`) VALUES (1280518200,'997',1289975497,NULL,'OMDB 301900Z VRB04KT CAVOK 39/19 Q0997 NOSIG',NULL,'39.0',1280516400,NULL,10);
INSERT INTO `weather_metar_archives` (`time_to`,`pressure`,`created_at`,`snow`,`raw`,`rain`,`temperature`,`time_from`,`wind`,`city_id`) VALUES (1280521800,'997',1289975497,NULL,'OMDB 302000Z 05004KT 350V110 CAVOK 37/23 Q0997 NOSIG',NULL,'37.0',1280520000,'2.05555555555556',10);
INSERT INTO `weather_metar_archives` (`time_to`,`pressure`,`created_at`,`snow`,`raw`,`rain`,`temperature`,`time_from`,`wind`,`city_id`) VALUES (1280521800,NULL,1289975497,NULL,'OMDB 302000Z 05004KT 350V110 CAVOK 37/23 Q099',NULL,'37.0',1280520000,'2.05555555555556',10);
INSERT INTO `weather_metar_archives` (`time_to`,`pressure`,`created_at`,`snow`,`raw`,`rain`,`temperature`,`time_from`,`wind`,`city_id`) VALUES (1280525400,'997',1289975497,NULL,'OMDB 302100Z 05007KT 020V110 CAVOK 38/18 Q0997 NOSIG',NULL,'38.0',1280523600,'3.59722222222222',10);
INSERT INTO `weather_metar_archives` (`time_to`,`pressure`,`created_at`,`snow`,`raw`,`rain`,`temperature`,`time_from`,`wind`,`city_id`) VALUES (1280529000,'997',1289975497,NULL,'OMDB 302200Z 06004KT CAVOK 36/18 Q0997 NOSIG',NULL,'36.0',1280527200,'2.05555555555556',10);
INSERT INTO `weather_metar_archives` (`time_to`,`pressure`,`created_at`,`snow`,`raw`,`rain`,`temperature`,`time_from`,`wind`,`city_id`) VALUES (1280532600,'997',1289975497,NULL,'OMDB 302300Z 07003KT 030V200 CAVOK 36/17 Q0997 NOSIG',NULL,'36.0',1280530800,'1.54166666666667',10);
INSERT INTO `weather_metar_archives` (`time_to`,`pressure`,`created_at`,`snow`,`raw`,`rain`,`temperature`,`time_from`,`wind`,`city_id`) VALUES (1280532600,NULL,1289975497,NULL,'OMDB 302300Z 07003KT 030V200 CAVOK 36/17 Q099',NULL,'36.0',1280530800,'1.54166666666667',10);
INSERT INTO `weather_metar_archives` (`time_to`,`pressure`,`created_at`,`snow`,`raw`,`rain`,`temperature`,`time_from`,`wind`,`city_id`) VALUES (1280536200,'997',1289975497,NULL,'OMDB 310000Z VRB04KT CAVOK 36/17 Q0997 NOSIG',NULL,'36.0',1280534400,NULL,10);
INSERT INTO `weather_metar_archives` (`time_to`,`pressure`,`created_at`,`snow`,`raw`,`rain`,`temperature`,`time_from`,`wind`,`city_id`) VALUES (1280539800,NULL,1289975497,NULL,'OMDB 310100Z 11004KT 050V140 CAVOK 35/18 Q099',NULL,'35.0',1280538000,'2.05555555555556',10);
INSERT INTO `weather_metar_archives` (`time_to`,`pressure`,`created_at`,`snow`,`raw`,`rain`,`temperature`,`time_from`,`wind`,`city_id`) VALUES (1280539800,'997',1289975497,NULL,'OMDB 310100Z 11004KT 050V140 CAVOK 35/18 Q0997 NOSIG',NULL,'35.0',1280538000,'2.05555555555556',10);
INSERT INTO `weather_metar_archives` (`time_to`,`pressure`,`created_at`,`snow`,`raw`,`rain`,`temperature`,`time_from`,`wind`,`city_id`) VALUES (1280541540,'998',1289975497,NULL,'OMDB 310129Z 18011KT CAVOK 35/17 Q0998 NOSIG',NULL,'35.0',1280539740,'5.65277777777778',10);
INSERT INTO `weather_metar_archives` (`time_to`,`pressure`,`created_at`,`snow`,`raw`,`rain`,`temperature`,`time_from`,`wind`,`city_id`) VALUES (1280543400,NULL,1289975497,NULL,'OMDB 310200Z 15005KT 120V190 CAVOK 36/15 Q099',NULL,'36.0',1280541600,'2.56944444444444',10);
INSERT INTO `weather_metar_archives` (`time_to`,`pressure`,`created_at`,`snow`,`raw`,`rain`,`temperature`,`time_from`,`wind`,`city_id`) VALUES (1280543400,'999',1289975497,NULL,'OMDB 310200Z 15005KT 120V190 CAVOK 36/15 Q0999 NOSIG',NULL,'36.0',1280541600,'2.56944444444444',10);
INSERT INTO `weather_metar_archives` (`time_to`,`pressure`,`created_at`,`snow`,`raw`,`rain`,`temperature`,`time_from`,`wind`,`city_id`) VALUES (1280547000,'999',1289975497,NULL,'OMDB 310300Z VRB01KT 8000 NSC 36/14 Q0999 NOSIG',NULL,'36.0',1280545200,NULL,10);
INSERT INTO `weather_metar_archives` (`time_to`,`pressure`,`created_at`,`snow`,`raw`,`rain`,`temperature`,`time_from`,`wind`,`city_id`) VALUES (1280550600,NULL,1289975497,NULL,'OMDB 310400Z 13004KT 070V170 8000 NSC 37/15 Q100',NULL,'37.0',1280548800,'2.05555555555556',10);
INSERT INTO `weather_metar_archives` (`time_to`,`pressure`,`created_at`,`snow`,`raw`,`rain`,`temperature`,`time_from`,`wind`,`city_id`) VALUES (1280550600,'1000',1289975497,NULL,'OMDB 310400Z 13004KT 070V170 8000 NSC 37/15 Q1000 NOSIG',NULL,'37.0',1280548800,'2.05555555555556',10);
INSERT INTO `weather_metar_archives` (`time_to`,`pressure`,`created_at`,`snow`,`raw`,`rain`,`temperature`,`time_from`,`wind`,`city_id`) VALUES (1280554200,'1000',1289975497,NULL,'OMDB 310500Z 11009KT 060V140 8000 NSC 38/19 Q1000 NOSIG',NULL,'38.0',1280552400,'4.625',10);
INSERT INTO `weather_metar_archives` (`time_to`,`pressure`,`created_at`,`snow`,`raw`,`rain`,`temperature`,`time_from`,`wind`,`city_id`) VALUES (1280557800,NULL,1289975497,NULL,'OMDB 310600Z 12009KT 050V160 CAVOK 40/15 Q1 00 NOSIG',NULL,'40.0',1280556000,'4.625',10);
INSERT INTO `weather_metar_archives` (`time_to`,`pressure`,`created_at`,`snow`,`raw`,`rain`,`temperature`,`time_from`,`wind`,`city_id`) VALUES (1280561400,'999',1289975497,NULL,'OMDB 310700Z 13008KT 100V170 CAVOK 42/13 Q0999 NOSIG',NULL,'42.0',1280559600,'4.11111111111111',10);
INSERT INTO `weather_metar_archives` (`time_to`,`pressure`,`created_at`,`snow`,`raw`,`rain`,`temperature`,`time_from`,`wind`,`city_id`) VALUES (1280565000,'999',1289975497,NULL,'OMDB 310800Z 15006KT 120V180 CAVOK 44/14 Q0999 NOSIG',NULL,'44.0',1280563200,'3.08333333333333',10);
INSERT INTO `weather_metar_archives` (`time_to`,`pressure`,`created_at`,`snow`,`raw`,`rain`,`temperature`,`time_from`,`wind`,`city_id`) VALUES (1800,'999',1289975497,NULL,'OMDB 310880Z15006KT 120M18 CAVOK 44/14 Q0999 NOSIG',NULL,'44.0',0,'3.08333333333333',10);
INSERT INTO `weather_metar_archives` (`time_to`,`pressure`,`created_at`,`snow`,`raw`,`rain`,`temperature`,`time_from`,`wind`,`city_id`) VALUES (1280568600,'998',1289975497,NULL,'OMDB 310900Z 14006KT 070V240 CAVOK 45/10 Q0998 NOSI',NULL,'45.0',1280566800,'3.08333333333333',10);
INSERT INTO `weather_metar_archives` (`time_to`,`pressure`,`created_at`,`snow`,`raw`,`rain`,`temperature`,`time_from`,`wind`,`city_id`) VALUES (1280568600,'998',1289975497,NULL,'OMDB 310900Z 14006KT 070V240 CAVOK 45/10 Q0998 NOSIG',NULL,'45.0',1280566800,'3.08333333333333',10);
INSERT INTO `weather_metar_archives` (`time_to`,`pressure`,`created_at`,`snow`,`raw`,`rain`,`temperature`,`time_from`,`wind`,`city_id`) VALUES (1280572200,'998',1289975497,NULL,'OMDB 311000Z VRB04KT CAVOK 46/08 Q0998 NOSIG',NULL,'46.0',1280570400,NULL,10);
INSERT INTO `weather_metar_archives` (`time_to`,`pressure`,`created_at`,`snow`,`raw`,`rain`,`temperature`,`time_from`,`wind`,`city_id`) VALUES (1280575020,NULL,1289975497,NULL,'OMDB 311047Z 02014KT 350V060 CAVOK 43/18 Q099',NULL,'43.0',1280573220,'7.19444444444444',10);
INSERT INTO `weather_metar_archives` (`time_to`,`pressure`,`created_at`,`snow`,`raw`,`rain`,`temperature`,`time_from`,`wind`,`city_id`) VALUES (1280575020,'997',1289975497,NULL,'OMDB 311047Z 02014KT 350V060 CAVOK 43/18 Q0997 NOSIG',NULL,'43.0',1280573220,'7.19444444444444',10);
INSERT INTO `weather_metar_archives` (`time_to`,`pressure`,`created_at`,`snow`,`raw`,`rain`,`temperature`,`time_from`,`wind`,`city_id`) VALUES (1280575800,'997',1289975497,NULL,'OMDB 311100Z 03015KT 350V050 9999 FEW045 43/17 Q0997 NOSIG',NULL,'43.0',1280574000,'7.70833333333333',10);
INSERT INTO `weather_metar_archives` (`time_to`,`pressure`,`created_at`,`snow`,`raw`,`rain`,`temperature`,`time_from`,`wind`,`city_id`) VALUES (1280575800,'997',1289975497,NULL,'OMDB 311100Z 03015KT 350V050 9999 FEW045 43/17 Q0997',NULL,'43.0',1280574000,'7.70833333333333',10);
INSERT INTO `weather_metar_archives` (`time_to`,`pressure`,`created_at`,`snow`,`raw`,`rain`,`temperature`,`time_from`,`wind`,`city_id`) VALUES (1280579400,'997',1289975497,NULL,'OMDB 311200Z WEYPQWKT 330V050 9999 FEW045 43/15 Q0997 NOSIG',NULL,'43.0',1280577600,NULL,10);
INSERT INTO `weather_metar_archives` (`time_to`,`pressure`,`created_at`,`snow`,`raw`,`rain`,`temperature`,`time_from`,`wind`,`city_id`) VALUES (1280583000,'997',1289975497,NULL,'OMDB 311300Z 02012KT 350V050 CAVOK 42/19 Q0997 NOSIG',NULL,'42.0',1280581200,'6.16666666666667',10);
INSERT INTO `weather_metar_archives` (`time_to`,`pressure`,`created_at`,`snow`,`raw`,`rain`,`temperature`,`time_from`,`wind`,`city_id`) VALUES (1280586600,'997',1289975497,NULL,'OMDB 311400Z 02010KT 360V070 CAVOK 41/19 Q0997 NOSIG',NULL,'41.0',1280584800,'5.13888888888889',10);
INSERT INTO `weather_metar_archives` (`time_to`,`pressure`,`created_at`,`snow`,`raw`,`rain`,`temperature`,`time_from`,`wind`,`city_id`) VALUES (1280590200,'997',1289975497,NULL,'OMDB 311500Z 03009KT 340V060 CAVOK 40/19 Q0997 NOSIG',NULL,'40.0',1280588400,'4.625',10);
INSERT INTO `weather_metar_archives` (`time_to`,`pressure`,`created_at`,`snow`,`raw`,`rain`,`temperature`,`time_from`,`wind`,`city_id`) VALUES (1280593800,'998',1289975497,NULL,'OMDB 311600Z 04007KT 300V100 CAVOK 40/16 Q0998 NOSIG',NULL,'40.0',1280592000,'3.59722222222222',10);
INSERT INTO `weather_metar_archives` (`time_to`,`pressure`,`created_at`,`snow`,`raw`,`rain`,`temperature`,`time_from`,`wind`,`city_id`) VALUES (1280597400,'998',1289975497,NULL,'OMDB 311700Z 10009KT CAVOK 41/04 Q0998 NOSIG',NULL,'41.0',1280595600,'4.625',10);
INSERT INTO `weather_metar_archives` (`time_to`,`pressure`,`created_at`,`snow`,`raw`,`rain`,`temperature`,`time_from`,`wind`,`city_id`) VALUES (1280601000,NULL,1289975497,NULL,'OMDB 311800Z 10010KT 070V150 CAVOK 40/02 Q099',NULL,'40.0',1280599200,'5.13888888888889',10);
INSERT INTO `weather_metar_archives` (`time_to`,`pressure`,`created_at`,`snow`,`raw`,`rain`,`temperature`,`time_from`,`wind`,`city_id`) VALUES (1280601000,'998',1289975497,NULL,'OMDB 311800Z 10010KT 070V150 CAVOK 40/02 Q0998 NOSIG',NULL,'40.0',1280599200,'5.13888888888889',10);
INSERT INTO `weather_metar_archives` (`time_to`,`pressure`,`created_at`,`snow`,`raw`,`rain`,`temperature`,`time_from`,`wind`,`city_id`) VALUES (1280604600,'998',1289975497,NULL,'OMDB 311900Z 11009KT CAVOK 40/02 Q0998 NOSIG',NULL,'40.0',1280602800,'4.625',10);
INSERT INTO `weather_metar_archives` (`time_to`,`pressure`,`created_at`,`snow`,`raw`,`rain`,`temperature`,`time_from`,`wind`,`city_id`) VALUES (1280608200,NULL,1289975497,NULL,'OMDB 312000Z 12007KT 080V150 CAVOK 39/04 Q099',NULL,'39.0',1280606400,'3.59722222222222',10);
INSERT INTO `weather_metar_archives` (`time_to`,`pressure`,`created_at`,`snow`,`raw`,`rain`,`temperature`,`time_from`,`wind`,`city_id`) VALUES (1280608200,'998',1289975497,NULL,'OMDB 312000Z 12007KT 080V150 CAVOK 39/04 Q0998 NOSIG',NULL,'39.0',1280606400,'3.59722222222222',10);
INSERT INTO `weather_metar_archives` (`time_to`,`pressure`,`created_at`,`snow`,`raw`,`rain`,`temperature`,`time_from`,`wind`,`city_id`) VALUES (1280611800,'997',1289975497,NULL,'OMDB 312100Z 14008KT CAVOK 38/07 Q0997 NOSIG',NULL,'38.0',1280610000,'4.11111111111111',10);
INSERT INTO `weather_metar_archives` (`time_to`,`pressure`,`created_at`,`snow`,`raw`,`rain`,`temperature`,`time_from`,`wind`,`city_id`) VALUES (1280615400,'997',1289975497,NULL,'OMDB 312200Z VRB02KT CAVOK 38/08 Q0997 NOSIG',NULL,'38.0',1280613600,NULL,10);
INSERT INTO `weather_metar_archives` (`time_to`,`pressure`,`created_at`,`snow`,`raw`,`rain`,`temperature`,`time_from`,`wind`,`city_id`) VALUES (1280619000,'997',1289975498,NULL,'OMDB

 312300Z 07007KT 020V170 CAVOK 37/02 Q0997 NOSIG',NULL,'37.0',1280617200,'3.59722222222222',10);
INSERT INTO `weather_metar_archives` (`time_to`,`pressure`,`created_at`,`snow`,`raw`,`rain`,`temperature`,`time_from`,`wind`,`city_id`) VALUES (1280619000,NULL,1289975498,NULL,'OMDB 312300Z 07007KT 020V170 CAVOK 37/02 Q099',NULL,'37.0',1280617200,'3.59722222222222',10);
INSERT INTO `weather_metar_archives` (`time_to`,`pressure`,`created_at`,`snow`,`raw`,`rain`,`temperature`,`time_from`,`wind`,`city_id`) VALUES (1283297400,'997',1289975504,NULL,'OMDB 312300Z 07007KT 020V170 CAVOK 37/02 Q0997 NOSIG',NULL,'37.0',1283295600,'3.59722222222222',10);
INSERT INTO `weather_metar_archives` (`time_to`,`pressure`,`created_at`,`snow`,`raw`,`rain`,`temperature`,`time_from`,`wind`,`city_id`) VALUES (1280622600,'998',1289975504,NULL,'OMDB 010000Z VRB06KT CAVOK 35/09 Q0998 NOSIG',NULL,'35.0',1280620800,NULL,10);
INSERT INTO `weather_metar_archives` (`time_to`,`pressure`,`created_at`,`snow`,`raw`,`rain`,`temperature`,`time_from`,`wind`,`city_id`) VALUES (1280626200,'998',1289975504,NULL,'OMDB 010100Z VRB03KT CAVOK 35/12 Q0998 NOSIG',NULL,'35.0',1280624400,NULL,10);
INSERT INTO `weather_metar_archives` (`time_to`,`pressure`,`created_at`,`snow`,`raw`,`rain`,`temperature`,`time_from`,`wind`,`city_id`) VALUES (1280629800,'1000',1289975504,NULL,'OMDB 010200Z VRB02KT CAVOK 35/08 Q1000 NOSIG',NULL,'35.0',1280628000,NULL,10);
INSERT INTO `weather_metar_archives` (`time_to`,`pressure`,`created_at`,`snow`,`raw`,`rain`,`temperature`,`time_from`,`wind`,`city_id`) VALUES (1280633400,'1000',1289975504,NULL,'OMDB 010300Z VRB02KT 8000 NSC 37/13 Q1000 NOS',NULL,'37.0',1280631600,NULL,10);
INSERT INTO `weather_metar_archives` (`time_to`,`pressure`,`created_at`,`snow`,`raw`,`rain`,`temperature`,`time_from`,`wind`,`city_id`) VALUES (1280633400,'1000',1289975504,NULL,'OMDB 010300Z VRB02KT 8000 NSC 37/13 Q1000 NOSIG',NULL,'37.0',1280631600,NULL,10);
INSERT INTO `weather_metar_archives` (`time_to`,`pressure`,`created_at`,`snow`,`raw`,`rain`,`temperature`,`time_from`,`wind`,`city_id`) VALUES (1280637000,'1000',1289975504,NULL,'OMDB 010400Z 15006KT 8000 NSC 37/14 Q1000 NOSIG',NULL,'37.0',1280635200,'3.08333333333333',10);
INSERT INTO `weather_metar_archives` (`time_to`,`pressure`,`created_at`,`snow`,`raw`,`rain`,`temperature`,`time_from`,`wind`,`city_id`) VALUES (1280640600,NULL,1289975504,NULL,'OMDB 010500Z 17006KT 140V210 8000 NSC 39/16 Q100',NULL,'39.0',1280638800,'3.08333333333333',10);
INSERT INTO `weather_metar_archives` (`time_to`,`pressure`,`created_at`,`snow`,`raw`,`rain`,`temperature`,`time_from`,`wind`,`city_id`) VALUES (1280640600,'1000',1289975504,NULL,'OMDB 010500Z 17006KT 140V210 8000 NSC 39/16 Q1000 NOSIG',NULL,'39.0',1280638800,'3.08333333333333',10);
INSERT INTO `weather_metar_archives` (`time_to`,`pressure`,`created_at`,`snow`,`raw`,`rain`,`temperature`,`time_from`,`wind`,`city_id`) VALUES (1280644200,'1000',1289975504,NULL,'OMDB 010600Z 12007KT 060V160 8000 NSC 41/14 Q1000 NOSIG',NULL,'41.0',1280642400,'3.59722222222222',10);
INSERT INTO `weather_metar_archives` (`time_to`,`pressure`,`created_at`,`snow`,`raw`,`rain`,`temperature`,`time_from`,`wind`,`city_id`) VALUES (1280647800,'1000',1289975504,NULL,'OMDB 010700Z 20005KT 150V260 8000 NSC 43/13 Q1000 NOSIG',NULL,'43.0',1280646000,'2.56944444444444',10);
INSERT INTO `weather_metar_archives` (`time_to`,`pressure`,`created_at`,`snow`,`raw`,`rain`,`temperature`,`time_from`,`wind`,`city_id`) VALUES (1280651400,'999',1289975504,NULL,'OMDB 010800Z 20005KT 150V270 8000 NSC 44/11 Q0999 BECMG',NULL,'44.0',1280649600,'2.56944444444444',10);
INSERT INTO `weather_metar_archives` (`time_to`,`pressure`,`created_at`,`snow`,`raw`,`rain`,`temperature`,`time_from`,`wind`,`city_id`) VALUES (1280651400,'999',1289975504,NULL,'OMDB 010800Z 20005KT 150V270 8000 NSC 44/11 Q0999 BECMG 33014KT',NULL,'44.0',1280649600,'7.19444444444444',10);
INSERT INTO `weather_metar_archives` (`time_to`,`pressure`,`created_at`,`snow`,`raw`,`rain`,`temperature`,`time_from`,`wind`,`city_id`) VALUES (1280655000,'999',1289975504,NULL,'OMDB 010900Z 34011KT 8000 NSC 41/21 Q0999 NOSIG',NULL,'41.0',1280653200,'5.65277777777778',10);
INSERT INTO `weather_metar_archives` (`time_to`,`pressure`,`created_at`,`snow`,`raw`,`rain`,`temperature`,`time_from`,`wind`,`city_id`) VALUES (1280658600,NULL,1289975504,NULL,'OMDB 011000Z 34012KT 320V050 8000 FEW045 42/17 Q',NULL,'42.0',1280656800,'6.16666666666667',10);
INSERT INTO `weather_metar_archives` (`time_to`,`pressure`,`created_at`,`snow`,`raw`,`rain`,`temperature`,`time_from`,`wind`,`city_id`) VALUES (1280658600,'998',1289975504,NULL,'OMDB 011000Z 34012KT 320V050 8000 FEW045 42/17 Q0998 NOSIG',NULL,'42.0',1280656800,'6.16666666666667',10);
INSERT INTO `weather_metar_archives` (`time_to`,`pressure`,`created_at`,`snow`,`raw`,`rain`,`temperature`,`time_from`,`wind`,`city_id`) VALUES (1280662200,'998',1289975504,NULL,'OMDB 011100Z 34013KT 300V050 8000 FEW045 41/17 Q0998 NOSIG',NULL,'41.0',1280660400,'6.68055555555556',10);
INSERT INTO `weather_metar_archives` (`time_to`,`pressure`,`created_at`,`snow`,`raw`,`rain`,`temperature`,`time_from`,`wind`,`city_id`) VALUES (1280665800,'998',1289975504,NULL,'OMDB 011200Z 33012KT 310V050 8000 FEW045 40/22 Q0998 NOSIG',NULL,'40.0',1280664000,'6.16666666666667',10);
INSERT INTO `weather_metar_archives` (`time_to`,`pressure`,`created_at`,`snow`,`raw`,`rain`,`temperature`,`time_from`,`wind`,`city_id`) VALUES (1280669400,'998',1289975504,NULL,'OMDB 011300Z 35010KT 330V050 8000 NSC 40/23 Q0998 NOSIG',NULL,'40.0',1280667600,'5.13888888888889',10);
INSERT INTO `weather_metar_archives` (`time_to`,`pressure`,`created_at`,`snow`,`raw`,`rain`,`temperature`,`time_from`,`wind`,`city_id`) VALUES (1280673000,'998',1289975504,NULL,'OMDB 011400Z 34008KT 320V050 CAVOK 40/18 Q0998 NOSIG',NULL,'40.0',1280671200,'4.11111111111111',10);
INSERT INTO `weather_metar_archives` (`time_to`,`pressure`,`created_at`,`snow`,`raw`,`rain`,`temperature`,`time_from`,`wind`,`city_id`) VALUES (1280676600,'998',1289975504,NULL,'OMDB 011500Z 34007KT 320V050 CAVOK 39/17 Q0998 NOSIG',NULL,'39.0',1280674800,'3.59722222222222',10);
INSERT INTO `weather_metar_archives` (`time_to`,`pressure`,`created_at`,`snow`,`raw`,`rain`,`temperature`,`time_from`,`wind`,`city_id`) VALUES (1280680200,'999',1289975504,NULL,'OMDB 011600Z 04006KT 010V090 CAVOK 39/19 Q0999 NOSIG',NULL,'39.0',1280678400,'3.08333333333333',10);
INSERT INTO `weather_metar_archives` (`time_to`,`pressure`,`created_at`,`snow`,`raw`,`rain`,`temperature`,`time_from`,`wind`,`city_id`) VALUES (1280683800,'1000',1289975504,NULL,'OMDB 011700Z 08006KT CAVOK 39/18 Q1000 NOSIG',NULL,'39.0',1280682000,'3.08333333333333',10);
INSERT INTO `weather_metar_archives` (`time_to`,`pressure`,`created_at`,`snow`,`raw`,`rain`,`temperature`,`time_from`,`wind`,`city_id`) VALUES (1280687400,'1000',1289975504,NULL,'OMDB 011800Z 04004KT CAVOK 38/15 Q1000 NOSIG',NULL,'38.0',1280685600,'2.05555555555556',10);
INSERT INTO `weather_metar_archives` (`time_to`,`pressure`,`created_at`,`snow`,`raw`,`rain`,`temperature`,`time_from`,`wind`,`city_id`) VALUES (1280691000,NULL,1289975504,NULL,'OMDB 011900Z 09004KT 020V110 CAVOK 38/14 Q100',NULL,'38.0',1280689200,'2.05555555555556',10);
INSERT INTO `weather_metar_archives` (`time_to`,`pressure`,`created_at`,`snow`,`raw`,`rain`,`temperature`,`time_from`,`wind`,`city_id`) VALUES (1280691000,'1000',1289975504,NULL,'OMDB 011900Z 09004KT 020V110 CAVOK 38/14 Q1000 NOSIG',NULL,'38.0',1280689200,'2.05555555555556',10);
INSERT INTO `weather_metar_archives` (`time_to`,`pressure`,`created_at`,`snow`,`raw`,`rain`,`temperature`,`time_from`,`wind`,`city_id`) VALUES (1280694600,'999',1289975504,NULL,'OMDB 012000Z 09004KT 010V140 CAVOK 38/14 Q0999 NOSIG',NULL,'38.0',1280692800,'2.05555555555556',10);
INSERT INTO `weather_metar_archives` (`time_to`,`pressure`,`created_at`,`snow`,`raw`,`rain`,`temperature`,`time_from`,`wind`,`city_id`) VALUES (1280698200,'999',1289975504,NULL,'OMDB 012100Z 11005KT 050V160 CAVOK 38/14 Q0999 NOSIG',NULL,'38.0',1280696400,'2.56944444444444',10);
INSERT INTO `weather_metar_archives` (`time_to`,`pressure`,`created_at`,`snow`,`raw`,`rain`,`temperature`,`time_from`,`wind`,`city_id`) VALUES (1280701800,'998',1289975504,NULL,'OMDB 012200Z 12006KT 050V140 CAVOK 38/13 Q0998 NOSIG',NULL,'38.0',1280700000,'3.08333333333333',10);
INSERT INTO `weather_metar_archives` (`time_to`,`pressure`,`created_at`,`snow`,`raw`,`rain`,`temperature`,`time_from`,`wind`,`city_id`) VALUES (1280705400,'998',1289975504,NULL,'OMDB 012300Z 08005KT 050V110 CAVOK 37/15 Q0998 NOSIG',NULL,'37.0',1280703600,'2.56944444444444',10);
INSERT INTO `weather_metar_archives` (`time_to`,`pressure`,`created_at`,`snow`,`raw`,`rain`,`temperature`,`time_from`,`wind`,`city_id`) VALUES (1280709000,'998',1289975504,NULL,'OMDB 020000Z VRB02KT CAVOK 37/15 Q0998 NOSIG',NULL,'37.0',1280707200,NULL,10);
INSERT INTO `weather_metar_archives` (`time_to`,`pressure`,`created_at`,`snow`,`raw`,`rain`,`temperature`,`time_from`,`wind`,`city_id`) VALUES (1280712600,NULL,1289975504,NULL,'OMDB 020100Z 12004KT 070V160 CAVOK 36/15 Q099',NULL,'36.0',1280710800,'2.05555555555556',10);
INSERT INTO `weather_metar_archives` (`time_to`,`pressure`,`created_at`,`snow`,`raw`,`rain`,`temperature`,`time_from`,`wind`,`city_id`) VALUES (1280712600,'998',1289975504,NULL,'OMDB 020100Z 12004KT 070V160 CAVOK 36/15 Q0998 NOSIG',NULL,'36.0',1280710800,'2.05555555555556',10);
INSERT INTO `weather_metar_archives` (`time_to`,`pressure`,`created_at`,`snow`,`raw`,`rain`,`temperature`,`time_from`,`wind`,`city_id`) VALUES (1280716200,'999',1289975504,NULL,'OMDB 020200Z 15003KT 110V200 CAVOK 36/16 Q0999 NOSIG',NULL,'36.0',1280714400,'1.54166666666667',10);
INSERT INTO `weather_metar_archives` (`time_to`,`pressure`,`created_at`,`snow`,`raw`,`rain`,`temperature`,`time_from`,`wind`,`city_id`) VALUES (1280719800,'999',1289975504,NULL,'OMDB 020300Z 04004KT CAVOK 36/15 Q0999 NOSIG',NULL,'36.0',1280718000,'2.05555555555556',10);
INSERT INTO `weather_metar_archives` (`time_to`,`pressure`,`created_at`,`snow`,`raw`,`rain`,`temperature`,`time_from`,`wind`,`city_id`) VALUES (1280723400,'1001',1289975504,NULL,'OMDB 020400Z VRB05KT 8000 NSC 37/13 Q1001 NOS',NULL,'37.0',1280721600,NULL,10);
INSERT INTO `weather_metar_archives` (`time_to`,`pressure`,`created_at`,`snow`,`raw`,`rain`,`temperature`,`time_from`,`wind`,`city_id`) VALUES (1280723400,'1001',1289975504,NULL,'OMDB 020400Z VRB05KT 8000 NSC 37/13 Q1001 NOSIG',NULL,'37.0',1280721600,NULL,10);
INSERT INTO `weather_metar_archives` (`time_to`,`pressure`,`created_at`,`snow`,`raw`,`rain`,`temperature`,`time_from`,`wind`,`city_id`) VALUES (1280727000,'1001',1289975504,NULL,'OMDB 020500Z 12006KT 070V160 CAVOK 39/12 Q1001 NOSIG',NULL,'39.0',1280725200,'3.08333333333333',10);
INSERT INTO `weather_metar_archives` (`time_to`,`pressure`,`created_at`,`snow`,`raw`,`rain`,`temperature`,`time_from`,`wind`,`city_id`) VALUES (1280727000,'1001',1289975504,NULL,'OMDB 020500Z 12006KT 070V160 CAVOK 39/12 Q1001 N',NULL,'39.0',1280725200,'3.08333333333333',10);
INSERT INTO `weather_metar_archives` (`time_to`,`pressure`,`created_at`,`snow`,`raw`,`rain`,`temperature`,`time_from`,`wind`,`city_id`) VALUES (1280730600,'1001',1289975505,NULL,'OMDB 020600Z VRB04KT CAVOK 41/12 Q1001 NOSIG',NULL,'41.0',1280728800,NULL,10);
INSERT INTO `weather_metar_archives` (`time_to`,`pressure`,`created_at`,`snow`,`raw`,`rain`,`temperature`,`time_from`,`wind`,`city_id`) VALUES (1280734200,'1000',1289975505,NULL,'OMDB 020700Z VRB02KT CAVOK 42/13 Q1000 NOSIG',NULL,'42.0',1280732400,NULL,10);
INSERT INTO `weather_metar_archives` (`time_to`,`pressure`,`created_at`,`snow`,`raw`,`rain`,`temperature`,`time_from`,`wind`,`city_id`) VALUES (1280737800,NULL,1289975505,NULL,'OMDB 020800Z 25004KT 170V300 CAVOK 44/11 Q100',NULL,'44.0',1280736000,'2.05555555555556',10);
INSERT INTO `weather_metar_archives` (`time_to`,`pressure`,`created_at`,`snow`,`raw`,`rain`,`temperature`,`time_from`,`wind`,`city_id`) VALUES (1280737800,'1000',1289975505,NULL,'OMDB 020800Z 25004KT 170V300 CAVOK 44/11 Q1000 NOSIG',NULL,'44.0',1280736000,'2.05555555555556',10);
INSERT INTO `weather_metar_archives` (`time_to`,`pressure`,`created_at`,`snow`,`raw`,`rain`,`temperature`,`time_from`,`wind`,`city_id`) VALUES (1280741400,'999',1289975505,NULL,'OMDB 020900Z 33013KT CAVOK 42/17 Q0999 NOSIG',NULL,'42.0',1280739600,'6.68055555555556',10);
INSERT INTO `weather_metar_archives` (`time_to`,`pressure`,`created_at`,`snow`,`raw`,`rain`,`temperature`,`time_from`,`wind`,`city_id`) VALUES (1280745000,'998',1289975505,NULL,'OMDB 021000Z 34013KT CAVOK 41/20 Q0998 NOSIG',NULL,'41.0',1280743200,'6.68055555555556',10);
INSERT INTO `weather_metar_archives` (`time_to`,`pressure`,`created_at`,`snow`,`raw`,`rain`,`temperature`,`time_from`,`wind`,`city_id`) VALUES (1280748600,NULL,1289975505,NULL,'OMDB 021100Z 34014KT 320V050 CAVOK 40/21 Q099',NULL,'40.0',1280746800,'7.19444444444444',10);
INSERT INTO `weather_metar_archives` (`time_to`,`pressure`,`created_at`,`snow`,`raw`,`rain`,`temperature`,`time_from`,`wind`,`city_id`) VALUES (1280748600,'998',1289975505,NULL,'OMDB 021100Z 34014KT 320V050 CAVOK 40/21 Q0998 NOSIG',NULL,'40.0',1280746800,'7.19444444444444',10);
INSERT INTO `weather_metar_archives` (`time_to`,`pressure`,`created_at`,`snow`,`raw`,`rain`,`temperature`,`time_from`,`wind`,`city_id`) VALUES (1280752200,'998',1289975505,NULL,'OMDB 021200Z 34012KT 320V050 CAVOK 41/21 Q0998 NOSIG',NULL,'41.0',1280750400,'6.16666666666667',10);
INSERT INTO `weather_metar_archives` (`time_to`,`pressure`,`created_at`,`snow`,`raw`,`rain`,`temperature`,`time_from`,`wind`,`city_id`) VALUES (1280755800,'997',1289975505,NULL,'OMDB 021300Z 33012KT 320V030 CAVOK 39/20 Q0997 NOSIG',NULL,'39.0',1280754000,'6.16666666666667',10);
INSERT INTO `weather_metar_archives` (`time_to`,`pressure`,`created_at`,`snow`,`raw`,`rain`,`temperature`,`time_from`,`wind`,`city_id`) VALUES (1280763000,'998',1289975505,NULL,'OMDB 021500Z 09004KT 030V150 CAVOK 41/12 Q0998 NOSIG',NULL,'41.0',1280761200,'2.05555555555556',10);
INSERT INTO `weather_metar_archives` (`time_to`,`pressure`,`created_at`,`snow`,`raw`,`rain`,`temperature`,`time_from`,`wind`,`city_id`) VALUES (1283884200,'1001',1289975628,NULL,'OMDB 071800Z VRB04KT CAVOK 34/25 Q1001 NOSIG',NULL,'34.0',1283882400,NULL,10);
INSERT INTO `weather_metar_archives` (`time_to`,`pressure`,`created_at`,`snow`,`raw`,`rain`,`temperature`,`time_from`,`wind`,`city_id`) VALUES (1283887800,NULL,1289975628,NULL,'OMDB 071900Z 07003KT 020V140 CAVOK 34/25 Q100',NULL,'34.0',1283886000,'1.54166666666667',10);
INSERT INTO `weather_metar_archives` (`time_to`,`pressure`,`created_at`,`snow`,`raw`,`rain`,`temperature`,`time_from`,`wind`,`city_id`) VALUES (1283887800,'1001',1289975628,NULL,'OMDB 071900Z 07003KT 020V140 CAVOK 34/25 Q1001 NOSIG',NULL,'34.0',1283886000,'1.54166666666667',10);
INSERT INTO `weather_metar_archives` (`time_to`,`pressure`,`created_at`,`snow`,`raw`,`rain`,`temperature`,`time_from`,`wind`,`city_id`) VALUES (1283891400,'1001',1289975628,NULL,'OMDB 072000Z 09003KT 350V120 CAVOK 34/24 Q1001 NOSIG',NULL,'34.0',1283889600,'1.54166666666667',10);
INSERT INTO `weather_metar_archives` (`time_to`,`pressure`,`created_at`,`snow`,`raw`,`rain`,`temperature`,`time_from`,`wind`,`city_id`) VALUES (1283895000,'1000',1289975628,NULL,'OMDB 072100Z 08004KT 050V140 CAVOK 33/23 Q1000 NOSIG',NULL,'33.0',1283893200,'2.05555555555556',10);
INSERT INTO `weather_metar_archives` (`time_to`,`pressure`,`created_at`,`snow`,`raw`,`rain`,`temperature`,`time_from`,`wind`,`city_id`) VALUES (1283898600,'1001',1289975628,NULL,'OMDB 072200Z 06003KT CAVOK 33/22 Q1001 NOSIG',NULL,'33.0',1283896800,'1.54166666666667',10);
INSERT INTO `weather_metar_archives` (`time_to`,`pressure`,`created_at`,`snow`,`raw`,`rain`,`temperature`,`time_from`,`wind`,`city_id`) VALUES (1283902200,NULL,1289975628,NULL,'OMDB 072300Z 09003KT 030V150 CAVOK 32/21 Q100',NULL,'32.0',1283900400,'1.54166666666667',10);
INSERT INTO `weather_metar_archives` (`time_to`,`pressure`,`created_at`,`snow`,`raw`,`rain`,`temperature`,`time_from`,`wind`,`city_id`) VALUES (1283902200,'1001',1289975628,NULL,'OMDB 072300Z 09003KT 030V150 CAVOK 32/21 Q1001 NOSIG',NULL,'32.0',1283900400,'1.54166666666667',10);
INSERT INTO `weather_metar_archives` (`time_to`,`pressure`,`created_at`,`snow`,`raw`,`rain`,`temperature`,`time_from`,`wind`,`city_id`) VALUES (1283905800,'1001',1289975628,NULL,'OMDB 080000Z 10003KT 050V140 CAVOK 32/20 Q1001 NOSIG',NULL,'32.0',1283904000,'1.54166666666667',10);
INSERT INTO `weather_metar_archives` (`time_to`,`pressure`,`created_at`,`snow`,`raw`,`rain`,`temperature`,`time_from`,`wind`,`city_id`) VALUES (1283909400,'1001',1289975628,NULL,'OMDB 080100Z 16001KT CAVOK 32/18 Q1001 NOSIG',NULL,'32.0',1283907600,'0.513888888888889',10);
INSERT INTO `weather_metar_archives` (`time_to`,`pressure`,`created_at`,`snow`,`raw`,`rain`,`temperature`,`time_from`,`wind`,`city_id`) VALUES (1283913000,'1001',1289975628,NULL,'OMDB 080200Z VRB02KT CAVOK 31/19 Q1001 NOSIG',NULL,'31.0',1283911200,NULL,10);
INSERT INTO `weather_metar_archives` (`time_to`,`pressure`,`created_at`,`snow`,`raw`,`rain`,`temperature`,`time_from`,`wind`,`city_id`) VALUES (1283916600,'1001',1289975628,NULL,'OMDB 080300Z 12003KT CAVOK 31/17 Q1001 NOSIG',NULL,'31.0',1283914800,'1.54166666666667',10);
INSERT INTO `weather_metar_archives` (`time_to`,`pressure`,`created_at`,`snow`,`raw`,`rain`,`temperature`,`time_from`,`wind`,`city_id`) VALUES (1283920200,'1002',1289975628,NULL,'OMDB 080400Z 18007KT CAVOK 33/17 Q1002 NOSIG',NULL,'33.0',1283918400,'3.59722222222222',10);
INSERT INTO `weather_metar_archives` (`time_to`,`pressure`,`created_at`,`snow`,`raw`,`rain`,`temperature`,`time_from`,`wind`,`city_id`) VALUES (1283923800,'1003',1289975628,NULL,'OMDB 080500Z 21005KT CAVOK 36/13 Q1003 NOSIG',NULL,'36.0',1283922000,'2.56944444444444',10);
INSERT INTO `weather_metar_archives` (`time_to`,`pressure`,`created_at`,`snow`,`raw`,`rain`,`temperature`,`time_from`,`wind`,`city_id`) VALUES (1283927400,'1002',1289975628,NULL,'OMDB 080600Z 20006KT 170V230 CAVOK 38/15 Q1002 NOSIG',NULL,'38.0',1283925600,'3.08333333333333',10);
INSERT INTO `weather_metar_archives` (`time_to`,`pressure`,`created_at`,`snow`,`raw`,`rain`,`temperature`,`time_from`,`wind`,`city_id`) VALUES (1283927400,NULL,1289975628,NULL,'OMDB 080600Z 20006KT 170V230 CAVOK 38/15 Q100',NULL,'38.0',1283925600,'3.08333333333333',10);
INSERT INTO `weather_metar_archives` (`time_to`,`pressure`,`created_at`,`snow`,`raw`,`rain`,`temperature`,`time_from`,`wind`,`city_id`) VALUES (1283931000,'1002',1289975628,NULL,'OMDB 080700Z VRB03KT CAVOK 40/13 Q1002 NOSIG',NULL,'40.0',1283929200,NULL,10);
INSERT INTO `weather_metar_archives` (`time_to`,`pressure`,`created_at`,`snow`,`raw`,`rain`,`temperature`,`time_from`,`wind`,`city_id`) VALUES (1283934600,NULL,1289975628,NULL,'OMDB 080800Z 25004KT 200V290 CAVOK 42/08 Q100',NULL,'42.0',1283932800,'2.05555555555556',10);
INSERT INTO `weather_metar_archives` (`time_to`,`pressure`,`created_at`,`snow`,`raw`,`rain`,`temperature`,`time_from`,`wind`,`city_id`) VALUES (1283934600,'1002',1289975628,NULL,'OMDB 080800Z 25004KT 200V290 CAVOK 42/08 Q1002 NOSIG',NULL,'42.0',1283932800,'2.05555555555556',10);
INSERT INTO `weather_metar_archives` (`time_to`,`pressure`,`created_at`,`snow`,`raw`,`rain`,`temperature`,`time_from`,`wind`,`city_id`) VALUES (1283938200,'1001',1289975628,NULL,'OMDB 080900Z 32013KT CAVOK 41/16 Q1001 NOSIG',NULL,'41.0',1283936400,'6.68055555555556',10);
INSERT INTO `weather_metar_archives` (`time_to`,`pressure`,`created_at`,`snow`,`raw`,`rain`,`temperature`,`time_from`,`wind`,`city_id`) VALUES (1283941800,'1000',1289975628,NULL,'OMDB 081000Z 32013KT CAVOK 41/12 Q1000 NOSIG',NULL,'41.0',1283940000,'6.68055555555556',10);
INSERT INTO `weather_metar_archives` (`time_to`,`pressure`,`created_at`,`snow`,`raw`,`rain`,`temperature`,`time_from`,`wind`,`city_id`) VALUES (1283945400,'1000',1289975628,NULL,'OMDB 081100Z 32016KT CAVOK 39/13 Q1000 NOSIG',NULL,'39.0',1283943600,'8.22222222222222',10);
INSERT INTO `weather_metar_archives` (`time_to`,`pressure`,`created_at`,`snow`,`raw`,`rain`,`temperature`,`time_from`,`wind`,`city_id`) VALUES (1283949000,'1000',1289975628,NULL,'OMDB 081200Z 33014KT CAVOK 39/16 Q1000 NOSIG',NULL,'39.0',1283947200,'7.19444444444444',10);
INSERT INTO `weather_metar_archives` (`time_to`,`pressure`,`created_at`,`snow`,`raw`,`rain`,`temperature`,`time_from`,`wind`,`city_id`) VALUES (1283952600,NULL,1289975628,NULL,'OMDB 081300Z 33011KT 310V050 CAVOK 37/24 Q100',NULL,'37.0',1283950800,'5.65277777777778',10);
INSERT INTO `weather_metar_archives` (`time_to`,`pressure`,`created_at`,`snow`,`raw`,`rain`,`temperature`,`time_from`,`wind`,`city_id`) VALUES (1283952600,'1000',1289975628,NULL,'OMDB 081300Z 33011KT 310V050 CAVOK 37/24 Q1000 NOSIG',NULL,'37.0',1283950800,'5.65277777777778',10);
INSERT INTO `weather_metar_archives` (`time_to`,`pressure`,`created_at`,`snow`,`raw`,`rain`,`temperature`,`time_from`,`wind`,`city_id`) VALUES (1283956200,'1000',1289975628,NULL,'OMDB 081400Z 33010KT CAVOK 36/23 Q1000 NOSIG',NULL,'36.0',1283954400,'5.13888888888889',10);
INSERT INTO `weather_metar_archives` (`time_to`,`pressure`,`created_at`,`snow`,`raw`,`rain`,`temperature`,`time_from`,`wind`,`city_id`) VALUES (1283959800,'1000',1289975628,NULL,'OMDB 081500Z 33009KT CAVOK 34/27 Q1000 NOSIG',NULL,'34.0',1283958000,'4.625',10);
INSERT INTO `weather_metar_archives` (`time_to`,`pressure`,`created_at`,`snow`,`raw`,`rain`,`temperature`,`time_from`,`wind`,`city_id`) VALUES (1283963400,NULL,1289975628,NULL,'OMDB 081600Z 34006KT 310V010 CAVOK 33/28 Q100',NULL,'33.0',1283961600,'3.08333333333333',10);
INSERT INTO `weather_metar_archives` (`time_to`,`pressure`,`created_at`,`snow`,`raw`,`rain`,`temperature`,`time_from`,`wind`,`city_id`) VALUES (1283963400,'1001',1289975628,NULL,'OMDB 081600Z 34006KT 310V010 CAVOK 33/28 Q1001 NOSIG',NULL,'33.0',1283961600,'3.08333333333333',10);
INSERT INTO `weather_metar_archives` (`time_to`,`pressure`,`created_at`,`snow`,`raw`,`rain`,`temperature`,`time_from`,`wind`,`city_id`) VALUES (1283967000,'1001',1289975628,NULL,'OMDB 081700Z VRB01KT CAVOK 34/27 Q1001 NOSIG',NULL,'34.0',1283965200,NULL,10);
INSERT INTO `weather_metar_archives` (`time_to`,`pressure`,`created_at`,`snow`,`raw`,`rain`,`temperature`,`time_from`,`wind`,`city_id`) VALUES (1283970600,NULL,1289975628,NULL,'OMDB 081800Z 21003KT 170V240 CAVOK 34/27 Q100',NULL,'34.0',1283968800,'1.54166666666667',10);
INSERT INTO `weather_metar_archives` (`time_to`,`pressure`,`created_at`,`snow`,`raw`,`rain`,`temperature`,`time_from`,`wind`,`city_id`) VALUES (1283970600,'1001',1289975628,NULL,'OMDB 081800Z 21003KT 170V240 CAVOK 34/27 Q1001 NOSIG',NULL,'34.0',1283968800,'1.54166666666667',10);
INSERT INTO `weather_metar_archives` (`time_to`,`pressure`,`created_at`,`snow`,`raw`,`rain`,`temperature`,`time_from`,`wind`,`city_id`) VALUES (1283974200,'1001',1289975628,NULL,'OMDB 081900Z 24004KT CAVOK 33/27 Q1001 NOSIG',NULL,'33.0',1283972400,'2.05555555555556',10);
INSERT INTO `weather_metar_archives` (`time_to`,`pressure`,`created_at`,`snow`,`raw`,`rain`,`temperature`,`time_from`,`wind`,`city_id`) VALUES (1283977800,'1001',1289975628,NULL,'OMDB 082000Z 23003KT CAVOK 33/27 Q1001 NOSIG',NULL,'33.0',1283976000,'1.54166666666667',10);
INSERT INTO `weather_metar_archives` (`time_to`,`pressure`,`created_at`,`snow`,`raw`,`rain`,`temperature`,`time_from`,`wind`,`city_id`) VALUES (1283981400,'1001',1289975628,NULL,'OMDB 082100Z VRB02KT CAVOK 33/26 Q1001 NOSIG',NULL,'33.0',1283979600,NULL,10);
INSERT INTO `weather_metar_archives` (`time_to`,`pressure`,`created_at`,`snow`,`raw`,`rain`,`temperature`,`time_from`,`wind`,`city_id`) VALUES (1283985000,NULL,1289975628,NULL,'OMDB 082200Z 08003KT 330V120 CAVOK 32/27 Q100',NULL,'32.0',1283983200,'1.54166666666667',10);
INSERT INTO `weather_metar_archives` (`time_to`,`pressure`,`created_at`,`snow`,`raw`,`rain`,`temperature`,`time_from`,`wind`,`city_id`) VALUES (1283985000,'1001',1289975628,NULL,'OMDB 082200Z 08003KT 330V120 CAVOK 32/27 Q1001 NOSIG',NULL,'32.0',1283983200,'1.54166666666667',10);
INSERT INTO `weather_metar_archives` (`time_to`,`pressure`,`created_at`,`snow`,`raw`,`rain`,`temperature`,`time_from`,`wind`,`city_id`) VALUES (1283988600,'1001',1289975628,NULL,'OMDB 082300Z VRB01KT CAVOK 32/26 Q1001 NOSIG',NULL,'32.0',1283986800,NULL,10);
INSERT INTO `weather_metar_archives` (`time_to`,`pressure`,`created_at`,`snow`,`raw`,`rain`,`temperature`,`time_from`,`wind`,`city_id`) VALUES (1283992200,NULL,1289975628,NULL,'OMDB 090000Z 08005KT 050V110 CAVOK 31/25 Q100',NULL,'31.0',1283990400,'2.56944444444444',10);
INSERT INTO `weather_metar_archives` (`time_to`,`pressure`,`created_at`,`snow`,`raw`,`rain`,`temperature`,`time_from`,`wind`,`city_id`) VALUES (1283992200,'1001',1289975628,NULL,'OMDB 090000Z 08005KT 050V110 CAVOK 31/25 Q1001 NOSIG',NULL,'31.0',1283990400,'2.56944444444444',10);
INSERT INTO `weather_metar_archives` (`time_to`,`pressure`,`created_at`,`snow`,`raw`,`rain`,`temperature`,`time_from`,`wind`,`city_id`) VALUES (1283995800,'1001',1289975628,NULL,'OMDB 090100Z 10004KT 030V130 CAVOK 30/26 Q1001 NOSIG',NULL,'30.0',1283994000,'2.05555555555556',10);
INSERT INTO `weather_metar_archives` (`time_to`,`pressure`,`created_at`,`snow`,`raw`,`rain`,`temperature`,`time_from`,`wind`,`city_id`) VALUES (1283999400,'1001',1289975628,NULL,'OMDB 090200Z 08004KT 030V110 8000 NSC 30/26 Q1001 NOS',NULL,'30.0',1283997600,'2.05555555555556',10);
INSERT INTO `weather_metar_archives` (`time_to`,`pressure`,`created_at`,`snow`,`raw`,`rain`,`temperature`,`time_from`,`wind`,`city_id`) VALUES (1283999400,'1001',1289975628,NULL,'OMDB 090200Z 08004KT 030V110 8000 NSC 30/26 Q1001 NOSIG',NULL,'30.0',1283997600,'2.05555555555556',10);
INSERT INTO `weather_metar_archives` (`time_to`,`pressure`,`created_at`,`snow`,`raw`,`rain`,`temperature`,`time_from`,`wind`,`city_id`) VALUES (1284003000,'1002',1289975628,NULL,'OMDB 090300Z 12003KT 060V140 7000 NSC 30/26 Q1002 NOSIG',NULL,'30.0',1284001200,'1.54166666666667',10);
INSERT INTO `weather_metar_archives` (`time_to`,`pressure`,`created_at`,`snow`,`raw`,`rain`,`temperature`,`time_from`,`wind`,`city_id`) VALUES (1284006600,'1002',1289975628,NULL,'OMDB 090400Z 10003KT 030V140 7000 NSC 31/26 Q1002 NOSIG',NULL,'31.0',1284004800,'1.54166666666667',10);
INSERT INTO `weather_metar_archives` (`time_to`,`pressure`,`created_at`,`snow`,`raw`,`rain`,`temperature`,`time_from`,`wind`,`city_id`) VALUES (1284010200,'1002',1289975628,NULL,'OMDB 090500Z 04003KT 340V110 8000 NSC 34/25 Q1002 NOSIG',NULL,'34.0',1284008400,'1.54166666666667',10);
INSERT INTO `weather_metar_archives` (`time_to`,`pressure`,`created_at`,`snow`,`raw`,`rain`,`temperature`,`time_from`,`wind`,`city_id`) VALUES (1284013800,'1002',1289975628,NULL,'OMDB 090600Z 04004KT 360V110 8000 NSC 36/23 Q1002 NOSIG',NULL,'36.0',1284012000,'2.05555555555556',10);
INSERT INTO `weather_metar_archives` (`time_to`,`pressure`,`created_at`,`snow`,`raw`,`rain`,`temperature`,`time_from`,`wind`,`city_id`) VALUES (1284017400,'1002',1289975628,NULL,'OMDB 090700Z 32007KT 280V050 8000 NSC 36/24 Q1002 NOSIG',NULL,'36.0',1284015600,'3.59722222222222',10);
INSERT INTO `weather_metar_archives` (`time_to`,`pressure`,`created_at`,`snow`,`raw`,`rain`,`temperature`,`time_from`,`wind`,`city_id`) VALUES (1284021000,'1002',1289975628,NULL,'OMDB 090800Z 33010KT 8000 NSC 35/28 Q1002 NOSIG',NULL,'35.0',1284019200,'5.13888888888889',10);
INSERT INTO `weather_metar_archives` (`time_to`,`pressure`,`created_at`,`snow`,`raw`,`rain`,`temperature`,`time_from`,`wind`,`city_id`) VALUES (1284024600,'1001',1289975628,NULL,'OMDB 090900Z 32011KT CAVOK 36/25 Q1001 NOSIG',NULL,'36.0',1284022800,'5.65277777777778',10);
INSERT INTO `weather_metar_archives` (`time_to`,`pressure`,`created_at`,`snow`,`raw`,`rain`,`temperature`,`time_from`,`wind`,`city_id`) VALUES (1284028200,NULL,1289975628,NULL,'OMDB 091000Z 33013KT 320V050 8000 NSC 35/25 Q',NULL,'35.0',1284026400,'6.68055555555556',10);
INSERT INTO `weather_metar_archives` (`time_to`,`pressure`,`created_at`,`snow`,`raw`,`rain`,`temperature`,`time_from`,`wind`,`city_id`) VALUES (1284028200,'1001',1289975628,NULL,'OMDB 091000Z 33013KT 320V050 8000 NSC 35/25 Q1001 NOSIG',NULL,'35.0',1284026400,'6.68055555555556',10);
INSERT INTO `weather_metar_archives` (`time_to`,`pressure`,`created_at`,`snow`,`raw`,`rain`,`temperature`,`time_from`,`wind`,`city_id`) VALUES (1284031800,'1000',1289975628,NULL,'OMDB 091100Z 35011KT 330V050 8000 NSC 35/23 Q1000 NOSIG',NULL,'35.0',1284030000,'5.65277777777778',10);
INSERT INTO `weather_metar_archives` (`time_to`,`pressure`,`created_at`,`snow`,`raw`,`rain`,`temperature`,`time_from`,`wind`,`city_id`) VALUES (1284035400,'1000',1289975628,NULL,'OMDB 091200Z 33012KT 8000 NSC 36/21 Q1000 NOSIG',NULL,'36.0',1284033600,'6.16666666666667',10);
INSERT INTO `weather_metar_archives` (`time_to`,`pressure`,`created_at`,`snow`,`raw`,`rain`,`temperature`,`time_from`,`wind`,`city_id`) VALUES (1284039000,NULL,1289975628,NULL,'OMDB 091300Z 35007KT 320V050 8000 NSC 36/24 Q100',NULL,'36.0',1284037200,'3.59722222222222',10);
INSERT INTO `weather_metar_archives` (`time_to`,`pressure`,`created_at`,`snow`,`raw`,`rain`,`temperature`,`time_from`,`wind`,`city_id`) VALUES (1284039000,'1000',1289975628,NULL,'OMDB 091300Z 35007KT 320V050 8000 NSC 36/24 Q1000 NOSIG',NULL,'36.0',1284037200,'3.59722222222222',10);
INSERT INTO `weather_metar_archives` (`time_to`,`pressure`,`created_at`,`snow`,`raw`,`rain`,`temperature`,`time_from`,`wind`,`city_id`) VALUES (1284042600,'1000',1289975628,NULL,'OMDB 091400Z 35005KT 300V060 CAVOK 35/25 Q1000 NOSIG',NULL,'35.0',1284040800,'2.56944444444444',10);
INSERT INTO `weather_metar_archives` (`time_to`,`pressure`,`created_at`,`snow`,`raw`,`rain`,`temperature`,`time_from`,`wind`,`city_id`) VALUES (1284046200,'1000',1289975628,NULL,'OMDB 091500Z 03005KT 350V090 CAVOK 35/24 Q1000 NOSIG',NULL,'35.0',1284044400,'2.56944444444444',10);
INSERT INTO `weather_metar_archives` (`time_to`,`pressure`,`created_at`,`snow`,`raw`,`rain`,`temperature`,`time_from`,`wind`,`city_id`) VALUES (1284049800,'1000',1289975628,NULL,'OMDB 091600Z VRB02KT CAVOK 35/24 Q1000 NOSIG',NULL,'35.0',1284048000,NULL,10);
INSERT INTO `weather_metar_archives` (`time_to`,`pressure`,`created_at`,`snow`,`raw`,`rain`,`temperature`,`time_from`,`wind`,`city_id`) VALUES (1284053400,NULL,1289975628,NULL,'OMDB 091700Z 11004KT 050V130 CAVOK 35/20 Q100',NULL,'35.0',1284051600,'2.05555555555556',10);
INSERT INTO `weather_metar_archives` (`time_to`,`pressure`,`created_at`,`snow`,`raw`,`rain`,`temperature`,`time_from`,`wind`,`city_id`) VALUES (1284053400,'1001',1289975628,NULL,'OMDB 091700Z 11004KT 050V130 CAVOK 35/20 Q1001 NOSIG',NULL,'35.0',1284051600,'2.05555555555556',10);
INSERT INTO `weather_metar_archives` (`time_to`,`pressure`,`created_at`,`snow`,`raw`,`rain`,`temperature`,`time_from`,`wind`,`city_id`) VALUES (1284057000,'1001',1289975628,NULL,'OMDB 091800Z 10004KT 050V200 CAVOK 35/20 Q1001 NOSIG',NULL,'35.0',1284055200,'2.05555555555556',10);
INSERT INTO `weather_metar_archives` (`time_to`,`pressure`,`created_at`,`snow`,`raw`,`rain`,`temperature`,`time_from`,`wind`,`city_id`) VALUES (1284060600,'1001',1289975628,NULL,'OMDB 091900Z VRB02KT CAVOK 35/19 Q1001 NOSIG',NULL,'35.0',1284058800,NULL,10);
INSERT INTO `weather_metar_archives` (`time_to`,`pressure`,`created_at`,`snow`,`raw`,`rain`,`temperature`,`time_from`,`wind`,`city_id`) VALUES (1284064200,'1000',1289975628,NULL,'OMDB 092000Z 21005KT CAVOK 34/20 Q1000 NOSIG',NULL,'34.0',1284062400,'2.56944444444444',10);
INSERT INTO `weather_metar_archives` (`time_to`,`pressure`,`created_at`,`snow`,`raw`,`rain`,`temperature`,`time_from`,`wind`,`city_id`) VALUES (1284067800,'1000',1289975628,NULL,'OMDB 092100Z VRB03KT CAVOK 33/20 Q1000 NOSIG',NULL,'33.0',1284066000,NULL,10);
INSERT INTO `weather_metar_archives` (`time_to`,`pressure`,`created_at`,`snow`,`raw`,`rain`,`temperature`,`time_from`,`wind`,`city_id`) VALUES (1284071400,NULL,1289975628,NULL,'OMDB 092200Z 03004KT 300V070 CAVOK 33/27 Q100',NULL,'33.0',1284069600,'2.05555555555556',10);
INSERT INTO `weather_metar_archives` (`time_to`,`pressure`,`created_at`,`snow`,`raw`,`rain`,`temperature`,`time_from`,`wind`,`city_id`) VALUES (1284071400,'1000',1289975628,NULL,'OMDB 092200Z 03004KT 300V070 CAVOK 33/27 Q1000 NOSIG',NULL,'33.0',1284069600,'2.05555555555556',10);
INSERT INTO `weather_metar_archives` (`time_to`,`pressure`,`created_at`,`snow`,`raw`,`rain`,`temperature`,`time_from`,`wind`,`city_id`) VALUES (1284075000,'1000',1289975628,NULL,'OMDB 092300Z 03009KT CAVOK 32/27 Q1000 NOSIG',NULL,'32.0',1284073200,'4.625',10);
INSERT INTO `weather_metar_archives` (`time_to`,`pressure`,`created_at`,`snow`,`raw`,`rain`,`temperature`,`time_from`,`wind`,`city_id`) VALUES (1284078600,'1000',1289975628,NULL,'OMDB 100000Z 05004KT 020V110 CAVOK 32/26 Q1000 NOSIG',NULL,'32.0',1284076800,'2.05555555555556',10);
INSERT INTO `weather_metar_archives` (`time_to`,`pressure`,`created_at`,`snow`,`raw`,`rain`,`temperature`,`time_from`,`wind`,`city_id`) VALUES (1284082200,'1000',1289975628,NULL,'OMDB 100100Z 03003KT 350V090 CAVOK 32/25 Q1000 NOSIG',NULL,'32.0',1284080400,'1.54166666666667',10);
INSERT INTO `weather_metar_archives` (`time_to`,`pressure`,`created_at`,`snow`,`raw`,`rain`,`temperature`,`time_from`,`wind`,`city_id`) VALUES (1284085800,'1001',1289975628,NULL,'OMDB 100200Z 16006KT 120V180 CAVOK 31/26 Q1001 NOSIG',NULL,'31.0',1284084000,'3.08333333333333',10);
INSERT INTO `weather_metar_archives` (`time_to`,`pressure`,`created_at`,`snow`,`raw`,`rain`,`temperature`,`time_from`,`wind`,`city_id`) VALUES (1284089400,'1001',1289975628,NULL,'OMDB 100300Z 16003KT 120V200 4000 HZ NSC 30/27 Q1001',NULL,'30.0',1284087600,'1.54166666666667',10);
INSERT INTO `weather_metar_archives` (`time_to`,`pressure`,`created_at`,`snow`,`raw`,`rain`,`temperature`,`time_from`,`wind`,`city_id`) VALUES (1284089400,'1001',1289975628,NULL,'OMDB 100300Z 16003KT 120V200 4000 HZ NSC 30/27 Q1001 NOSIG',NULL,'30.0',1284087600,'1.54166666666667',10);
INSERT INTO `weather_metar_archives` (`time_to`,`pressure`,`created_at`,`snow`,`raw`,`rain`,`temperature`,`time_from`,`wind`,`city_id`) VALUES (1284093000,'1002',1289975628,NULL,'OMDB 100400Z VRB01KT 5000 HZ NSC 33/25 Q1002 NOSIG',NULL,'33.0',1284091200,NULL,10);
INSERT INTO `weather_metar_archives` (`time_to`,`pressure`,`created_at`,`snow`,`raw`,`rain`,`temperature`,`time_from`,`wind`,`city_id`) VALUES (1284096600,'1002',1289975628,NULL,'OMDB 100500Z 18004KT 150V240 CAVOK 36/17 Q1002 NOSI',NULL,'36.0',1284094800,'2.05555555555556',10);
INSERT INTO `weather_metar_archives` (`time_to`,`pressure`,`created_at`,`snow`,`raw`,`rain`,`temperature`,`time_from`,`wind`,`city_id`) VALUES (1284096600,'1002',1289975628,NULL,'OMDB

 100500Z 18004KT 150V240 CAVOK 36/17 Q1002 NOSIG',NULL,'36.0',1284094800,'2.05555555555556',10);
INSERT INTO `weather_metar_archives` (`time_to`,`pressure`,`created_at`,`snow`,`raw`,`rain`,`temperature`,`time_from`,`wind`,`city_id`) VALUES (1284100200,NULL,1289975628,NULL,'OMDB 100600Z 18006K 150V240 CAVOK WEUXQY Q',NULL,NULL,1284098400,NULL,10);
INSERT INTO `weather_metar_archives` (`time_to`,`pressure`,`created_at`,`snow`,`raw`,`rain`,`temperature`,`time_from`,`wind`,`city_id`) VALUES (1284103800,NULL,1289975628,NULL,'OMDB 100700Z 16008KT 140V210 CAVOK 39/12 Q1',NULL,'39.0',1284102000,'4.11111111111111',10);
INSERT INTO `weather_metar_archives` (`time_to`,`pressure`,`created_at`,`snow`,`raw`,`rain`,`temperature`,`time_from`,`wind`,`city_id`) VALUES (1284103800,'1002',1289975628,NULL,'OMDB 100700Z 16008KT 140V210 CAVOK 39/12 Q1002 NOSIG',NULL,'39.0',1284102000,'4.11111111111111',10);
INSERT INTO `weather_metar_archives` (`time_to`,`pressure`,`created_at`,`snow`,`raw`,`rain`,`temperature`,`time_from`,`wind`,`city_id`) VALUES (1284107400,'1001',1289975628,NULL,'OMDB 100800Z 18004KT 110V240 CAVOK 41/11 Q1001 NOSIG',NULL,'41.0',1284105600,'2.05555555555556',10);
INSERT INTO `weather_metar_archives` (`time_to`,`pressure`,`created_at`,`snow`,`raw`,`rain`,`temperature`,`time_from`,`wind`,`city_id`) VALUES (1284111000,'1000',1289975628,NULL,'OMDB 100900Z 20006KT 150V250 CAVOK 43/08 Q1000 NOSIG',NULL,'43.0',1284109200,'3.08333333333333',10);
INSERT INTO `weather_metar_archives` (`time_to`,`pressure`,`created_at`,`snow`,`raw`,`rain`,`temperature`,`time_from`,`wind`,`city_id`) VALUES (1284114600,'999',1289975628,NULL,'OMDB 101000Z 06003KT 010V140 CAVOK 43/07 Q0999 NOSIG',NULL,'43.0',1284112800,'1.54166666666667',10);
INSERT INTO `weather_metar_archives` (`time_to`,`pressure`,`created_at`,`snow`,`raw`,`rain`,`temperature`,`time_from`,`wind`,`city_id`) VALUES (1284115140,'999',1289975628,NULL,'OMDB 101009Z 32010KT 270V350 CAVOK 41/20 Q0999 NOSIG',NULL,'41.0',1284113340,'5.13888888888889',10);
INSERT INTO `weather_metar_archives` (`time_to`,`pressure`,`created_at`,`snow`,`raw`,`rain`,`temperature`,`time_from`,`wind`,`city_id`) VALUES (1284118200,'998',1289975629,NULL,'OMDB 101100Z 32016KT CAVOK 39/19 Q0998 NOSIG',NULL,'39.0',1284116400,'8.22222222222222',10);
INSERT INTO `weather_metar_archives` (`time_to`,`pressure`,`created_at`,`snow`,`raw`,`rain`,`temperature`,`time_from`,`wind`,`city_id`) VALUES (1284121800,'998',1289975629,NULL,'OMDB 101200Z 32015KT CAVOK 37/22 Q0998 NOSIG',NULL,'37.0',1284120000,'7.70833333333333',10);
INSERT INTO `weather_metar_archives` (`time_to`,`pressure`,`created_at`,`snow`,`raw`,`rain`,`temperature`,`time_from`,`wind`,`city_id`) VALUES (1284125400,NULL,1289975629,NULL,'OMDB 101300Z 01008KT 330V050 CAVOK 37/23 Q099',NULL,'37.0',1284123600,'4.11111111111111',10);
INSERT INTO `weather_metar_archives` (`time_to`,`pressure`,`created_at`,`snow`,`raw`,`rain`,`temperature`,`time_from`,`wind`,`city_id`) VALUES (1284125400,'998',1289975629,NULL,'OMDB 101300Z 01008KT 330V050 CAVOK 37/23 Q0998 NOSIG',NULL,'37.0',1284123600,'4.11111111111111',10);
INSERT INTO `weather_metar_archives` (`time_to`,`pressure`,`created_at`,`snow`,`raw`,`rain`,`temperature`,`time_from`,`wind`,`city_id`) VALUES (1284129000,'998',1289975629,NULL,'OMDB 101400Z 34005KT 320V050 CAVOK 37/19 Q0998 NOSIG',NULL,'37.0',1284127200,'2.56944444444444',10);
INSERT INTO `weather_metar_archives` (`time_to`,`pressure`,`created_at`,`snow`,`raw`,`rain`,`temperature`,`time_from`,`wind`,`city_id`) VALUES (1284132600,'998',1289975629,NULL,'OMDB 101500Z 04005KT 350V080 CAVOK 37/20 Q0998 NOSIG',NULL,'37.0',1284130800,'2.56944444444444',10);
INSERT INTO `weather_metar_archives` (`time_to`,`pressure`,`created_at`,`snow`,`raw`,`rain`,`temperature`,`time_from`,`wind`,`city_id`) VALUES (1284136200,'999',1289975629,NULL,'OMDB 101600Z 06004KT 030V090 CAVOK 36/22 Q0999 NOSIG',NULL,'36.0',1284134400,'2.05555555555556',10);
INSERT INTO `weather_metar_archives` (`time_to`,`pressure`,`created_at`,`snow`,`raw`,`rain`,`temperature`,`time_from`,`wind`,`city_id`) VALUES (1284139800,'999',1289975629,NULL,'OMDB 101700Z 05004KT CAVOK 35/23 Q0999 NOSIG',NULL,'35.0',1284138000,'2.05555555555556',10);
INSERT INTO `weather_metar_archives` (`time_to`,`pressure`,`created_at`,`snow`,`raw`,`rain`,`temperature`,`time_from`,`wind`,`city_id`) VALUES (1284143400,NULL,1289975629,NULL,'OMDB 101800Z VRB05KT CAVOK 35/22 Q70 0 NOSIG',NULL,'35.0',1284141600,NULL,10);
INSERT INTO `weather_metar_archives` (`time_to`,`pressure`,`created_at`,`snow`,`raw`,`rain`,`temperature`,`time_from`,`wind`,`city_id`) VALUES (1284147000,'1000',1289975629,NULL,'OMDB 101900Z VRB03KT CAVOK 35/19 Q1000 NOSIG',NULL,'35.0',1284145200,NULL,10);
INSERT INTO `weather_metar_archives` (`time_to`,`pressure`,`created_at`,`snow`,`raw`,`rain`,`temperature`,`time_from`,`wind`,`city_id`) VALUES (1284150600,'999',1289975629,NULL,'OMDB 102000Z VRB02KT CAVOK 34/19 Q0999 NOSIG',NULL,'34.0',1284148800,NULL,10);
INSERT INTO `weather_metar_archives` (`time_to`,`pressure`,`created_at`,`snow`,`raw`,`rain`,`temperature`,`time_from`,`wind`,`city_id`) VALUES (1284154200,NULL,1289975629,NULL,'OMDB 102100Z 34006KT 290V050 CAVOK 33/26 Q099',NULL,'33.0',1284152400,'3.08333333333333',10);
INSERT INTO `weather_metar_archives` (`time_to`,`pressure`,`created_at`,`snow`,`raw`,`rain`,`temperature`,`time_from`,`wind`,`city_id`) VALUES (1284154200,'999',1289975629,NULL,'OMDB 102100Z 34006KT 290V050 CAVOK 33/26 Q0999 NOSIG',NULL,'33.0',1284152400,'3.08333333333333',10);
INSERT INTO `weather_metar_archives` (`time_to`,`pressure`,`created_at`,`snow`,`raw`,`rain`,`temperature`,`time_from`,`wind`,`city_id`) VALUES (1284157800,'999',1289975629,NULL,'OMDB 102200Z VRB03KT CAVOK 32/28 Q0999 NOSIG',NULL,'32.0',1284156000,NULL,10);
INSERT INTO `weather_metar_archives` (`time_to`,`pressure`,`created_at`,`snow`,`raw`,`rain`,`temperature`,`time_from`,`wind`,`city_id`) VALUES (1284161400,'999',1289975629,NULL,'OMDB 102300Z 03006KT 350V080 CAVOK 32/27 Q0999 NOSIG',NULL,'32.0',1284159600,'3.08333333333333',10);
INSERT INTO `weather_metar_archives` (`time_to`,`pressure`,`created_at`,`snow`,`raw`,`rain`,`temperature`,`time_from`,`wind`,`city_id`) VALUES (1284165000,'999',1289975629,NULL,'OMDB 110000Z 06004KT 340V100 CAVOK 32/26 Q0999 NOSIG',NULL,'32.0',1284163200,'2.05555555555556',10);
INSERT INTO `weather_metar_archives` (`time_to`,`pressure`,`created_at`,`snow`,`raw`,`rain`,`temperature`,`time_from`,`wind`,`city_id`) VALUES (1284168600,'1000',1289975629,NULL,'OMDB 110100Z VRB01KT CAVOK 31/25 Q1000 NOSIG',NULL,'31.0',1284166800,NULL,10);
INSERT INTO `weather_metar_archives` (`time_to`,`pressure`,`created_at`,`snow`,`raw`,`rain`,`temperature`,`time_from`,`wind`,`city_id`) VALUES (1284172200,'1000',1289975629,NULL,'OMDB 110200Z VRB02KT CAVOK 31/25 Q1000 NOSIG',NULL,'31.0',1284170400,NULL,10);
INSERT INTO `weather_metar_archives` (`time_to`,`pressure`,`created_at`,`snow`,`raw`,`rain`,`temperature`,`time_from`,`wind`,`city_id`) VALUES (1284175800,'1000',1289975629,NULL,'OMDB 110300Z 11004KT CAVOK 30/25 Q1000 NOSIG',NULL,'30.0',1284174000,'2.05555555555556',10);
INSERT INTO `weather_metar_archives` (`time_to`,`pressure`,`created_at`,`snow`,`raw`,`rain`,`temperature`,`time_from`,`wind`,`city_id`) VALUES (1284179400,NULL,1289975629,NULL,'OMDB 110400Z 15005KT 130V190 CAVOK 30/23 Q100',NULL,'30.0',1284177600,'2.56944444444444',10);
INSERT INTO `weather_metar_archives` (`time_to`,`pressure`,`created_at`,`snow`,`raw`,`rain`,`temperature`,`time_from`,`wind`,`city_id`) VALUES (1284179400,'1001',1289975629,NULL,'OMDB 110400Z 15005KT 130V190 CAVOK 30/23 Q1001 NOSIG',NULL,'30.0',1284177600,'2.56944444444444',10);
INSERT INTO `weather_metar_archives` (`time_to`,`pressure`,`created_at`,`snow`,`raw`,`rain`,`temperature`,`time_from`,`wind`,`city_id`) VALUES (1284183000,'1002',1289975629,NULL,'OMDB 110500Z 18007KT 150V210 CAVOK 36/14 Q1002 NOSIG',NULL,'36.0',1284181200,'3.59722222222222',10);
INSERT INTO `weather_metar_archives` (`time_to`,`pressure`,`created_at`,`snow`,`raw`,`rain`,`temperature`,`time_from`,`wind`,`city_id`) VALUES (1284186600,'1002',1289975629,NULL,'OMDB 110600Z 21008KT 170V240 CAVOK 38/12 Q1002 NOSIG',NULL,'38.0',1284184800,'4.11111111111111',10);
INSERT INTO `weather_metar_archives` (`time_to`,`pressure`,`created_at`,`snow`,`raw`,`rain`,`temperature`,`time_from`,`wind`,`city_id`) VALUES (1284190200,'1001',1289975629,NULL,'OMDB 110700Z 23007KT 170V290 CAVOK 40/12 Q1001 NOSIG',NULL,'40.0',1284188400,'3.59722222222222',10);
INSERT INTO `weather_metar_archives` (`time_to`,`pressure`,`created_at`,`snow`,`raw`,`rain`,`temperature`,`time_from`,`wind`,`city_id`) VALUES (1284193800,'1001',1289975629,NULL,'OMDB 110800Z 27007KT 230V330 CAVOK 39/19 Q1001 NOSIG',NULL,'39.0',1284192000,'3.59722222222222',10);
INSERT INTO `weather_metar_archives` (`time_to`,`pressure`,`created_at`,`snow`,`raw`,`rain`,`temperature`,`time_from`,`wind`,`city_id`) VALUES (1284197400,'1001',1289975629,NULL,'OMDB 110900Z 31013KT CAVOK 38/19 Q1001 NOSIG',NULL,'38.0',1284195600,'6.68055555555556',10);
INSERT INTO `weather_metar_archives` (`time_to`,`pressure`,`created_at`,`snow`,`raw`,`rain`,`temperature`,`time_from`,`wind`,`city_id`) VALUES (1284201000,'1000',1289975629,NULL,'OMDB 111000Z 32011KT CAVOK 39/19 Q1000 NOSIG',NULL,'39.0',1284199200,'5.65277777777778',10);
INSERT INTO `weather_metar_archives` (`time_to`,`pressure`,`created_at`,`snow`,`raw`,`rain`,`temperature`,`time_from`,`wind`,`city_id`) VALUES (1284204600,'1000',1289975629,NULL,'OMDB 111100Z 34013KT CAVOK 37/25 Q1000 NOSIG',NULL,'37.0',1284202800,'6.68055555555556',10);
INSERT INTO `weather_metar_archives` (`time_to`,`pressure`,`created_at`,`snow`,`raw`,`rain`,`temperature`,`time_from`,`wind`,`city_id`) VALUES (1284208200,'999',1289975629,NULL,'OMDB 111200Z 36009KT 330V050 CAVOK 35/29 Q0999 NOSIG',NULL,'35.0',1284206400,'4.625',10);
INSERT INTO `weather_metar_archives` (`time_to`,`pressure`,`created_at`,`snow`,`raw`,`rain`,`temperature`,`time_from`,`wind`,`city_id`) VALUES (1284211800,'999',1289975629,NULL,'OMDB 111300Z 34011KT 310V010 CAVOK 36/24 Q0999 NOSIG',NULL,'36.0',1284210000,'5.65277777777778',10);
INSERT INTO `weather_metar_archives` (`time_to`,`pressure`,`created_at`,`snow`,`raw`,`rain`,`temperature`,`time_from`,`wind`,`city_id`) VALUES (1284215400,'1000',1289975629,NULL,'OMDB 111400Z 33010KT CAVOK 34/28 Q1000 NOSIG',NULL,'34.0',1284213600,'5.13888888888889',10);
INSERT INTO `weather_metar_archives` (`time_to`,`pressure`,`created_at`,`snow`,`raw`,`rain`,`temperature`,`time_from`,`wind`,`city_id`) VALUES (1284219000,'1000',1289975629,NULL,'OMDB 111500Z 33005KT CAVOK 34/27 Q1000 NOSIG',NULL,'34.0',1284217200,'2.56944444444444',10);
INSERT INTO `weather_metar_archives` (`time_to`,`pressure`,`created_at`,`snow`,`raw`,`rain`,`temperature`,`time_from`,`wind`,`city_id`) VALUES (1284222600,NULL,1289975629,NULL,'OMDB 111600Z 05004KT 040V100 CAVOK 34/24 Q100',NULL,'34.0',1284220800,'2.05555555555556',10);
INSERT INTO `weather_metar_archives` (`time_to`,`pressure`,`created_at`,`snow`,`raw`,`rain`,`temperature`,`time_from`,`wind`,`city_id`) VALUES (1284222600,'1001',1289975629,NULL,'OMDB 111600Z 05004KT 040V100 CAVOK 34/24 Q1001 NOSIG',NULL,'34.0',1284220800,'2.05555555555556',10);
INSERT INTO `weather_metar_archives` (`time_to`,`pressure`,`created_at`,`snow`,`raw`,`rain`,`temperature`,`time_from`,`wind`,`city_id`) VALUES (1284226200,'1001',1289975629,NULL,'OMDB 111700Z VRB03G15KT CAVOK 35/20 Q1001 NOSIG',NULL,'35.0',1284224400,NULL,10);
INSERT INTO `weather_metar_archives` (`time_to`,`pressure`,`created_at`,`snow`,`raw`,`rain`,`temperature`,`time_from`,`wind`,`city_id`) VALUES (1284229800,'1002',1289975629,NULL,'OMDB 111800Z VRB03G14KT CAVOK 34/26 Q1002 NOSIG',NULL,'34.0',1284228000,NULL,10);
INSERT INTO `weather_metar_archives` (`time_to`,`pressure`,`created_at`,`snow`,`raw`,`rain`,`temperature`,`time_from`,`wind`,`city_id`) VALUES (1284233400,'1002',1289975629,NULL,'OMDB 111900Z 33008KT 280V050 CAVOK 33/27 Q1002 NOSIG',NULL,'33.0',1284231600,'4.11111111111111',10);
INSERT INTO `weather_metar_archives` (`time_to`,`pressure`,`created_at`,`snow`,`raw`,`rain`,`temperature`,`time_from`,`wind`,`city_id`) VALUES (1284233400,'1002',1289975629,NULL,'OMDB 111900Z 33008KT 280V050 CAVOK 33/27 Q1002 N',NULL,'33.0',1284231600,'4.11111111111111',10);
INSERT INTO `weather_metar_archives` (`time_to`,`pressure`,`created_at`,`snow`,`raw`,`rain`,`temperature`,`time_from`,`wind`,`city_id`) VALUES (1284237000,'1002',1289975629,NULL,'OMDB 112000Z 34004KT 300V050 CAVOK 32/29 Q1002 NOSIG',NULL,'32.0',1284235200,'2.05555555555556',10);
INSERT INTO `weather_metar_archives` (`time_to`,`pressure`,`created_at`,`snow`,`raw`,`rain`,`temperature`,`time_from`,`wind`,`city_id`) VALUES (1284240600,'1001',1289975629,NULL,'OMDB 112100Z 35004KT 290V050 CAVOK 32/29 Q1001 NOSIG',NULL,'32.0',1284238800,'2.05555555555556',10);
INSERT INTO `weather_metar_archives` (`time_to`,`pressure`,`created_at`,`snow`,`raw`,`rain`,`temperature`,`time_from`,`wind`,`city_id`) VALUES (1284244200,'1001',1289975629,NULL,'OMDB 112200Z 09006KT 040V120 CAVOK 31/27 Q1001 NOSIG',NULL,'31.0',1284242400,'3.08333333333333',10);
INSERT INTO `weather_metar_archives` (`time_to`,`pressure`,`created_at`,`snow`,`raw`,`rain`,`temperature`,`time_from`,`wind`,`city_id`) VALUES (1284247800,'1002',1289975629,NULL,'OMDB 112300Z 09004KT 040V160 CAVOK 30/26 Q1002 NOSIG',NULL,'30.0',1284246000,'2.05555555555556',10);
INSERT INTO `weather_metar_archives` (`time_to`,`pressure`,`created_at`,`snow`,`raw`,`rain`,`temperature`,`time_from`,`wind`,`city_id`) VALUES (1284251400,'1002',1289975629,NULL,'OMDB 120000Z 07003KT 030V150 CAVOK 30/26 Q1002 NOSIG',NULL,'30.0',1284249600,'1.54166666666667',10);
INSERT INTO `weather_metar_archives` (`time_to`,`pressure`,`created_at`,`snow`,`raw`,`rain`,`temperature`,`time_from`,`wind`,`city_id`) VALUES (1284255000,'1002',1289975629,NULL,'OMDB 120100Z VRB02KT CAVOK 30/27 Q1002 NOSIG',NULL,'30.0',1284253200,NULL,10);
INSERT INTO `weather_metar_archives` (`time_to`,`pressure`,`created_at`,`snow`,`raw`,`rain`,`temperature`,`time_from`,`wind`,`city_id`) VALUES (1284258600,'1003',1289975629,NULL,'OMDB 120200Z 09002KT CAVOK 31/28 Q1003 NOSIG',NULL,'31.0',1284256800,'1.02777777777778',10);
INSERT INTO `weather_metar_archives` (`time_to`,`pressure`,`created_at`,`snow`,`raw`,`rain`,`temperature`,`time_from`,`wind`,`city_id`) VALUES (1284262200,'1003',1289975629,NULL,'OMDB 120300Z 12003KT CAVOK 30/25 Q1003 NOSIG',NULL,'30.0',1284260400,'1.54166666666667',10);
INSERT INTO `weather_metar_archives` (`time_to`,`pressure`,`created_at`,`snow`,`raw`,`rain`,`temperature`,`time_from`,`wind`,`city_id`) VALUES (1284265800,NULL,1289975629,NULL,'OMDB 120400Z 10004KT 040V140 CAVOK 31/25 Q100',NULL,'31.0',1284264000,'2.05555555555556',10);
INSERT INTO `weather_metar_archives` (`time_to`,`pressure`,`created_at`,`snow`,`raw`,`rain`,`temperature`,`time_from`,`wind`,`city_id`) VALUES (1284265800,'1003',1289975629,NULL,'OMDB 120400Z 10004KT 040V140 CAVOK 31/25 Q1003 NOSIG',NULL,'31.0',1284264000,'2.05555555555556',10);
INSERT INTO `weather_metar_archives` (`time_to`,`pressure`,`created_at`,`snow`,`raw`,`rain`,`temperature`,`time_from`,`wind`,`city_id`) VALUES (1284269400,'1003',1289975629,NULL,'OMDB 120500Z 13006KT 090V170 CAVOK 34/21 Q1003 NOSIG',NULL,'34.0',1284267600,'3.08333333333333',10);
INSERT INTO `weather_metar_archives` (`time_to`,`pressure`,`created_at`,`snow`,`raw`,`rain`,`temperature`,`time_from`,`wind`,`city_id`) VALUES (1284273000,'1004',1289975629,NULL,'OMDB 120600Z 17005KT 080V210 CAVOK 37/12 Q1004 NOSIG',NULL,'37.0',1284271200,'2.56944444444444',10);
INSERT INTO `weather_metar_archives` (`time_to`,`pressure`,`created_at`,`snow`,`raw`,`rain`,`temperature`,`time_from`,`wind`,`city_id`) VALUES (1284276600,'1003',1289975629,NULL,'OMDB 120700Z 15005KT 100V200 CAVOK 42/07 Q1003 NOSIG',NULL,'42.0',1284274800,'2.56944444444444',10);
INSERT INTO `weather_metar_archives` (`time_to`,`pressure`,`created_at`,`snow`,`raw`,`rain`,`temperature`,`time_from`,`wind`,`city_id`) VALUES (1284280200,'1003',1289975629,NULL,'OMDB 120800Z 33012KT 300V360 CAVOK 38/23 Q1003 NOSIG',NULL,'38.0',1284278400,'6.16666666666667',10);
INSERT INTO `weather_metar_archives` (`time_to`,`pressure`,`created_at`,`snow`,`raw`,`rain`,`temperature`,`time_from`,`wind`,`city_id`) VALUES (1284283800,'1003',1289975629,NULL,'OMDB 120900Z 34014KT 320V050 CAVOK 36/27 Q1003 NOSIG',NULL,'36.0',1284282000,'7.19444444444444',10);
INSERT INTO `weather_metar_archives` (`time_to`,`pressure`,`created_at`,`snow`,`raw`,`rain`,`temperature`,`time_from`,`wind`,`city_id`) VALUES (1284287400,'1002',1289975629,NULL,'OMDB 121000Z 34013KT 320V050 CAVOK 36/25 Q1002 NOSIG',NULL,'36.0',1284285600,'6.68055555555556',10);
INSERT INTO `weather_metar_archives` (`time_to`,`pressure`,`created_at`,`snow`,`raw`,`rain`,`temperature`,`time_from`,`wind`,`city_id`) VALUES (1284291000,'1002',1289975629,NULL,'OMDB 121100Z 34013KT CAVOK 36/22 Q1002 NOSIG',NULL,'36.0',1284289200,'6.68055555555556',10);
INSERT INTO `weather_metar_archives` (`time_to`,`pressure`,`created_at`,`snow`,`raw`,`rain`,`temperature`,`time_from`,`wind`,`city_id`) VALUES (1284294600,'1002',1289975629,NULL,'OMDB 121200Z 01008KT 350V050 CAVOK 37/19 Q1002 NOSIG',NULL,'37.0',1284292800,'4.11111111111111',10);
INSERT INTO `weather_metar_archives` (`time_to`,`pressure`,`created_at`,`snow`,`raw`,`rain`,`temperature`,`time_from`,`wind`,`city_id`) VALUES (1284294600,NULL,1289975629,NULL,'OMDB 121200Z 01008KT 350V050 CAVOK 37/19 Q100',NULL,'37.0',1284292800,'4.11111111111111',10);
INSERT INTO `weather_metar_archives` (`time_to`,`pressure`,`created_at`,`snow`,`raw`,`rain`,`temperature`,`time_from`,`wind`,`city_id`) VALUES (1284298200,'1002',1289975629,NULL,'OMDB 121300Z 03009KT CAVOK 37/22 Q1002 NOSIG',NULL,'37.0',1284296400,'4.625',10);
INSERT INTO `weather_metar_archives` (`time_to`,`pressure`,`created_at`,`snow`,`raw`,`rain`,`temperature`,`time_from`,`wind`,`city_id`) VALUES (1284301800,NULL,1289975629,NULL,'OMDB 121400Z 02006KT 350V100 CAVOK 36/21 Q100',NULL,'36.0',1284300000,'3.08333333333333',10);
INSERT INTO `weather_metar_archives` (`time_to`,`pressure`,`created_at`,`snow`,`raw`,`rain`,`temperature`,`time_from`,`wind`,`city_id`) VALUES (1284301800,'1002',1289975629,NULL,'OMDB 121400Z 02006KT 350V100 CAVOK 36/21 Q1002 NOSIG',NULL,'36.0',1284300000,'3.08333333333333',10);
INSERT INTO `weather_metar_archives` (`time_to`,`pressure`,`created_at`,`snow`,`raw`,`rain`,`temperature`,`time_from`,`wind`,`city_id`) VALUES (1284305400,'1002',1289975629,NULL,'OMDB 121500Z 03006KT 350V080 CAVOK 35/23 Q1002 NOSIG',NULL,'35.0',1284303600,'3.08333333333333',10);
INSERT INTO `weather_metar_archives` (`time_to`,`pressure`,`created_at`,`snow`,`raw`,`rain`,`temperature`,`time_from`,`wind`,`city_id`) VALUES (1284309000,'1003',1289975629,NULL,'OMDB 121600Z 03004KT 360V060 CAVOK 36/21 Q1003 NOSIG',NULL,'36.0',1284307200,'2.05555555555556',10);
INSERT INTO `weather_metar_archives` (`time_to`,`pressure`,`created_at`,`snow`,`raw`,`rain`,`temperature`,`time_from`,`wind`,`city_id`) VALUES (1284312600,'1003',1289975629,NULL,'OMDB 121700Z 02005KT CAVOK 36/19 Q1003 NOSIG',NULL,'36.0',1284310800,'2.56944444444444',10);
INSERT INTO `weather_metar_archives` (`time_to`,`pressure`,`created_at`,`snow`,`raw`,`rain`,`temperature`,`time_from`,`wind`,`city_id`) VALUES (1284316200,'1003',1289975629,NULL,'OMDB 121800Z VRB03KT CAVOK 36/17 Q1003 NOSIG',NULL,'36.0',1284314400,NULL,10);
INSERT INTO `weather_metar_archives` (`time_to`,`pressure`,`created_at`,`snow`,`raw`,`rain`,`temperature`,`time_from`,`wind`,`city_id`) VALUES (1284319800,NULL,1289975629,NULL,'OMDB 121900Z 06004KT 010V120 CAVOK 35/17 Q100',NULL,'35.0',1284318000,'2.05555555555556',10);
INSERT INTO `weather_metar_archives` (`time_to`,`pressure`,`created_at`,`snow`,`raw`,`rain`,`temperature`,`time_from`,`wind`,`city_id`) VALUES (1284319800,'1003',1289975629,NULL,'OMDB 121900Z 06004KT 010V120 CAVOK 35/17 Q1003 NOSIG',NULL,'35.0',1284318000,'2.05555555555556',10);
INSERT INTO `weather_metar_archives` (`time_to`,`pressure`,`created_at`,`snow`,`raw`,`rain`,`temperature`,`time_from`,`wind`,`city_id`) VALUES (1284323400,'1003',1289975629,NULL,'OMDB 122000Z 07003KT 020V180 CAVOK 35/19 Q1003 NOSIG',NULL,'35.0',1284321600,'1.54166666666667',10);
INSERT INTO `weather_metar_archives` (`time_to`,`pressure`,`created_at`,`snow`,`raw`,`rain`,`temperature`,`time_from`,`wind`,`city_id`) VALUES (1284327000,'1003',1289975629,NULL,'OMDB 122100Z VRB04KT CAVOK 34/19 Q1003 NOSIG',NULL,'34.0',1284325200,NULL,10);
INSERT INTO `weather_metar_archives` (`time_to`,`pressure`,`created_at`,`snow`,`raw`,`rain`,`temperature`,`time_from`,`wind`,`city_id`) VALUES (1284330600,'1003',1289975629,NULL,'OMDB 122200Z 05002KT CAVOK 33/17 Q1003 NOSIG',NULL,'33.0',1284328800,'1.02777777777778',10);
INSERT INTO `weather_metar_archives` (`time_to`,`pressure`,`created_at`,`snow`,`raw`,`rain`,`temperature`,`time_from`,`wind`,`city_id`) VALUES (1284334200,'1003',1289975629,NULL,'OMDB

 122300Z VRB02KT CAVOK 32/18 Q1003 NOSIG',NULL,'32.0',1284332400,NULL,10);
INSERT INTO `weather_metar_archives` (`time_to`,`pressure`,`created_at`,`snow`,`raw`,`rain`,`temperature`,`time_from`,`wind`,`city_id`) VALUES (1284337800,'1003',1289975629,NULL,'OMDB 130000Z VRB03KT CAVOK 31/22 Q1003 NOSIG',NULL,'31.0',1284336000,NULL,10);
INSERT INTO `weather_metar_archives` (`time_to`,`pressure`,`created_at`,`snow`,`raw`,`rain`,`temperature`,`time_from`,`wind`,`city_id`) VALUES (1284341400,'1004',1289975629,NULL,'OMDB 130100Z VRB04KT CAVOK 30/20 Q1004 NOSIG',NULL,'30.0',1284339600,NULL,10);
INSERT INTO `weather_metar_archives` (`time_to`,`pressure`,`created_at`,`snow`,`raw`,`rain`,`temperature`,`time_from`,`wind`,`city_id`) VALUES (1284345000,NULL,1289975629,NULL,'OMDB 130200Z 09003KT 350V120 CAVOK 29/21 Q100',NULL,'29.0',1284343200,'1.54166666666667',10);
INSERT INTO `weather_metar_archives` (`time_to`,`pressure`,`created_at`,`snow`,`raw`,`rain`,`temperature`,`time_from`,`wind`,`city_id`) VALUES (1284345000,'1004',1289975629,NULL,'OMDB 130200Z 09003KT 350V120 CAVOK 29/21 Q1004 NOSIG',NULL,'29.0',1284343200,'1.54166666666667',10);
INSERT INTO `weather_metar_archives` (`time_to`,`pressure`,`created_at`,`snow`,`raw`,`rain`,`temperature`,`time_from`,`wind`,`city_id`) VALUES (1284348600,'1004',1289975629,NULL,'OMDB 130300Z 10003KT 070V150 CAVOK 29/24 Q1004 NOSIG',NULL,'29.0',1284346800,'1.54166666666667',10);
INSERT INTO `weather_metar_archives` (`time_to`,`pressure`,`created_at`,`snow`,`raw`,`rain`,`temperature`,`time_from`,`wind`,`city_id`) VALUES (1284352200,'1005',1289975629,NULL,'OMDB 130400Z 12003KT CAVOK 32/24 Q1005 NOSIG',NULL,'32.0',1284350400,'1.54166666666667',10);
INSERT INTO `weather_metar_archives` (`time_to`,`pressure`,`created_at`,`snow`,`raw`,`rain`,`temperature`,`time_from`,`wind`,`city_id`) VALUES (1284355800,'1005',1289975629,NULL,'OMDB 130500Z 10003KT 030V170 CAVOK 36/19 Q1005 NOSIG',NULL,'36.0',1284354000,'1.54166666666667',10);
INSERT INTO `weather_metar_archives` (`time_to`,`pressure`,`created_at`,`snow`,`raw`,`rain`,`temperature`,`time_from`,`wind`,`city_id`) VALUES (1284355800,NULL,1289975629,NULL,'OMDB 130500Z 10003KT 030V170 CAVOK 36/19 Q100',NULL,'36.0',1284354000,'1.54166666666667',10);
INSERT INTO `weather_metar_archives` (`time_to`,`pressure`,`created_at`,`snow`,`raw`,`rain`,`temperature`,`time_from`,`wind`,`city_id`) VALUES (1284359880,'1006',1289975629,NULL,'OMDB 130608Z VRB04KT CAVOK 37/12 Q1006 NOSIG',NULL,'37.0',1284358080,NULL,10);
INSERT INTO `weather_metar_archives` (`time_to`,`pressure`,`created_at`,`snow`,`raw`,`rain`,`temperature`,`time_from`,`wind`,`city_id`) VALUES (1284363000,'1005',1289975629,NULL,'OMDB 130700Z VRB02KT CAVOK 39/08 Q1005 NOSIG',NULL,'39.0',1284361200,NULL,10);
INSERT INTO `weather_metar_archives` (`time_to`,`pressure`,`created_at`,`snow`,`raw`,`rain`,`temperature`,`time_from`,`wind`,`city_id`) VALUES (1284366600,'1005',1289975629,NULL,'OMDB 130800Z VRB03KT CAVOK 39/20 Q1005 NOSIG',NULL,'39.0',1284364800,NULL,10);
INSERT INTO `weather_metar_archives` (`time_to`,`pressure`,`created_at`,`snow`,`raw`,`rain`,`temperature`,`time_from`,`wind`,`city_id`) VALUES (1284370200,'1004',1289975629,NULL,'OMDB 130900Z 33011KT 290V010 CAVOK 38/23 Q1004 NOSIG',NULL,'38.0',1284368400,'5.65277777777778',10);
INSERT INTO `weather_metar_archives` (`time_to`,`pressure`,`created_at`,`snow`,`raw`,`rain`,`temperature`,`time_from`,`wind`,`city_id`) VALUES (1284370200,NULL,1289975629,NULL,'OMDB 130900Z 33011KT 290V010 CAVOK 38/23 Q100',NULL,'38.0',1284368400,'5.65277777777778',10);
INSERT INTO `weather_metar_archives` (`time_to`,`pressure`,`created_at`,`snow`,`raw`,`rain`,`temperature`,`time_from`,`wind`,`city_id`) VALUES (1284373800,'1003',1289975629,NULL,'OMDB 131000Z 33011KT 310V050 CAVOK 38/21 Q1003 NOSIG',NULL,'38.0',1284372000,'5.65277777777778',10);
INSERT INTO `weather_metar_archives` (`time_to`,`pressure`,`created_at`,`snow`,`raw`,`rain`,`temperature`,`time_from`,`wind`,`city_id`) VALUES (1284377400,'1002',1289975629,NULL,'OMDB 131100Z 32012KT CAVOK 38/21 Q1002 NOSIG',NULL,'38.0',1284375600,'6.16666666666667',10);
INSERT INTO `weather_metar_archives` (`time_to`,`pressure`,`created_at`,`snow`,`raw`,`rain`,`temperature`,`time_from`,`wind`,`city_id`) VALUES (1284381000,'1002',1289975629,NULL,'OMDB 131200Z 34015KT CAVOK 37/20 Q1002 NOSIG',NULL,'37.0',1284379200,'7.70833333333333',10);
INSERT INTO `weather_metar_archives` (`time_to`,`pressure`,`created_at`,`snow`,`raw`,`rain`,`temperature`,`time_from`,`wind`,`city_id`) VALUES (1284384600,NULL,1289975629,NULL,'OMDB 131300Z 34008KT 300V050 CAVOK 38/14 Q100',NULL,'38.0',1284382800,'4.11111111111111',10);
INSERT INTO `weather_metar_archives` (`time_to`,`pressure`,`created_at`,`snow`,`raw`,`rain`,`temperature`,`time_from`,`wind`,`city_id`) VALUES (1284384600,'1002',1289975629,NULL,'OMDB 131300Z 34008KT 300V050 CAVOK 38/14 Q1002 NOSIG',NULL,'38.0',1284382800,'4.11111111111111',10);
INSERT INTO `weather_metar_archives` (`time_to`,`pressure`,`created_at`,`snow`,`raw`,`rain`,`temperature`,`time_from`,`wind`,`city_id`) VALUES (1284388200,'1002',1289975629,NULL,'OMDB 131400Z 02006KT 320V090 CAVOK 38/11 Q1002 NOSIG',NULL,'38.0',1284386400,'3.08333333333333',10);
INSERT INTO `weather_metar_archives` (`time_to`,`pressure`,`created_at`,`snow`,`raw`,`rain`,`temperature`,`time_from`,`wind`,`city_id`) VALUES (1284391800,'1002',1289975629,NULL,'OMDB 131500Z 06005KT 310V100 CAVOK 37/13 Q1002 NOSIG',NULL,'37.0',1284390000,'2.56944444444444',10);
INSERT INTO `weather_metar_archives` (`time_to`,`pressure`,`created_at`,`snow`,`raw`,`rain`,`temperature`,`time_from`,`wind`,`city_id`) VALUES (1284395400,'1002',1289975629,NULL,'OMDB 131600Z VRB02KT CAVOK 37/09 Q1002 NOSIG',NULL,'37.0',1284393600,NULL,10);
INSERT INTO `weather_metar_archives` (`time_to`,`pressure`,`created_at`,`snow`,`raw`,`rain`,`temperature`,`time_from`,`wind`,`city_id`) VALUES (1284399000,'1002',1289975629,NULL,'OMDB 131700Z VRB01KT CAVOK 36/12 Q1002 NOSIG',NULL,'36.0',1284397200,NULL,10);
INSERT INTO `weather_metar_archives` (`time_to`,`pressure`,`created_at`,`snow`,`raw`,`rain`,`temperature`,`time_from`,`wind`,`city_id`) VALUES (1284402600,'1003',1289975629,NULL,'OMDB 131800Z 32008KT CAVOK 34/22 Q1003 NOSIG',NULL,'34.0',1284400800,'4.11111111111111',10);
INSERT INTO `weather_metar_archives` (`time_to`,`pressure`,`created_at`,`snow`,`raw`,`rain`,`temperature`,`time_from`,`wind`,`city_id`) VALUES (1284406200,'1003',1289975629,NULL,'OMDB 131900Z 36004KT 260V070 CAVOK 33/27 Q1003 NOSIG',NULL,'33.0',1284404400,'2.05555555555556',10);
INSERT INTO `weather_metar_archives` (`time_to`,`pressure`,`created_at`,`snow`,`raw`,`rain`,`temperature`,`time_from`,`wind`,`city_id`) VALUES (1284406200,NULL,1289975629,NULL,'OMDB 131900Z 36004KT 260V070 CAVOK 33/27 Q100',NULL,'33.0',1284404400,'2.05555555555556',10);
INSERT INTO `weather_metar_archives` (`time_to`,`pressure`,`created_at`,`snow`,`raw`,`rain`,`temperature`,`time_from`,`wind`,`city_id`) VALUES (1284409800,'1003',1289975629,NULL,'OMDB 132000Z 33004KT 290V030 CAVOK 33/29 Q1003 NOSIG',NULL,'33.0',1284408000,'2.05555555555556',10);
INSERT INTO `weather_metar_archives` (`time_to`,`pressure`,`created_at`,`snow`,`raw`,`rain`,`temperature`,`time_from`,`wind`,`city_id`) VALUES (1284413400,'1002',1289975629,NULL,'OMDB 132100Z 10004KT 350V130 CAVOK 33/28 Q1002 NOSIG',NULL,'33.0',1284411600,'2.05555555555556',10);
INSERT INTO `weather_metar_archives` (`time_to`,`pressure`,`created_at`,`snow`,`raw`,`rain`,`temperature`,`time_from`,`wind`,`city_id`) VALUES (1284417000,'1002',1289975629,NULL,'OMDB 132200Z 09004KT CAVOK 32/26 Q1002 NOSIG',NULL,'32.0',1284415200,'2.05555555555556',10);
INSERT INTO `weather_metar_archives` (`time_to`,`pressure`,`created_at`,`snow`,`raw`,`rain`,`temperature`,`time_from`,`wind`,`city_id`) VALUES (1284420600,NULL,1289975629,NULL,'OMDB 132300Z 11004KT 060V160 CAVOK 31/26 Q100',NULL,'31.0',1284418800,'2.05555555555556',10);
INSERT INTO `weather_metar_archives` (`time_to`,`pressure`,`created_at`,`snow`,`raw`,`rain`,`temperature`,`time_from`,`wind`,`city_id`) VALUES (1284420600,'1002',1289975629,NULL,'OMDB 132300Z 11004KT 060V160 CAVOK 31/26 Q1002 NOSIG',NULL,'31.0',1284418800,'2.05555555555556',10);
INSERT INTO `weather_metar_archives` (`time_to`,`pressure`,`created_at`,`snow`,`raw`,`rain`,`temperature`,`time_from`,`wind`,`city_id`) VALUES (1284424200,'1002',1289975629,NULL,'OMDB 140000Z 14004KT 080V170 CAVOK 31/24 Q1002 NOSIG',NULL,'31.0',1284422400,'2.05555555555556',10);
INSERT INTO `weather_metar_archives` (`time_to`,`pressure`,`created_at`,`snow`,`raw`,`rain`,`temperature`,`time_from`,`wind`,`city_id`) VALUES (1284427800,'1002',1289975629,NULL,'OMDB 140100Z 17002KT CAVOK 31/22 Q1002 NOSIG',NULL,'31.0',1284426000,'1.02777777777778',10);
INSERT INTO `weather_metar_archives` (`time_to`,`pressure`,`created_at`,`snow`,`raw`,`rain`,`temperature`,`time_from`,`wind`,`city_id`) VALUES (1284431400,NULL,1289975629,NULL,'OMDB 140200Z 17004KT 150V210 CAVOK 30/19 Q100',NULL,'30.0',1284429600,'2.05555555555556',10);
INSERT INTO `weather_metar_archives` (`time_to`,`pressure`,`created_at`,`snow`,`raw`,`rain`,`temperature`,`time_from`,`wind`,`city_id`) VALUES (1284431400,'1002',1289975629,NULL,'OMDB 140200Z 17004KT 150V210 CAVOK 30/19 Q1002 NOSIG',NULL,'30.0',1284429600,'2.05555555555556',10);
INSERT INTO `weather_metar_archives` (`time_to`,`pressure`,`created_at`,`snow`,`raw`,`rain`,`temperature`,`time_from`,`wind`,`city_id`) VALUES (1284435000,'1003',1289975629,NULL,'OMDB 140300Z VRB02KT CAVOK 30/15 Q1003 NOSIG',NULL,'30.0',1284433200,NULL,10);
INSERT INTO `weather_metar_archives` (`time_to`,`pressure`,`created_at`,`snow`,`raw`,`rain`,`temperature`,`time_from`,`wind`,`city_id`) VALUES (1284438600,'1003',1289975629,NULL,'OMDB 140400Z VRB02KT CAVOK 32/14 Q1003 NOSIG',NULL,'32.0',1284436800,NULL,10);
INSERT INTO `weather_metar_archives` (`time_to`,`pressure`,`created_at`,`snow`,`raw`,`rain`,`temperature`,`time_from`,`wind`,`city_id`) VALUES (1284442200,'1003',1289975629,NULL,'OMDB 140500Z VRB01KT CAVOK 36/12 Q1003 NOSIG',NULL,'36.0',1284440400,NULL,10);
INSERT INTO `weather_metar_archives` (`time_to`,`pressure`,`created_at`,`snow`,`raw`,`rain`,`temperature`,`time_from`,`wind`,`city_id`) VALUES (1284445800,'1003',1289975629,NULL,'OMDB 140600Z 21005KT CAVOK 38/09 Q1003 NOSIG',NULL,'38.0',1284444000,'2.56944444444444',10);
INSERT INTO `weather_metar_archives` (`time_to`,`pressure`,`created_at`,`snow`,`raw`,`rain`,`temperature`,`time_from`,`wind`,`city_id`) VALUES (1284449400,'1003',1289975629,NULL,'OMDB 140700Z 25006KT 210V280 CAVOK 40/08 Q1003 NOSIG',NULL,'40.0',1284447600,'3.08333333333333',10);
INSERT INTO `weather_metar_archives` (`time_to`,`pressure`,`created_at`,`snow`,`raw`,`rain`,`temperature`,`time_from`,`wind`,`city_id`) VALUES (1284449400,NULL,1289975629,NULL,'OMDB 140700Z 25006KT 210V280 CAVOK 40/08 Q100',NULL,'40.0',1284447600,'3.08333333333333',10);
INSERT INTO `weather_metar_archives` (`time_to`,`pressure`,`created_at`,`snow`,`raw`,`rain`,`temperature`,`time_from`,`wind`,`city_id`) VALUES (1284453000,'1003',1289975629,NULL,'OMDB 140800Z 34009KT 300V050 CAVOK 39/18 Q1003 NOSIG',NULL,'39.0',1284451200,'4.625',10);
INSERT INTO `weather_metar_archives` (`time_to`,`pressure`,`created_at`,`snow`,`raw`,`rain`,`temperature`,`time_from`,`wind`,`city_id`) VALUES (1284456600,'1002',1289975629,NULL,'OMDB 140900Z 32011KT CAVOK 39/14 Q1002 NOSIG',NULL,'39.0',1284454800,'5.65277777777778',10);
INSERT INTO `weather_metar_archives` (`time_to`,`pressure`,`created_at`,`snow`,`raw`,`rain`,`temperature`,`time_from`,`wind`,`city_id`) VALUES (1284460200,NULL,1289975629,NULL,'OMDB 141000Z 32010KT 260V340 CAVOK 38/16 Q100',NULL,'38.0',1284458400,'5.13888888888889',10);
INSERT INTO `weather_metar_archives` (`time_to`,`pressure`,`created_at`,`snow`,`raw`,`rain`,`temperature`,`time_from`,`wind`,`city_id`) VALUES (1284460200,'1002',1289975629,NULL,'OMDB 141000Z 32010KT 260V340 CAVOK 38/16 Q1002 NOSIG',NULL,'38.0',1284458400,'5.13888888888889',10);
INSERT INTO `weather_metar_archives` (`time_to`,`pressure`,`created_at`,`snow`,`raw`,`rain`,`temperature`,`time_from`,`wind`,`city_id`) VALUES (1284463800,'1001',1289975629,NULL,'OMDB 141100Z 32010KT 290V360 CAVOK 38/19 Q1001 NOSIG',NULL,'38.0',1284462000,'5.13888888888889',10);
INSERT INTO `weather_metar_archives` (`time_to`,`pressure`,`created_at`,`snow`,`raw`,`rain`,`temperature`,`time_from`,`wind`,`city_id`) VALUES (1284467400,'1001',1289975629,NULL,'OMDB 141200Z 32012KT CAVOK 36/25 Q1001 NOSIG',NULL,'36.0',1284465600,'6.16666666666667',10);
INSERT INTO `weather_metar_archives` (`time_to`,`pressure`,`created_at`,`snow`,`raw`,`rain`,`temperature`,`time_from`,`wind`,`city_id`) VALUES (1284471000,'1001',1289975629,NULL,'OMDB 141300Z 32012KT CAVOK 35/2 Q1001 NOSIG',NULL,NULL,1284469200,'6.16666666666667',10);
INSERT INTO `weather_metar_archives` (`time_to`,`pressure`,`created_at`,`snow`,`raw`,`rain`,`temperature`,`time_from`,`wind`,`city_id`) VALUES (1287466200,'1012',1289975769,NULL,'OMDB 190500Z 18006KT 8000 SCT035 29/23 Q1012 NOSI',NULL,'29.0',1287464400,'3.08333333333333',10);
INSERT INTO `weather_metar_archives` (`time_to`,`pressure`,`created_at`,`snow`,`raw`,`rain`,`temperature`,`time_from`,`wind`,`city_id`) VALUES (1287466200,'1012',1289975769,NULL,'OMDB 190500Z 18006KT 8000 SCT035 29/23 Q1012 NOSIG',NULL,'29.0',1287464400,'3.08333333333333',10);
INSERT INTO `weather_metar_archives` (`time_to`,`pressure`,`created_at`,`snow`,`raw`,`rain`,`temperature`,`time_from`,`wind`,`city_id`) VALUES (1287469800,'1012',1289975769,NULL,'OMDB 190600Z 17003KT 110V200 CAVOK 31/25 Q1012 NOSI',NULL,'31.0',1287468000,'1.54166666666667',10);
INSERT INTO `weather_metar_archives` (`time_to`,`pressure`,`created_at`,`snow`,`raw`,`rain`,`temperature`,`time_from`,`wind`,`city_id`) VALUES (1287469800,'1012',1289975769,NULL,'OMDB 190600Z 17003KT 110V200 CAVOK 31/25 Q1012 NOSIG',NULL,'31.0',1287468000,'1.54166666666667',10);
INSERT INTO `weather_metar_archives` (`time_to`,`pressure`,`created_at`,`snow`,`raw`,`rain`,`temperature`,`time_from`,`wind`,`city_id`) VALUES (1287473400,'1011',1289975769,NULL,'OMDB 190700Z VRB03KT CAVOK 33/24 Q1011 NOSIG',NULL,'33.0',1287471600,NULL,10);
INSERT INTO `weather_metar_archives` (`time_to`,`pressure`,`created_at`,`snow`,`raw`,`rain`,`temperature`,`time_from`,`wind`,`city_id`) VALUES (1287477000,NULL,1289975769,NULL,'OMDB 190800Z 30007KT 260V340 CAVOK 34/24 Q101',NULL,'34.0',1287475200,'3.59722222222222',10);
INSERT INTO `weather_metar_archives` (`time_to`,`pressure`,`created_at`,`snow`,`raw`,`rain`,`temperature`,`time_from`,`wind`,`city_id`) VALUES (1287477000,'1011',1289975769,NULL,'OMDB 190800Z 30007KT 260V340 CAVOK 34/24 Q1011 NOSIG',NULL,'34.0',1287475200,'3.59722222222222',10);
INSERT INTO `weather_metar_archives` (`time_to`,`pressure`,`created_at`,`snow`,`raw`,`rain`,`temperature`,`time_from`,`wind`,`city_id`) VALUES (1287480600,'1010',1289975769,NULL,'OMDB 190900Z 31010KT 270V340 CAVOK 33/24 Q1010 NOSIG',NULL,'33.0',1287478800,'5.13888888888889',10);
INSERT INTO `weather_metar_archives` (`time_to`,`pressure`,`created_at`,`snow`,`raw`,`rain`,`temperature`,`time_from`,`wind`,`city_id`) VALUES (1287484200,'1009',1289975769,NULL,'OMDB 191000Z 29010KT CAVOK 33/25 Q1009 NOSIG',NULL,'33.0',1287482400,'5.13888888888889',10);
INSERT INTO `weather_metar_archives` (`time_to`,`pressure`,`created_at`,`snow`,`raw`,`rain`,`temperature`,`time_from`,`wind`,`city_id`) VALUES (1287487800,NULL,1289975769,NULL,'OMDB 191100Z 29011KT 270V340 CAVOK 33/25 Q100',NULL,'33.0',1287486000,'5.65277777777778',10);
INSERT INTO `weather_metar_archives` (`time_to`,`pressure`,`created_at`,`snow`,`raw`,`rain`,`temperature`,`time_from`,`wind`,`city_id`) VALUES (1287487800,'1009',1289975769,NULL,'OMDB 191100Z 29011KT 270V340 CAVOK 33/25 Q1009 NOSIG',NULL,'33.0',1287486000,'5.65277777777778',10);
INSERT INTO `weather_metar_archives` (`time_to`,`pressure`,`created_at`,`snow`,`raw`,`rain`,`temperature`,`time_from`,`wind`,`city_id`) VALUES (1287491400,'1009',1289975769,NULL,'OMDB 191200Z 29011KT 260V360 CAVOK 32/26 Q1009 NOSIG',NULL,'32.0',1287489600,'5.65277777777778',10);
INSERT INTO `weather_metar_archives` (`time_to`,`pressure`,`created_at`,`snow`,`raw`,`rain`,`temperature`,`time_from`,`wind`,`city_id`) VALUES (1287495000,'1009',1289975769,NULL,'OMDB 191300Z 31011KT 250V350 8000 NSC 32/2\' Q1009 NOS',NULL,NULL,1287493200,'5.65277777777778',10);
INSERT INTO `weather_metar_archives` (`time_to`,`pressure`,`created_at`,`snow`,`raw`,`rain`,`temperature`,`time_from`,`wind`,`city_id`) VALUES (1287495000,'1009',1289975769,NULL,'OMDB 191300Z 31011KT 250V350 8000 NSC 32/2\' Q1009 NOSIG',NULL,NULL,1287493200,'5.65277777777778',10);
INSERT INTO `weather_metar_archives` (`time_to`,`pressure`,`created_at`,`snow`,`raw`,`rain`,`temperature`,`time_from`,`wind`,`city_id`) VALUES (1287498600,'1009',1289975769,NULL,'OMDB 191400Z 31009KT 280V340 8000 NSC 31/27 Q1009 NOSIG',NULL,'31.0',1287496800,'4.625',10);
INSERT INTO `weather_metar_archives` (`time_to`,`pressure`,`created_at`,`snow`,`raw`,`rain`,`temperature`,`time_from`,`wind`,`city_id`) VALUES (1287502200,'1010',1289975769,NULL,'OMDB 191500Z 32009KT CAVOK 31/26 Q1010 NOSIG',NULL,'31.0',1287500400,'4.625',10);
INSERT INTO `weather_metar_archives` (`time_to`,`pressure`,`created_at`,`snow`,`raw`,`rain`,`temperature`,`time_from`,`wind`,`city_id`) VALUES (1287505800,'1010',1289975769,NULL,'OMDB 191600Z 31008KT CAVOK 31/26 Q1010 NOSIG',NULL,'31.0',1287504000,'4.11111111111111',10);
INSERT INTO `weather_metar_archives` (`time_to`,`pressure`,`created_at`,`snow`,`raw`,`rain`,`temperature`,`time_from`,`wind`,`city_id`) VALUES (1287506280,'1010',1289975769,NULL,'OMDB 191608Z 31008KT CAVOK 31/26 Q1010 NOSIG',NULL,'31.0',1287504480,'4.11111111111111',10);
INSERT INTO `weather_metar_archives` (`time_to`,`pressure`,`created_at`,`snow`,`raw`,`rain`,`temperature`,`time_from`,`wind`,`city_id`) VALUES (1287509400,'1011',1289975769,NULL,'OMDB 191700Z 32006KT CAVOK 31/26 Q1011 NOSIG',NULL,'31.0',1287507600,'3.08333333333333',10);
INSERT INTO `weather_metar_archives` (`time_to`,`pressure`,`created_at`,`snow`,`raw`,`rain`,`temperature`,`time_from`,`wind`,`city_id`) VALUES (1287513000,'1011',1289975769,NULL,'OMDB 191800Z 32006KT CAVOK 31/26 Q1011 NOSIG',NULL,'31.0',1287511200,'3.08333333333333',10);
INSERT INTO `weather_metar_archives` (`time_to`,`pressure`,`created_at`,`snow`,`raw`,`rain`,`temperature`,`time_from`,`wind`,`city_id`) VALUES (1287516600,'1010',1289975769,NULL,'OMDB 191900Z VRB02KT CAVOK 30/26 Q1010 NOSIG',NULL,'30.0',1287514800,NULL,10);
INSERT INTO `weather_metar_archives` (`time_to`,`pressure`,`created_at`,`snow`,`raw`,`rain`,`temperature`,`time_from`,`wind`,`city_id`) VALUES (1287520200,NULL,1289975769,NULL,'OMDB 192000Z 21003KT 170V240 8000 NSC 30/26 Q',NULL,'30.0',1287518400,'1.54166666666667',10);
INSERT INTO `weather_metar_archives` (`time_to`,`pressure`,`created_at`,`snow`,`raw`,`rain`,`temperature`,`time_from`,`wind`,`city_id`) VALUES (1287520200,'1010',1289975769,NULL,'OMDB 192000Z 21003KT 170V240 8000 NSC 30/26 Q1010 NOSIG',NULL,'30.0',1287518400,'1.54166666666667',10);
INSERT INTO `weather_metar_archives` (`time_to`,`pressure`,`created_at`,`snow`,`raw`,`rain`,`temperature`,`time_from`,`wind`,`city_id`) VALUES (1287523800,'1010',1289975769,NULL,'OMDB 192100Z VRB03KT 7000 FEW013 29/26 Q1010 BECMG 4000',NULL,'29.0',1287522000,NULL,10);
INSERT INTO `weather_metar_archives` (`time_to`,`pressure`,`created_at`,`snow`,`raw`,`rain`,`temperature`,`time_from`,`wind`,`city_id`) VALUES (1287523800,'1010',1289975769,NULL,'OMDB 192100Z VRB03KT 7000 FEW013 29/26 Q1010 BECMG 4000 HZ',NULL,'29.0',1287522000,NULL,10);
INSERT INTO `weather_metar_archives` (`time_to`,`pressure`,`created_at`,`snow`,`raw`,`rain`,`temperature`,`time_from`,`wind`,`city_id`) VALUES (1287527400,'1010',1289975769,NULL,'OMDB 192200Z 10005KT 6000 FEW013 28/26 Q1010 BECMG 4000 HZ',NULL,'28.0',1287525600,'2.56944444444444',10);
INSERT INTO `weather_metar_archives` (`time_to`,`pressure`,`created_at`,`snow`,`raw`,`rain`,`temperature`,`time_from`,`wind`,`city_id`) VALUES (1287531000,'1010',1289975769,NULL,'OMDB 192300Z 11005KT 070V150 4500 HZ NSC 28/26 Q1010 BECMG',NULL,'28.0',1287529200,'2.56944444444444',10);
INSERT INTO `weather_metar_archives` (`time_to`,`pressure`,`created_at`,`snow`,`raw`,`rain`,`temperature`,`time_from`,`wind`,`city_id`) VALUES (1287531000,'1010',1289975769,NULL,'OMDB 192300Z 11005KT 070V150 4500 HZ NSC 28/26 Q1010 BECMG 1500 BR',NULL,'28.0',1287529200,'2.56944444444444',10);
INSERT INTO `weather_metar_archives` (`time_to`,`pressure`,`created_at`,`snow`,`raw`,`rain`,`temperature`,`time_from`,`wind`,`city_id`) VALUES (1287534600,'1010',1289975769,NULL,'OMDB 200000Z 14003KT 070V170 4000 HZ NSC 28/26 Q1010 BECMG 1500 BR',NULL,'28.0',1287532800,'1.54166666666667',10);
INSERT INTO `weather_metar_archives` (`time_to`,`pressure`,`created_at`,`snow`,`raw`,`rain`,`temperature`,`time_from`,`wind`,`city_id`) VALUES (1287538200,'1010',1289975769,NULL,'OMDB 200100Z 07004KT 010V120 3000 HZ NSC 27/26 Q1010 BECMG 0800 FG',NULL,'27.0',1287536400,'2.05555555555556',10);
INSERT INTO `weather_metar_archives` (`time_to`,`pressure`,`created_at`,`snow`,`raw`,`rain`,`temperature`,`time_from`,`wind`,`city_id`) VALUES (1287541800,'1011',1289975769,NULL,'OMDB 200200Z 17007KT 2000 BR BKN004 26/24 Q1011 BECMG 0800 FG',NULL,'26.0',1287540000,'3.59722222222222',10);
INSERT INTO `weather_metar_archives` (`time_to`,`pressure`,`created_at`,`snow`,`raw`,`rain`,`temperature`,`time_from`,`wind`,`city_id`) VALUES (1287545400,'1012',1289975769,NULL,'OMDB 200300Z 18007KT 2000 BR BKN003 26/25 Q1012 BECMG 0800 FG',NULL,'26.0',1287543600,'3.59722222222222',10);
INSERT INTO `weather_metar_archives` (`time_to`,`pressure`,`created_at`,`snow`,`raw`,`rain`,`temperature`,`time_from`,`wind`,`city_id`) VALUES (1287549000,'1012',1289975769,NULL,'OMDB 200400Z 20005KT 170V230 5000 HZ NSC 29/25 Q1012 BECMG 700',NULL,'29.0',1287547200,'2.56944444444444',10);
INSERT INTO `weather_metar_archives` (`time_to`,`pressure`,`created_at`,`snow`,`raw`,`rain`,`temperature`,`time_from`,`wind`,`city_id`) VALUES (1287549000,'1012',1289975769,NULL,'OMDB 200400Z 20005KT 170V230 5000 HZ NSC 29/25 Q1012 BECMG 7000',NULL,'29.0',1287547200,'2.56944444444444',10);
INSERT INTO `weather_metar_archives` (`time_to`,`pressure`,`created_at`,`snow`,`raw`,`rain`,`temperature`,`time_from`,`wind`,`city_id`) VALUES (1287552600,'1013',1289975769,NULL,'OMDB 200500Z 19010KT 8000 NSC 30/22 Q1013 NOSIG',NULL,'30.0',1287550800,'5.13888888888889',10);
INSERT INTO `weather_metar_archives` (`time_to`,`pressure`,`created_at`,`snow`,`raw`,`rain`,`temperature`,`time_from`,`wind`,`city_id`) VALUES (1287556200,'1013',1289975769,NULL,'OMDB 200600Z 19011KT CAVOK 33/16 Q1013 NOSIG',NULL,'33.0',1287554400,'5.65277777777778',10);
INSERT INTO `weather_metar_archives` (`time_to`,`pressure`,`created_at`,`snow`,`raw`,`rain`,`temperature`,`time_from`,`wind`,`city_id`) VALUES (1287559800,'1012',1289975769,NULL,'OMDB 200700Z 20010KT CAVOK 34/16 Q1012 NOSIG',NULL,'34.0',1287558000,'5.13888888888889',10);
INSERT INTO `weather_metar_archives` (`time_to`,`pressure`,`created_at`,`snow`,`raw`,`rain`,`temperature`,`time_from`,`wind`,`city_id`) VALUES (1287563400,NULL,1289975769,NULL,'OMDB 200800Z 23006KT 160V290 CAVOK 37/15 Q101',NULL,'37.0',1287561600,'3.08333333333333',10);
INSERT INTO `weather_metar_archives` (`time_to`,`pressure`,`created_at`,`snow`,`raw`,`rain`,`temperature`,`time_from`,`wind`,`city_id`) VALUES (1287563400,'1011',1289975769,NULL,'OMDB 200800Z 23006KT 160V290 CAVOK 37/15 Q1011 NOSIG',NULL,'37.0',1287561600,'3.08333333333333',10);
INSERT INTO `weather_metar_archives` (`time_to`,`pressure`,`created_at`,`snow`,`raw`,`rain`,`temperature`,`time_from`,`wind`,`city_id`) VALUES (1287567000,'1011',1289975769,NULL,'OMDB 200900Z 28012KT CAVOK 36/21 Q1011 NOSIG',NULL,'36.0',1287565200,'6.16666666666667',10);
INSERT INTO `weather_metar_archives` (`time_to`,`pressure`,`created_at`,`snow`,`raw`,`rain`,`temperature`,`time_from`,`wind`,`city_id`) VALUES (1287570600,'1010',1289975769,NULL,'OMDB 201000Z 29013KT CAVOK 35/21 Q1010 NOSIG',NULL,'35.0',1287568800,'6.68055555555556',10);
INSERT INTO `weather_metar_archives` (`time_to`,`pressure`,`created_at`,`snow`,`raw`,`rain`,`temperature`,`time_from`,`wind`,`city_id`) VALUES (1287574200,'1010',1289975769,NULL,'OMDB 201100Z 30013KT CAVOK 34/23 Q1010 NOSIG',NULL,'34.0',1287572400,'6.68055555555556',10);
INSERT INTO `weather_metar_archives` (`time_to`,`pressure`,`created_at`,`snow`,`raw`,`rain`,`temperature`,`time_from`,`wind`,`city_id`) VALUES (1287577800,NULL,1289975769,NULL,'OMDB 201200Z 30012KT 280V350 CAVOK 33/26 Q101',NULL,'33.0',1287576000,'6.16666666666667',10);
INSERT INTO `weather_metar_archives` (`time_to`,`pressure`,`created_at`,`snow`,`raw`,`rain`,`temperature`,`time_from`,`wind`,`city_id`) VALUES (1287577800,'1010',1289975769,NULL,'OMDB 201200Z 30012KT 280V350 CAVOK 33/26 Q1010 NOSIG',NULL,'33.0',1287576000,'6.16666666666667',10);
INSERT INTO `weather_metar_archives` (`time_to`,`pressure`,`created_at`,`snow`,`raw`,`rain`,`temperature`,`time_from`,`wind`,`city_id`) VALUES (1287581400,'1010',1289975769,NULL,'OMDB 201300Z 29012KT 9999 FEW015 32/27 Q1010 NOSIG',NULL,'32.0',1287579600,'6.16666666666667',10);
INSERT INTO `weather_metar_archives` (`time_to`,`pressure`,`created_at`,`snow`,`raw`,`rain`,`temperature`,`time_from`,`wind`,`city_id`) VALUES (1287585000,'1010',1289975769,NULL,'OMDB 201400Z 29008KT 8000 FEW015 32/27 Q1010 NOSIG',NULL,'32.0',1287583200,'4.11111111111111',10);
INSERT INTO `weather_metar_archives` (`time_to`,`pressure`,`created_at`,`snow`,`raw`,`rain`,`temperature`,`time_from`,`wind`,`city_id`) VALUES (1287588600,'1010',1289975769,NULL,'OMDB 201500Z 30008KT 8000 NSC 31/27 Q1010 NOSIG',NULL,'31.0',1287586800,'4.11111111111111',10);
INSERT INTO `weather_metar_archives` (`time_to`,`pressure`,`created_at`,`snow`,`raw`,`rain`,`temperature`,`time_from`,`wind`,`city_id`) VALUES (1287592200,NULL,1289975769,NULL,'OMDB 201600Z 31009KT 290V360 8000 NSC 31/27 Q101',NULL,'31.0',1287590400,'4.625',10);
INSERT INTO `weather_metar_archives` (`time_to`,`pressure`,`created_at`,`snow`,`raw`,`rain`,`temperature`,`time_from`,`wind`,`city_id`) VALUES (1287592200,'1011',1289975769,NULL,'OMDB 201600Z 31009KT 290V360 8000 NSC 31/27 Q1011 NOSIG',NULL,'31.0',1287590400,'4.625',10);
INSERT INTO `weather_metar_archives` (`time_to`,`pressure`,`created_at`,`snow`,`raw`,`rain`,`temperature`,`time_from`,`wind`,`city_id`) VALUES (1287595800,'1011',1289975769,NULL,'OMDB 201700Z 31007KT 290V350 8000 NSC 31/27 Q1011 NOSIG',NULL,'31.0',1287594000,'3.59722222222222',10);
INSERT INTO `weather_metar_archives` (`time_to`,`pressure`,`created_at`,`snow`,`raw`,`rain`,`temperature`,`time_from`,`wind`,`city_id`) VALUES (1287599400,'1011',1289975769,NULL,'OMDB 201800Z 32005KT 290V010 CAVOK 31/27 Q1011 NOSIG',NULL,'31.0',1287597600,'2.56944444444444',10);
INSERT INTO `weather_metar_archives` (`time_to`,`pressure`,`created_at`,`snow`,`raw`,`rain`,`temperature`,`time_from`,`wind`,`city_id`) VALUES (1287603000,'1010',1289975769,NULL,'OMDB 201900Z 29004KT 240V330 CAVOK 31/27 Q1010 NOSIG',NULL,'31.0',1287601200,'2.05555555555556',10);
INSERT INTO `weather_metar_archives` (`time_to`,`pressure`,`created_at`,`snow`,`raw`,`rain`,`temperature`,`time_from`,`wind`,`city_id`) VALUES (1287606600,'1010',1289975769,NULL,'OMDB 202000Z 28004KT 240V320 CAVOK 30/26 Q1010 NOSIG',NULL,'30.0',1287604800,'2.05555555555556',10);
INSERT INTO `weather_metar_archives` (`time_to`,`pressure`,`created_at`,`snow`,`raw`,`rain`,`temperature`,`time_from`,`wind`,`city_id`) VALUES (1287610200,'1010',1289975770,NULL,'OMDB 202100Z 24003KT 200V290 CAVOK 30/26 Q1010 NOSIG',NULL,'30.0',1287608400,'1.54166666666667',10);
INSERT INTO `weather_metar_archives` (`time_to`,`pressure`,`created_at`,`snow`,`raw`,`rain`,`temperature`,`time_from`,`wind`,`city_id`) VALUES (1287613800,'1010',1289975770,NULL,'OMDB 202200Z 18005KT 8000 NSC 28/26 Q1010 TEMPO 5000',NULL,'28.0',1287612000,'2.56944444444444',10);
INSERT INTO `weather_metar_archives` (`time_to`,`pressure`,`created_at`,`snow`,`raw`,`rain`,`temperature`,`time_from`,`wind`,`city_id`) VALUES (1287617400,'1010',1289975770,NULL,'OMDB 202300Z 17006KT 120V190 6000 NSC 28/26 Q1010 TEMPO 5000',NULL,'28.0',1287615600,'3.08333333333333',10);
INSERT INTO `weather_metar_archives` (`time_to`,`pressure`,`created_at`,`snow`,`raw`,`rain`,`temperature`,`time_from`,`wind`,`city_id`) VALUES (1287617400,'1010',1289975770,NULL,'OMDB 202300Z 17006KT 120V190 6000 NSC 28/26 Q1010 TEM',NULL,'28.0',1287615600,'3.08333333333333',10);
INSERT INTO `weather_metar_archives` (`time_to`,`pressure`,`created_at`,`snow`,`raw`,`rain`,`temperature`,`time_from`,`wind`,`city_id`) VALUES (1287621000,NULL,1289975770,NULL,'OMDB 210000Z 17006KT 140V210 800 R12L/1800 FG VV001 27/26 Q10',NULL,'27.0',1287619200,'3.08333333333333',10);
INSERT INTO `weather_metar_archives` (`time_to`,`pressure`,`created_at`,`snow`,`raw`,`rain`,`temperature`,`time_from`,`wind`,`city_id`) VALUES (1287621000,'1010',1289975770,NULL,'OMDB 210000Z 17006KT 140V210 800 R12L/1800 FG VV001 27/26 Q1010 BECMG 100',NULL,'27.0',1287619200,'3.08333333333333',10);
INSERT INTO `weather_metar_archives` (`time_to`,`pressure`,`created_at`,`snow`,`raw`,`rain`,`temperature`,`time_from`,`wind`,`city_id`) VALUES (1287624600,'1010',1289975770,NULL,'OMDB 210100Z 16006KT 130V220 0400 R12L/0450D FG VV001 26/26 Q1010 BECMG 01',NULL,'26.0',1287622800,'3.08333333333333',10);
INSERT INTO `weather_metar_archives` (`time_to`,`pressure`,`created_at`,`snow`,`raw`,`rain`,`temperature`,`time_from`,`wind`,`city_id`) VALUES (1287624600,'1010',1289975770,NULL,'OMDB 210100Z 16006KT 130V220 0400 R12L/0450D FG VV001 26/26 Q1010 BECMG 0100',NULL,'26.0',1287622800,'3.08333333333333',10);
INSERT INTO `weather_metar_archives` (`time_to`,`pressure`,`created_at`,`snow`,`raw`,`rain`,`temperature`,`time_from`,`wind`,`city_id`) VALUES (1287628200,'1010',1289975770,NULL,'OMDB 210200Z 16006KT 150V210 0100 R12L/0400D FG VV001 26/26 Q1010 NOSIG',NULL,'26.0',1287626400,'3.08333333333333',10);
INSERT INTO `weather_metar_archives` (`time_to`,`pressure`,`created_at`,`snow`,`raw`,`rain`,`temperature`,`time_from`,`wind`,`city_id`) VALUES (1287631800,'1011',1289975770,NULL,'OMDB 210300Z 16006KT 140V220 0100 R12L/0700U FG VV001 26/26 Q1011 BECMG',NULL,'26.0',1287630000,'3.08333333333333',10);
INSERT INTO `weather_metar_archives` (`time_to`,`pressure`,`created_at`,`snow`,`raw`,`rain`,`temperature`,`time_from`,`wind`,`city_id`) VALUES (1287631800,'1011',1289975770,NULL,'OMDB 210300Z 16006KT 140V220 0100 R12L/0700U FG VV001 26/26 Q1011 BECMG 3000 HZ FM0330',NULL,'26.0',1287630000,'3.08333333333333',10);
INSERT INTO `weather_metar_archives` (`time_to`,`pressure`,`created_at`,`snow`,`raw`,`rain`,`temperature`,`time_from`,`wind`,`city_id`) VALUES (1287635400,'1011',1289975770,NULL,'OMDB 210400Z 16007KT 140V220 0500 0300E R12L/0500V0700D FG BKN002 26/26 Q1011 BECMG 400',NULL,'26.0',1287633600,'3.59722222222222',10);
INSERT INTO `weather_metar_archives` (`time_to`,`pressure`,`created_at`,`snow`,`raw`,`rain`,`temperature`,`time_from`,`wind`,`city_id`) VALUES (1287635400,'1011',1289975770,NULL,'OMDB 210400Z 16007KT 140V220 0500 0300E R12L/0500V0700D FG BKN002 26/26 Q1011 BECMG 4000 HZ',NULL,'26.0',1287633600,'3.59722222222222',10);
INSERT INTO `weather_metar_archives` (`time_to`,`pressure`,`created_at`,`snow`,`raw`,`rain`,`temperature`,`time_from`,`wind`,`city_id`) VALUES (1287639000,'1011',1289975770,NULL,'OMDB 210500Z 18009KT 160V230 1000 0800E R12L/1600VP2000N BCFG BKN003 27/26 Q1011 BECMG 4000 HZ',NULL,'27.0',1287637200,'4.625',10);
INSERT INTO `weather_metar_archives` (`time_to`,`pressure`,`created_at`,`snow`,`raw`,`rain`,`temperature`,`time_from`,`wind`,`city_id`) VALUES (1287639000,'1011',1289975770,NULL,'OMDB 210500Z 18009KT 160V230 1000 0800E R12L/1600VP2000N BCFG BKN003 27/26 Q1011 BECMG 4000',NULL,'27.0',1287637200,'4.625',10);
INSERT INTO `weather_metar_archives` (`time_to`,`pressure`,`created_at`,`snow`,`raw`,`rain`,`temperature`,`time_from`,`wind`,`city_id`) VALUES (1287640980,'1011',1289975770,NULL,'OMDB 210533Z 18008KT 150V220 3000 BR SCT005 28/26 Q1011 BECMG 4000 HZ',NULL,'28.0',1287639180,'4.11111111111111',10);
INSERT INTO `weather_metar_archives` (`time_to`,`pressure`,`created_at`,`snow`,`raw`,`rain`,`temperature`,`time_from`,`wind`,`city_id`) VALUES (1287642600,'1011',1289975770,NULL,'OMDB 210600Z 17008KT 140V200 5000 HZ FEW008 29/26 Q1011 NOSIG',NULL,'29.0',1287640800,'4.11111111111111',10);
INSERT INTO `weather_metar_archives` (`time_to`,`pressure`,`created_at`,`snow`,`raw`,`rain`,`temperature`,`time_from`,`wind`,`city_id`) VALUES (1287646200,'1011',1289975770,NULL,'OMDB 210700Z 18005KT 120V230 CAVOK

 32/25 Q1011 NOSIG',NULL,'32.0',1287644400,'2.56944444444444',10);
INSERT INTO `weather_metar_archives` (`time_to`,`pressure`,`created_at`,`snow`,`raw`,`rain`,`temperature`,`time_from`,`wind`,`city_id`) VALUES (1287649800,'1009',1289975770,NULL,'OMDB 210800Z 30009KT 250V010 CAVOK 35/21 Q1009 NOSIG',NULL,'35.0',1287648000,'4.625',10);
INSERT INTO `weather_metar_archives` (`time_to`,`pressure`,`created_at`,`snow`,`raw`,`rain`,`temperature`,`time_from`,`wind`,`city_id`) VALUES (1287653400,'1009',1289975770,NULL,'OMDB 210900Z 26010KT 230V290 CAVOK 35/22 Q1009 NOSIG',NULL,'35.0',1287651600,'5.13888888888889',10);
INSERT INTO `weather_metar_archives` (`time_to`,`pressure`,`created_at`,`snow`,`raw`,`rain`,`temperature`,`time_from`,`wind`,`city_id`) VALUES (1287657000,'1008',1289975770,NULL,'OMDB 211000Z 26011KT CAVOK 34/24 Q1008 NOSIG',NULL,'34.0',1287655200,'5.65277777777778',10);
INSERT INTO `weather_metar_archives` (`time_to`,`pressure`,`created_at`,`snow`,`raw`,`rain`,`temperature`,`time_from`,`wind`,`city_id`) VALUES (1287660600,'1007',1289975770,NULL,'OMDB 211100Z 28011KT CAVOK 34/24 Q1007 NOSIG',NULL,'34.0',1287658800,'5.65277777777778',10);
INSERT INTO `weather_metar_archives` (`time_to`,`pressure`,`created_at`,`snow`,`raw`,`rain`,`temperature`,`time_from`,`wind`,`city_id`) VALUES (1287664200,'1007',1289975770,NULL,'OMDB 211200Z 30012KT CAVOK 33/25 Q1007 NOSIG',NULL,'33.0',1287662400,'6.16666666666667',10);
INSERT INTO `weather_metar_archives` (`time_to`,`pressure`,`created_at`,`snow`,`raw`,`rain`,`temperature`,`time_from`,`wind`,`city_id`) VALUES (1287667800,NULL,1289975770,NULL,'OMDB 211300Z 30012KT 260V340 CAVOK 32/25 Q100',NULL,'32.0',1287666000,'6.16666666666667',10);
INSERT INTO `weather_metar_archives` (`time_to`,`pressure`,`created_at`,`snow`,`raw`,`rain`,`temperature`,`time_from`,`wind`,`city_id`) VALUES (1287667800,'1007',1289975770,NULL,'OMDB 211300Z 30012KT 260V340 CAVOK 32/25 Q1007 NOSIG',NULL,'32.0',1287666000,'6.16666666666667',10);
INSERT INTO `weather_metar_archives` (`time_to`,`pressure`,`created_at`,`snow`,`raw`,`rain`,`temperature`,`time_from`,`wind`,`city_id`) VALUES (1287671400,'1007',1289975770,NULL,'OMDB 211400Z 29010KT 260V320 9999 FEW025 32/26 Q1007',NULL,'32.0',1287669600,'5.13888888888889',10);
INSERT INTO `weather_metar_archives` (`time_to`,`pressure`,`created_at`,`snow`,`raw`,`rain`,`temperature`,`time_from`,`wind`,`city_id`) VALUES (1287671400,'1007',1289975770,NULL,'OMDB 211400Z 29010KT 260V320 9999 FEW025 32/26 Q1007 NOSIG',NULL,'32.0',1287669600,'5.13888888888889',10);
INSERT INTO `weather_metar_archives` (`time_to`,`pressure`,`created_at`,`snow`,`raw`,`rain`,`temperature`,`time_from`,`wind`,`city_id`) VALUES (1287675000,'1008',1289975770,NULL,'OMDB 211500Z 29010KT CAVOK 31/26 Q1008 NOSIG',NULL,'31.0',1287673200,'5.13888888888889',10);
INSERT INTO `weather_metar_archives` (`time_to`,`pressure`,`created_at`,`snow`,`raw`,`rain`,`temperature`,`time_from`,`wind`,`city_id`) VALUES (1287678600,'1008',1289975770,NULL,'OMDB 211600Z 30009KT 9999 FEW020 31/26 Q1008 NOSIG',NULL,'31.0',1287676800,'4.625',10);
INSERT INTO `weather_metar_archives` (`time_to`,`pressure`,`created_at`,`snow`,`raw`,`rain`,`temperature`,`time_from`,`wind`,`city_id`) VALUES (1287678600,'1008',1289975770,NULL,'OMDB 211600Z 30009KT 9999 FEW020 31/26 Q1008',NULL,'31.0',1287676800,'4.625',10);
INSERT INTO `weather_metar_archives` (`time_to`,`pressure`,`created_at`,`snow`,`raw`,`rain`,`temperature`,`time_from`,`wind`,`city_id`) VALUES (1287682200,'1009',1289975770,NULL,'OMDB 211700Z 30005KT 260V330 CAVOK 31/26 Q1009 NOSI',NULL,'31.0',1287680400,'2.56944444444444',10);
INSERT INTO `weather_metar_archives` (`time_to`,`pressure`,`created_at`,`snow`,`raw`,`rain`,`temperature`,`time_from`,`wind`,`city_id`) VALUES (1287682200,'1009',1289975770,NULL,'OMDB 211700Z 30005KT 260V330 CAVOK 31/26 Q1009 NOSIG',NULL,'31.0',1287680400,'2.56944444444444',10);
INSERT INTO `weather_metar_archives` (`time_to`,`pressure`,`created_at`,`snow`,`raw`,`rain`,`temperature`,`time_from`,`wind`,`city_id`) VALUES (1287685800,'1008',1289975770,NULL,'OMDB 211800Z 32006KT CAVOK 31/26 Q1008 NOSIG',NULL,'31.0',1287684000,'3.08333333333333',10);
INSERT INTO `weather_metar_archives` (`time_to`,`pressure`,`created_at`,`snow`,`raw`,`rain`,`temperature`,`time_from`,`wind`,`city_id`) VALUES (1287689400,NULL,1289975770,NULL,'OMDB 211900Z 33005KT 270V020 8000 FEW018 31/2',NULL,NULL,1287687600,'2.56944444444444',10);
INSERT INTO `weather_metar_archives` (`time_to`,`pressure`,`created_at`,`snow`,`raw`,`rain`,`temperature`,`time_from`,`wind`,`city_id`) VALUES (1287689400,'1008',1289975770,NULL,'OMDB 211900Z 33005KT 270V020 8000 FEW018 31/26 Q1008 NOSIG',NULL,'31.0',1287687600,'2.56944444444444',10);
INSERT INTO `weather_metar_archives` (`time_to`,`pressure`,`created_at`,`snow`,`raw`,`rain`,`temperature`,`time_from`,`wind`,`city_id`) VALUES (1287693000,'1008',1289975770,NULL,'OMDB 212000Z 24003KT 200V280 8000 NSC 30/26 Q1008 NOSIG',NULL,'30.0',1287691200,'1.54166666666667',10);
INSERT INTO `weather_metar_archives` (`time_to`,`pressure`,`created_at`,`snow`,`raw`,`rain`,`temperature`,`time_from`,`wind`,`city_id`) VALUES (1287696600,'1007',1289975770,NULL,'OMDB 212100Z 31005KT 280V050 7000 SCT018 30/26 Q1007 BECMG 3000 BR',NULL,'30.0',1287694800,'2.56944444444444',10);
INSERT INTO `weather_metar_archives` (`time_to`,`pressure`,`created_at`,`snow`,`raw`,`rain`,`temperature`,`time_from`,`wind`,`city_id`) VALUES (1287696600,'1007',1289975770,NULL,'OMDB 212100Z 31005KT 280V050 7000 SCT018 30/26 Q1007 BEC',NULL,'30.0',1287694800,'2.56944444444444',10);
INSERT INTO `weather_metar_archives` (`time_to`,`pressure`,`created_at`,`snow`,`raw`,`rain`,`temperature`,`time_from`,`wind`,`city_id`) VALUES (1287700200,'1007',1289975770,NULL,'OMDB 212200Z 32005KT 250V350 7000 FEW017 30/26 Q1007 NOSIG',NULL,'30.0',1287698400,'2.56944444444444',10);
INSERT INTO `weather_metar_archives` (`time_to`,`pressure`,`created_at`,`snow`,`raw`,`rain`,`temperature`,`time_from`,`wind`,`city_id`) VALUES (1287703800,'1007',1289975770,NULL,'OMDB 212300Z 17005KT 6000 FEW015 28/26 Q1007 BECMG 4000 HZ',NULL,'28.0',1287702000,'2.56944444444444',10);
INSERT INTO `weather_metar_archives` (`time_to`,`pressure`,`created_at`,`snow`,`raw`,`rain`,`temperature`,`time_from`,`wind`,`city_id`) VALUES (1287707400,'1007',1289975770,NULL,'OMDB 220000Z 18005KT 140V200 6000 BKN015 28/25 Q1007 BECMG',NULL,'28.0',1287705600,'2.56944444444444',10);
INSERT INTO `weather_metar_archives` (`time_to`,`pressure`,`created_at`,`snow`,`raw`,`rain`,`temperature`,`time_from`,`wind`,`city_id`) VALUES (1287707400,'1007',1289975770,NULL,'OMDB 220000Z 18005KT 140V200 6000 BKN015 28/25 Q1007 BECMG 4000 HZ',NULL,'28.0',1287705600,'2.56944444444444',10);
INSERT INTO `weather_metar_archives` (`time_to`,`pressure`,`created_at`,`snow`,`raw`,`rain`,`temperature`,`time_from`,`wind`,`city_id`) VALUES (1287711000,'1007',1289975770,NULL,'OMDB 220100Z 19005KT 6000 SCT015 27/25 Q1007 BECMG 4000 HZ',NULL,'27.0',1287709200,'2.56944444444444',10);
INSERT INTO `weather_metar_archives` (`time_to`,`pressure`,`created_at`,`snow`,`raw`,`rain`,`temperature`,`time_from`,`wind`,`city_id`) VALUES (1287714600,'1007',1289975770,NULL,'OMDB 220200Z 17003KT 140V200 5000 HZ FEW017 27/24 Q1007 NOS',NULL,'27.0',1287712800,'1.54166666666667',10);
INSERT INTO `weather_metar_archives` (`time_to`,`pressure`,`created_at`,`snow`,`raw`,`rain`,`temperature`,`time_from`,`wind`,`city_id`) VALUES (1287714600,'1007',1289975770,NULL,'OMDB 220200Z 17003KT 140V200 5000 HZ FEW017 27/24 Q1007 NOSIG',NULL,'27.0',1287712800,'1.54166666666667',10);
INSERT INTO `weather_metar_archives` (`time_to`,`pressure`,`created_at`,`snow`,`raw`,`rain`,`temperature`,`time_from`,`wind`,`city_id`) VALUES (1287718200,'1007',1289975770,NULL,'OMDB 220300Z 19004KT 160V220 CAVOK 27/24 Q1007 NOSIG',NULL,'27.0',1287716400,'2.05555555555556',10);
INSERT INTO `weather_metar_archives` (`time_to`,`pressure`,`created_at`,`snow`,`raw`,`rain`,`temperature`,`time_from`,`wind`,`city_id`) VALUES (1287721800,'1008',1289975770,NULL,'OMDB 220400Z 18006KT CAVOK 28/25 Q1008 NOSIG',NULL,'28.0',1287720000,'3.08333333333333',10);
INSERT INTO `weather_metar_archives` (`time_to`,`pressure`,`created_at`,`snow`,`raw`,`rain`,`temperature`,`time_from`,`wind`,`city_id`) VALUES (1287725400,'1008',1289975770,NULL,'OMDB 220500Z 19007KT CAVOK 29/25 Q1008 NOSIG',NULL,'29.0',1287723600,'3.59722222222222',10);
INSERT INTO `weather_metar_archives` (`time_to`,`pressure`,`created_at`,`snow`,`raw`,`rain`,`temperature`,`time_from`,`wind`,`city_id`) VALUES (1287729000,NULL,1289975770,NULL,'OMDB 220600Z 21006KT 160V250 CAVOK 30/25 Q100',NULL,'30.0',1287727200,'3.08333333333333',10);
INSERT INTO `weather_metar_archives` (`time_to`,`pressure`,`created_at`,`snow`,`raw`,`rain`,`temperature`,`time_from`,`wind`,`city_id`) VALUES (1287729000,'1008',1289975770,NULL,'OMDB 220600Z 21006KT 160V250 CAVOK 30/25 Q1008 NOSIG',NULL,'30.0',1287727200,'3.08333333333333',10);
INSERT INTO `weather_metar_archives` (`time_to`,`pressure`,`created_at`,`snow`,`raw`,`rain`,`temperature`,`time_from`,`wind`,`city_id`) VALUES (1287732600,'1007',1289975770,NULL,'OMDB 220700Z 24003KT 170V290 CAVOK 34/23 Q1007 NOSIG',NULL,'34.0',1287730800,'1.54166666666667',10);
INSERT INTO `weather_metar_archives` (`time_to`,`pressure`,`created_at`,`snow`,`raw`,`rain`,`temperature`,`time_from`,`wind`,`city_id`) VALUES (1287736200,'1006',1289975770,NULL,'OMDB 220800Z 26009KT CAVOK 34/25 Q1006 NOSIG',NULL,'34.0',1287734400,'4.625',10);
INSERT INTO `weather_metar_archives` (`time_to`,`pressure`,`created_at`,`snow`,`raw`,`rain`,`temperature`,`time_from`,`wind`,`city_id`) VALUES (1287739800,'1005',1289975770,NULL,'OMDB 220900Z 30012KT CAVOK 33/25 Q1005 NOSIG',NULL,'33.0',1287738000,'6.16666666666667',10);
INSERT INTO `weather_metar_archives` (`time_to`,`pressure`,`created_at`,`snow`,`raw`,`rain`,`temperature`,`time_from`,`wind`,`city_id`) VALUES (1287743400,'1005',1289975770,NULL,'OMDB 221000Z 30011KT CAVOK 33/25 Q1005 NOSIG',NULL,'33.0',1287741600,'5.65277777777778',10);
INSERT INTO `weather_metar_archives` (`time_to`,`pressure`,`created_at`,`snow`,`raw`,`rain`,`temperature`,`time_from`,`wind`,`city_id`) VALUES (1287747000,NULL,1289975770,NULL,'OMDB 221100Z 30010KT 260V320 CAVOK 33/25 Q100',NULL,'33.0',1287745200,'5.13888888888889',10);
INSERT INTO `weather_metar_archives` (`time_to`,`pressure`,`created_at`,`snow`,`raw`,`rain`,`temperature`,`time_from`,`wind`,`city_id`) VALUES (1287747000,'1004',1289975770,NULL,'OMDB 221100Z 30010KT 260V320 CAVOK 33/25 Q1004 NOSIG',NULL,'33.0',1287745200,'5.13888888888889',10);
INSERT INTO `weather_metar_archives` (`time_to`,`pressure`,`created_at`,`snow`,`raw`,`rain`,`temperature`,`time_from`,`wind`,`city_id`) VALUES (1287750600,'1004',1289975770,NULL,'OMDB 221200Z 30010KT 270V340 CAVOK 32/25 Q1004 NOSIG',NULL,'32.0',1287748800,'5.13888888888889',10);
INSERT INTO `weather_metar_archives` (`time_to`,`pressure`,`created_at`,`snow`,`raw`,`rain`,`temperature`,`time_from`,`wind`,`city_id`) VALUES (1287754200,'1004',1289975770,NULL,'OMDB 221300Z 31010KT 280V360 CAVOK 32/26 Q1004 NOSIG',NULL,'32.0',1287752400,'5.13888888888889',10);
INSERT INTO `weather_metar_archives` (`time_to`,`pressure`,`created_at`,`snow`,`raw`,`rain`,`temperature`,`time_from`,`wind`,`city_id`) VALUES (1287757800,'1004',1289975770,NULL,'OMDB 221400Z 29007KT CAVOK 31/25 Q1004 NOSIG',NULL,'31.0',1287756000,'3.59722222222222',10);
INSERT INTO `weather_metar_archives` (`time_to`,`pressure`,`created_at`,`snow`,`raw`,`rain`,`temperature`,`time_from`,`wind`,`city_id`) VALUES (1287761400,'1005',1289975770,NULL,'OMDB 221500Z 32006KT CAVOK 31/25 Q1005 NOSIG',NULL,'31.0',1287759600,'3.08333333333333',10);
INSERT INTO `weather_metar_archives` (`time_to`,`pressure`,`created_at`,`snow`,`raw`,`rain`,`temperature`,`time_from`,`wind`,`city_id`) VALUES (1287765000,'1005',1289975770,NULL,'OMDB 221600Z 31004KT CAVOK 31/24 Q1005 NOSIG',NULL,'31.0',1287763200,'2.05555555555556',10);
INSERT INTO `weather_metar_archives` (`time_to`,`pressure`,`created_at`,`snow`,`raw`,`rain`,`temperature`,`time_from`,`wind`,`city_id`) VALUES (1287768600,'1006',1289975770,NULL,'OMDB 221700Z VRB02KT CAVOK 31/24 Q1006 NOSIG',NULL,'31.0',1287766800,NULL,10);
INSERT INTO `weather_metar_archives` (`time_to`,`pressure`,`created_at`,`snow`,`raw`,`rain`,`temperature`,`time_from`,`wind`,`city_id`) VALUES (1287772200,NULL,1289975770,NULL,'OMDB 221800Z 02004KT 320V050 CAVOK 30/24 Q100',NULL,'30.0',1287770400,'2.05555555555556',10);
INSERT INTO `weather_metar_archives` (`time_to`,`pressure`,`created_at`,`snow`,`raw`,`rain`,`temperature`,`time_from`,`wind`,`city_id`) VALUES (1287772200,'1006',1289975770,NULL,'OMDB 221800Z 02004KT 320V050 CAVOK 30/24 Q1006 NOSIG',NULL,'30.0',1287770400,'2.05555555555556',10);
INSERT INTO `weather_metar_archives` (`time_to`,`pressure`,`created_at`,`snow`,`raw`,`rain`,`temperature`,`time_from`,`wind`,`city_id`) VALUES (1287775800,'1006',1289975770,NULL,'OMDB 221900Z 19002KT CAVOK 30/25 Q1006 NOSIG',NULL,'30.0',1287774000,'1.02777777777778',10);
INSERT INTO `weather_metar_archives` (`time_to`,`pressure`,`created_at`,`snow`,`raw`,`rain`,`temperature`,`time_from`,`wind`,`city_id`) VALUES (1287779400,'1005',1289975770,NULL,'OMDB 222000Z 20005KT CAVOK 29/24 Q1005 NOSIG',NULL,'29.0',1287777600,'2.56944444444444',10);
INSERT INTO `weather_metar_archives` (`time_to`,`pressure`,`created_at`,`snow`,`raw`,`rain`,`temperature`,`time_from`,`wind`,`city_id`) VALUES (1287783000,'1005',1289975770,NULL,'OMDB 222100Z 17005KT CAVOK 29/25 Q1005 NOSIG',NULL,'29.0',1287781200,'2.56944444444444',10);
INSERT INTO `weather_metar_archives` (`time_to`,`pressure`,`created_at`,`snow`,`raw`,`rain`,`temperature`,`time_from`,`wind`,`city_id`) VALUES (1287786600,'1005',1289975770,NULL,'OMDB 222200Z 19005KT 9999 SCT017 28/24 Q1005',NULL,'28.0',1287784800,'2.56944444444444',10);
INSERT INTO `weather_metar_archives` (`time_to`,`pressure`,`created_at`,`snow`,`raw`,`rain`,`temperature`,`time_from`,`wind`,`city_id`) VALUES (1287786600,'1005',1289975770,NULL,'OMDB 222200Z 19005KT 9999 SCT017 28/24 Q1005 BECMG 3000 HZ BKN014',NULL,'28.0',1287784800,'2.56944444444444',10);
INSERT INTO `weather_metar_archives` (`time_to`,`pressure`,`created_at`,`snow`,`raw`,`rain`,`temperature`,`time_from`,`wind`,`city_id`) VALUES (1287790200,'1005',1289975770,NULL,'OMDB 222300Z 20006KT 8000 NSC 27/24 Q1005 BECMG 3000 HZ BKN014',NULL,'27.0',1287788400,'3.08333333333333',10);
INSERT INTO `weather_metar_archives` (`time_to`,`pressure`,`created_at`,`snow`,`raw`,`rain`,`temperature`,`time_from`,`wind`,`city_id`) VALUES (1287793800,'1005',1289975770,NULL,'OMDB 230000Z 18005KT 7000 NSC 28/25 Q1005 BECMG 3000 HZ BKN014',NULL,'28.0',1287792000,'2.56944444444444',10);
INSERT INTO `weather_metar_archives` (`time_to`,`pressure`,`created_at`,`snow`,`raw`,`rain`,`temperature`,`time_from`,`wind`,`city_id`) VALUES (1287797400,'1006',1289975770,NULL,'OMDB 230100Z 17005KT 130V200 6000 NSC 27/24 Q1006 BECMG 3000 BR BKN010',NULL,'27.0',1287795600,'2.56944444444444',10);
INSERT INTO `weather_metar_archives` (`time_to`,`pressure`,`created_at`,`snow`,`raw`,`rain`,`temperature`,`time_from`,`wind`,`city_id`) VALUES (1287797400,'1006',1289975770,NULL,'OMDB 230100Z 17005KT 130V200 6000 NSC 27/24 Q1006 BECMG 3000 BR',NULL,'27.0',1287795600,'2.56944444444444',10);
INSERT INTO `weather_metar_archives` (`time_to`,`pressure`,`created_at`,`snow`,`raw`,`rain`,`temperature`,`time_from`,`wind`,`city_id`) VALUES (1287801000,'1006',1289975770,NULL,'OMDB 230200Z 16006KT 6000 NSC 27/25 Q1006 TEMPO 3000 BR BKN010',NULL,'27.0',1287799200,'3.08333333333333',10);
INSERT INTO `weather_metar_archives` (`time_to`,`pressure`,`created_at`,`snow`,`raw`,`rain`,`temperature`,`time_from`,`wind`,`city_id`) VALUES (1287801420,'1006',1289975770,NULL,'OMDB 230207Z 19004KT 150V210 4000 HZ NSC 27/24 Q1006 TEMPO 2500',NULL,'27.0',1287799620,'2.05555555555556',10);
INSERT INTO `weather_metar_archives` (`time_to`,`pressure`,`created_at`,`snow`,`raw`,`rain`,`temperature`,`time_from`,`wind`,`city_id`) VALUES (1287801420,'1006',1289975770,NULL,'OMDB 230207Z 19004KT 150V210 4000 HZ NSC 27/24 Q1006 TEMPO 2500 BR BKN010',NULL,'27.0',1287799620,'2.05555555555556',10);
INSERT INTO `weather_metar_archives` (`time_to`,`pressure`,`created_at`,`snow`,`raw`,`rain`,`temperature`,`time_from`,`wind`,`city_id`) VALUES (1287804600,'1007',1289975770,NULL,'OMDB 230300Z 17005KT 3000 HZ NSC 27/24 Q1007 TEMPO 1500 BR BKN010',NULL,'27.0',1287802800,'2.56944444444444',10);
INSERT INTO `weather_metar_archives` (`time_to`,`pressure`,`created_at`,`snow`,`raw`,`rain`,`temperature`,`time_from`,`wind`,`city_id`) VALUES (1287808200,'1007',1289975770,NULL,'OMDB 230400Z 17005KT 5000 HZ NSC 28/24 Q1007 BECMG 6000',NULL,'28.0',1287806400,'2.56944444444444',10);
INSERT INTO `weather_metar_archives` (`time_to`,`pressure`,`created_at`,`snow`,`raw`,`rain`,`temperature`,`time_from`,`wind`,`city_id`) VALUES (1287811800,'1008',1289975770,NULL,'OMDB 230500Z 17006KT 140V200 6000 NSC 29/25 Q1008 NOSIG',NULL,'29.0',1287810000,'3.08333333333333',10);
INSERT INTO `weather_metar_archives` (`time_to`,`pressure`,`created_at`,`snow`,`raw`,`rain`,`temperature`,`time_from`,`wind`,`city_id`) VALUES (1287815400,'1008',1289975770,NULL,'OMDB 230600Z 22005KT 190V260 8000 NSC 31/24 Q1008 NOSIG',NULL,'31.0',1287813600,'2.56944444444444',10);
INSERT INTO `weather_metar_archives` (`time_to`,`pressure`,`created_at`,`snow`,`raw`,`rain`,`temperature`,`time_from`,`wind`,`city_id`) VALUES (1287819000,'1007',1289975770,NULL,'OMDB 230700Z VRB04KT CAVOK 33/22 Q1007 NOSIG',NULL,'33.0',1287817200,NULL,10);
INSERT INTO `weather_metar_archives` (`time_to`,`pressure`,`created_at`,`snow`,`raw`,`rain`,`temperature`,`time_from`,`wind`,`city_id`) VALUES (1287822600,'1007',1289975770,NULL,'OMDB 230800Z VRB02KT CAVOK 35/19 Q1007 NOSIG',NULL,'35.0',1287820800,NULL,10);
INSERT INTO `weather_metar_archives` (`time_to`,`pressure`,`created_at`,`snow`,`raw`,`rain`,`temperature`,`time_from`,`wind`,`city_id`) VALUES (1287826200,'1006',1289975770,NULL,'OMDB 230900Z 30009KT 260V330 CAVOK 33/25 Q1006 NOSIG',NULL,'33.0',1287824400,'4.625',10);
INSERT INTO `weather_metar_archives` (`time_to`,`pressure`,`created_at`,`snow`,`raw`,`rain`,`temperature`,`time_from`,`wind`,`city_id`) VALUES (1287826200,NULL,1289975770,NULL,'OMDB 230900Z 30009KT 260V330 CAVOK 33/25 Q100',NULL,'33.0',1287824400,'4.625',10);
INSERT INTO `weather_metar_archives` (`time_to`,`pressure`,`created_at`,`snow`,`raw`,`rain`,`temperature`,`time_from`,`wind`,`city_id`) VALUES (1287829800,'1005',1289975770,NULL,'OMDB 231000Z 31011KT CAVOK 33/24 Q1005 NOSIG',NULL,'33.0',1287828000,'5.65277777777778',10);
INSERT INTO `weather_metar_archives` (`time_to`,`pressure`,`created_at`,`snow`,`raw`,`rain`,`temperature`,`time_from`,`wind`,`city_id`) VALUES (1287833400,NULL,1289975770,NULL,'OMDB 231100Z 32012KT 280V360 CAVOK 33/24 Q100',NULL,'33.0',1287831600,'6.16666666666667',10);
INSERT INTO `weather_metar_archives` (`time_to`,`pressure`,`created_at`,`snow`,`raw`,`rain`,`temperature`,`time_from`,`wind`,`city_id`) VALUES (1287833400,'1005',1289975770,NULL,'OMDB 231100Z 32012KT 280V360 CAVOK 33/24 Q1005 NOSIG',NULL,'33.0',1287831600,'6.16666666666667',10);
INSERT INTO `weather_metar_archives` (`time_to`,`pressure`,`created_at`,`snow`,`raw`,`rain`,`temperature`,`time_from`,`wind`,`city_id`) VALUES (1287837000,'1005',1289975770,NULL,'OMDB 231200Z 34010KT CAVOK 32/24 Q1005 NOSIG',NULL,'32.0',1287835200,'5.13888888888889',10);
INSERT INTO `weather_metar_archives` (`time_to`,`pressure`,`created_at`,`snow`,`raw`,`rain`,`temperature`,`time_from`,`wind`,`city_id`) VALUES (1287840600,'1005',1289975770,NULL,'OMDB 231300Z 34009KT CAVOK 32/25 Q1005 NOSIG',NULL,'32.0',1287838800,'4.625',10);
INSERT INTO `weather_metar_archives` (`time_to`,`pressure`,`created_at`,`snow`,`raw`,`rain`,`temperature`,`time_from`,`wind`,`city_id`) VALUES (1287844200,NULL,1289975770,NULL,'OMDB 231400Z 34007KT 250V020 CAVOK 31/25 Q100',NULL,'31.0',1287842400,'3.59722222222222',10);
INSERT INTO `weather_metar_archives` (`time_to`,`pressure`,`created_at`,`snow`,`raw`,`rain`,`temperature`,`time_from`,`wind`,`city_id`) VALUES (1287844200,'1005',1289975770,NULL,'OMDB 231400Z 34007KT 250V020 CAVOK 31/25 Q1005 NOSIG',NULL,'31.0',1287842400,'3.59722222222222',10);
INSERT INTO `weather_metar_archives` (`time_to`,`pressure`,`created_at`,`snow`,`raw`,`rain`,`temperature`,`time_from`,`wind`,`city_id`) VALUES (1287847800,'1006',1289975770,NULL,'OMDB 231500Z 34006KT 260V010 CAVOK 31/25 Q1006

 NOSIG',NULL,'31.0',1287846000,'3.08333333333333',10);
INSERT INTO `weather_metar_archives` (`time_to`,`pressure`,`created_at`,`snow`,`raw`,`rain`,`temperature`,`time_from`,`wind`,`city_id`) VALUES (1287851400,'1006',1289975770,NULL,'OMDB 231600Z 34006KT CAVOK 31/25 Q1006 NOSIG',NULL,'31.0',1287849600,'3.08333333333333',10);
INSERT INTO `weather_metar_archives` (`time_to`,`pressure`,`created_at`,`snow`,`raw`,`rain`,`temperature`,`time_from`,`wind`,`city_id`) VALUES (1287855000,'1007',1289975770,NULL,'OMDB 231700Z VRB04KT 8000 NSC 31/26 Q1007 NOSIG',NULL,'31.0',1287853200,NULL,10);
INSERT INTO `weather_metar_archives` (`time_to`,`pressure`,`created_at`,`snow`,`raw`,`rain`,`temperature`,`time_from`,`wind`,`city_id`) VALUES (1287855000,'1007',1289975770,NULL,'OMDB 231700Z VRB04KT 8000 NSC 31/26 Q1007 NOS',NULL,'31.0',1287853200,NULL,10);
INSERT INTO `weather_metar_archives` (`time_to`,`pressure`,`created_at`,`snow`,`raw`,`rain`,`temperature`,`time_from`,`wind`,`city_id`) VALUES (1287858600,NULL,1289975770,NULL,'OMDB 231800Z 03004KT 340V080 8000 NSC 31/25 Q100',NULL,'31.0',1287856800,'2.05555555555556',10);
INSERT INTO `weather_metar_archives` (`time_to`,`pressure`,`created_at`,`snow`,`raw`,`rain`,`temperature`,`time_from`,`wind`,`city_id`) VALUES (1287858600,'1007',1289975770,NULL,'OMDB 231800Z 03004KT 340V080 8000 NSC 31/25 Q1007 NOSIG',NULL,'31.0',1287856800,'2.05555555555556',10);
INSERT INTO `weather_metar_archives` (`time_to`,`pressure`,`created_at`,`snow`,`raw`,`rain`,`temperature`,`time_from`,`wind`,`city_id`) VALUES (1287862200,'1007',1289975770,NULL,'OMDB 231900Z VRB03KT 8000 NSC 31/25 Q1007 NOSIG',NULL,'31.0',1287860400,NULL,10);
INSERT INTO `weather_metar_archives` (`time_to`,`pressure`,`created_at`,`snow`,`raw`,`rain`,`temperature`,`time_from`,`wind`,`city_id`) VALUES (1800,'1007',1289975770,NULL,'OMDB 231980Z VRB03KT 80 0 NSC 31/25 Q1007 NOSIG',NULL,'31.0',0,NULL,10);
INSERT INTO `weather_metar_archives` (`time_to`,`pressure`,`created_at`,`snow`,`raw`,`rain`,`temperature`,`time_from`,`wind`,`city_id`) VALUES (1287865800,NULL,1289975770,NULL,'OMDB 232000Z 33005KT 290V060 8000 NSC 30/25 Q100',NULL,'30.0',1287864000,'2.56944444444444',10);
INSERT INTO `weather_metar_archives` (`time_to`,`pressure`,`created_at`,`snow`,`raw`,`rain`,`temperature`,`time_from`,`wind`,`city_id`) VALUES (1287865800,'1006',1289975770,NULL,'OMDB 232000Z 33005KT 290V060 8000 NSC 30/25 Q1006 NOSIG',NULL,'30.0',1287864000,'2.56944444444444',10);
INSERT INTO `weather_metar_archives` (`time_to`,`pressure`,`created_at`,`snow`,`raw`,`rain`,`temperature`,`time_from`,`wind`,`city_id`) VALUES (1287869400,'1007',1289975770,NULL,'OMDB 232100Z 33004KT 270V070 8000 NSC 30/25 Q1007 NOSIG',NULL,'30.0',1287867600,'2.05555555555556',10);
INSERT INTO `weather_metar_archives` (`time_to`,`pressure`,`created_at`,`snow`,`raw`,`rain`,`temperature`,`time_from`,`wind`,`city_id`) VALUES (1287873000,'1006',1289975770,NULL,'OMDB 232200Z VRB02KT 7000 NSC 28/25 Q1006 BECMG 4000 HZ',NULL,'28.0',1287871200,NULL,10);
INSERT INTO `weather_metar_archives` (`time_to`,`pressure`,`created_at`,`snow`,`raw`,`rain`,`temperature`,`time_from`,`wind`,`city_id`) VALUES (1287876600,'1006',1289975770,NULL,'OMDB 232300Z VRB01KT 6000 NSC 28/25 Q1006 BECMG 2500 BR',NULL,'28.0',1287874800,NULL,10);
INSERT INTO `weather_metar_archives` (`time_to`,`pressure`,`created_at`,`snow`,`raw`,`rain`,`temperature`,`time_from`,`wind`,`city_id`) VALUES (1287880200,'1007',1289975770,NULL,'OMDB 240000Z 08005KT 050V110 4000 HZ NSC 27/25 Q1007 BEC',NULL,'27.0',1287878400,'2.56944444444444',10);
INSERT INTO `weather_metar_archives` (`time_to`,`pressure`,`created_at`,`snow`,`raw`,`rain`,`temperature`,`time_from`,`wind`,`city_id`) VALUES (1287880200,'1007',1289975770,NULL,'OMDB 240000Z 08005KT 050V110 4000 HZ NSC 27/25 Q1007 BECMG 2500 BR',NULL,'27.0',1287878400,'2.56944444444444',10);
INSERT INTO `weather_metar_archives` (`time_to`,`pressure`,`created_at`,`snow`,`raw`,`rain`,`temperature`,`time_from`,`wind`,`city_id`) VALUES (1287883800,'1007',1289975770,NULL,'OMDB 240100Z 07004KT 030V110 4000 HZ NSC 27/24 Q1007 BECMG 2500 BR',NULL,'27.0',1287882000,'2.05555555555556',10);
INSERT INTO `weather_metar_archives` (`time_to`,`pressure`,`created_at`,`snow`,`raw`,`rain`,`temperature`,`time_from`,`wind`,`city_id`) VALUES (1287887400,'1007',1289975770,NULL,'OMDB 240200Z 09005KT 020V110 3000 HZ NSC 26/24 Q1007 BECMG 1500 BR',NULL,'26.0',1287885600,'2.56944444444444',10);
INSERT INTO `weather_metar_archives` (`time_to`,`pressure`,`created_at`,`snow`,`raw`,`rain`,`temperature`,`time_from`,`wind`,`city_id`) VALUES (1287891000,'1008',1289975770,NULL,'OMDB 240300Z 09005KT 050V110 0800 R12L/P2000N FG VV001 24/23 Q1008',NULL,'24.0',1287889200,'2.56944444444444',10);
INSERT INTO `weather_metar_archives` (`time_to`,`pressure`,`created_at`,`snow`,`raw`,`rain`,`temperature`,`time_from`,`wind`,`city_id`) VALUES (1287891000,'1008',1289975770,NULL,'OMDB 240300Z 09005KT 050V110 0800 R12L/P2000N FG VV001 24/23 Q1008 BECMG 4000 HZ',NULL,'24.0',1287889200,'2.56944444444444',10);
INSERT INTO `weather_metar_archives` (`time_to`,`pressure`,`created_at`,`snow`,`raw`,`rain`,`temperature`,`time_from`,`wind`,`city_id`) VALUES (1287894600,'1009',1289975770,NULL,'OMDB 240400Z 09005KT 050V110 1000 0800E R12L/P2000N BCFG SCT002 25/24 Q1009 BECMG',NULL,'25.0',1287892800,'2.56944444444444',10);
INSERT INTO `weather_metar_archives` (`time_to`,`pressure`,`created_at`,`snow`,`raw`,`rain`,`temperature`,`time_from`,`wind`,`city_id`) VALUES (1287894600,'1009',1289975770,NULL,'OMDB 240400Z 09005KT 050V110 1000 0800E R12L/P2000N BCFG SCT002 25/24 Q1009 BECMG 4000 HZ',NULL,'25.0',1287892800,'2.56944444444444',10);
INSERT INTO `weather_metar_archives` (`time_to`,`pressure`,`created_at`,`snow`,`raw`,`rain`,`temperature`,`time_from`,`wind`,`city_id`) VALUES (1287898200,'1009',1289975770,NULL,'OMDB 240500Z 11007KT 1500 BR SCT002 26/25 Q1009 BECMG 4000 HZ',NULL,'26.0',1287896400,'3.59722222222222',10);
INSERT INTO `weather_metar_archives` (`time_to`,`pressure`,`created_at`,`snow`,`raw`,`rain`,`temperature`,`time_from`,`wind`,`city_id`) VALUES (1287901800,'1009',1289975771,NULL,'OMDB 240600Z 09003KT 010V180 6000 NSC 31/22 Q1009 NOSIG',NULL,'31.0',1287900000,'1.54166666666667',10);
INSERT INTO `weather_metar_archives` (`time_to`,`pressure`,`created_at`,`snow`,`raw`,`rain`,`temperature`,`time_from`,`wind`,`city_id`) VALUES (1287905400,'1009',1289975771,NULL,'OMDB 240700Z 05006KT 360V120 CAVOK 34/15 Q1009 NOSIG',NULL,'34.0',1287903600,'3.08333333333333',10);
INSERT INTO `weather_metar_archives` (`time_to`,`pressure`,`created_at`,`snow`,`raw`,`rain`,`temperature`,`time_from`,`wind`,`city_id`) VALUES (1287909000,'1008',1289975771,NULL,'OMDB 240800Z VRB05KT CAVOK 37/14 Q1008 NOSIG',NULL,'37.0',1287907200,NULL,10);
INSERT INTO `weather_metar_archives` (`time_to`,`pressure`,`created_at`,`snow`,`raw`,`rain`,`temperature`,`time_from`,`wind`,`city_id`) VALUES (1287912600,NULL,1289975771,NULL,'OMDB 240900Z 33009KT 250V020 CAVOK 36/21 Q100',NULL,'36.0',1287910800,'4.625',10);
INSERT INTO `weather_metar_archives` (`time_to`,`pressure`,`created_at`,`snow`,`raw`,`rain`,`temperature`,`time_from`,`wind`,`city_id`) VALUES (1287912600,'1007',1289975771,NULL,'OMDB 240900Z 33009KT 250V020 CAVOK 36/21 Q1007 NOSIG',NULL,'36.0',1287910800,'4.625',10);
INSERT INTO `weather_metar_archives` (`time_to`,`pressure`,`created_at`,`snow`,`raw`,`rain`,`temperature`,`time_from`,`wind`,`city_id`) VALUES (1287916200,'1007',1289975771,NULL,'OMDB 241000Z 33013KT CAVOK 35/17 Q1007 NOSIG',NULL,'35.0',1287914400,'6.68055555555556',10);
INSERT INTO `weather_metar_archives` (`time_to`,`pressure`,`created_at`,`snow`,`raw`,`rain`,`temperature`,`time_from`,`wind`,`city_id`) VALUES (1287919800,NULL,1289975771,NULL,'OMDB 241100Z 35012KT 250V020 CAVOK 34/23 Q100',NULL,'34.0',1287918000,'6.16666666666667',10);
INSERT INTO `weather_metar_archives` (`time_to`,`pressure`,`created_at`,`snow`,`raw`,`rain`,`temperature`,`time_from`,`wind`,`city_id`) VALUES (1287919800,'1007',1289975771,NULL,'OMDB 241100Z 35012KT 250V020 CAVOK 34/23 Q1007 NOSIG',NULL,'34.0',1287918000,'6.16666666666667',10);
INSERT INTO `weather_metar_archives` (`time_to`,`pressure`,`created_at`,`snow`,`raw`,`rain`,`temperature`,`time_from`,`wind`,`city_id`) VALUES (1287923400,'1007',1289975771,NULL,'OMDB 241200Z 35011KT CAVOK 34/24 Q1007 NOSIG',NULL,'34.0',1287921600,'5.65277777777778',10);
INSERT INTO `weather_metar_archives` (`time_to`,`pressure`,`created_at`,`snow`,`raw`,`rain`,`temperature`,`time_from`,`wind`,`city_id`) VALUES (1287927000,'1007',1289975771,NULL,'OMDB 241300Z 36009KT 320V020 CAVOK 34/21 Q1007 NOSIG',NULL,'34.0',1287925200,'4.625',10);
INSERT INTO `weather_metar_archives` (`time_to`,`pressure`,`created_at`,`snow`,`raw`,`rain`,`temperature`,`time_from`,`wind`,`city_id`) VALUES (1287927000,NULL,1289975771,NULL,'OMDB 241300Z 36009KT 320V020 CAVOK 34/21 Q100',NULL,'34.0',1287925200,'4.625',10);
INSERT INTO `weather_metar_archives` (`time_to`,`pressure`,`created_at`,`snow`,`raw`,`rain`,`temperature`,`time_from`,`wind`,`city_id`) VALUES (1287930600,'1007',1289975771,NULL,'OMDB 241400Z 36007KT CAVOK 33/22 Q1007 NOSIG',NULL,'33.0',1287928800,'3.59722222222222',10);
INSERT INTO `weather_metar_archives` (`time_to`,`pressure`,`created_at`,`snow`,`raw`,`rain`,`temperature`,`time_from`,`wind`,`city_id`) VALUES (1287934200,'1008',1289975771,NULL,'OMDB 241500Z 02005KT CAVOK 33/21 Q1008 NOSIG',NULL,'33.0',1287932400,'2.56944444444444',10);
INSERT INTO `weather_metar_archives` (`time_to`,`pressure`,`created_at`,`snow`,`raw`,`rain`,`temperature`,`time_from`,`wind`,`city_id`) VALUES (1287937800,'1008',1289975771,NULL,'OMDB 241600Z 05004KT CAVOK 32/22 Q1008 NOSIG',NULL,'32.0',1287936000,'2.05555555555556',10);
INSERT INTO `weather_metar_archives` (`time_to`,`pressure`,`created_at`,`snow`,`raw`,`rain`,`temperature`,`time_from`,`wind`,`city_id`) VALUES (1287941400,NULL,1289975771,NULL,'OMDB 241700Z 06004KT 020V110 CAVOK 31/21 Q100',NULL,'31.0',1287939600,'2.05555555555556',10);
INSERT INTO `weather_metar_archives` (`time_to`,`pressure`,`created_at`,`snow`,`raw`,`rain`,`temperature`,`time_from`,`wind`,`city_id`) VALUES (1287941400,'1008',1289975771,NULL,'OMDB 241700Z 06004KT 020V110 CAVOK 31/21 Q1008 NOSIG',NULL,'31.0',1287939600,'2.05555555555556',10);
INSERT INTO `weather_metar_archives` (`time_to`,`pressure`,`created_at`,`snow`,`raw`,`rain`,`temperature`,`time_from`,`wind`,`city_id`) VALUES (1287945000,'1009',1289975771,NULL,'OMDB 241800Z 05003KT 340V100 CAVOK 31/15 Q1009 NOSIG',NULL,'31.0',1287943200,'1.54166666666667',10);
INSERT INTO `weather_metar_archives` (`time_to`,`pressure`,`created_at`,`snow`,`raw`,`rain`,`temperature`,`time_from`,`wind`,`city_id`) VALUES (1287948600,'1009',1289975771,NULL,'OMDB 241900Z 03004KT 340V110 CAVOK 31/09 Q1009 NOSIG',NULL,'31.0',1287946800,'2.05555555555556',10);
INSERT INTO `weather_metar_archives` (`time_to`,`pressure`,`created_at`,`snow`,`raw`,`rain`,`temperature`,`time_from`,`wind`,`city_id`) VALUES (1287952200,'1008',1289975771,NULL,'OMDB 242000Z 03005KT CAVOK 30/10 Q1008 NOSIG',NULL,'30.0',1287950400,'2.56944444444444',10);
INSERT INTO `weather_metar_archives` (`time_to`,`pressure`,`created_at`,`snow`,`raw`,`rain`,`temperature`,`time_from`,`wind`,`city_id`) VALUES (1287955800,'1008',1289975772,NULL,'OMDB 242100Z 04004KT CAVOK 29/10 Q1008 NOSIG',NULL,'29.0',1287954000,'2.05555555555556',10);
INSERT INTO `weather_metar_archives` (`time_to`,`pressure`,`created_at`,`snow`,`raw`,`rain`,`temperature`,`time_from`,`wind`,`city_id`) VALUES (1287959400,'1008',1289975772,NULL,'OMDB 242200Z 04004KT CAVOK 28/06 Q1008 NOSIG',NULL,'28.0',1287957600,'2.05555555555556',10);
INSERT INTO `weather_metar_archives` (`time_to`,`pressure`,`created_at`,`snow`,`raw`,`rain`,`temperature`,`time_from`,`wind`,`city_id`) VALUES (1287963000,NULL,1289975772,NULL,'OMDB 242300Z 10003KT 050V150 CAVOK 26/04 Q100',NULL,'26.0',1287961200,'1.54166666666667',10);
INSERT INTO `weather_metar_archives` (`time_to`,`pressure`,`created_at`,`snow`,`raw`,`rain`,`temperature`,`time_from`,`wind`,`city_id`) VALUES (1287963000,'1008',1289975772,NULL,'OMDB 242300Z 10003KT 050V150 CAVOK 26/04 Q1008 NOSIG',NULL,'26.0',1287961200,'1.54166666666667',10);
INSERT INTO `weather_metar_archives` (`time_to`,`pressure`,`created_at`,`snow`,`raw`,`rain`,`temperature`,`time_from`,`wind`,`city_id`) VALUES (1287966600,'1008',1289975772,NULL,'OMDB 250000Z 08003KT 030V110 CAVOK 26/01 Q1008 NOSIG',NULL,'26.0',1287964800,'1.54166666666667',10);
INSERT INTO `weather_metar_archives` (`time_to`,`pressure`,`created_at`,`snow`,`raw`,`rain`,`temperature`,`time_from`,`wind`,`city_id`) VALUES (1287970200,'1009',1289975772,NULL,'OMDB 250100Z 09005KT CAVOK 26/M02 Q1009 NOSIG',NULL,'26.0',1287968400,'2.56944444444444',10);
INSERT INTO `weather_metar_archives` (`time_to`,`pressure`,`created_at`,`snow`,`raw`,`rain`,`temperature`,`time_from`,`wind`,`city_id`) VALUES (1287970560,'1009',1289975772,NULL,'OMDB 250106Z 15010KT CAVOK 26/M02 Q1009 NOSIG',NULL,'26.0',1287968760,'5.13888888888889',10);
INSERT INTO `weather_metar_archives` (`time_to`,`pressure`,`created_at`,`snow`,`raw`,`rain`,`temperature`,`time_from`,`wind`,`city_id`) VALUES (1287973800,'1010',1289975772,NULL,'OMDB 250200Z 14005KT CAVOK 27/M03 Q1010 NOSIG',NULL,'27.0',1287972000,'2.56944444444444',10);
INSERT INTO `weather_metar_archives` (`time_to`,`pressure`,`created_at`,`snow`,`raw`,`rain`,`temperature`,`time_from`,`wind`,`city_id`) VALUES (1287977400,'1011',1289975772,NULL,'OMDB 250300Z VRB01KT CAVOK 26/M07 Q1011 NOSIG',NULL,'26.0',1287975600,NULL,10);
INSERT INTO `weather_metar_archives` (`time_to`,`pressure`,`created_at`,`snow`,`raw`,`rain`,`temperature`,`time_from`,`wind`,`city_id`) VALUES (1287981000,NULL,1289975772,NULL,'OMDB 250400Z 19004KT 160V230 CAVOK 28/M00 Q101',NULL,'28.0',1287979200,'2.05555555555556',10);
INSERT INTO `weather_metar_archives` (`time_to`,`pressure`,`created_at`,`snow`,`raw`,`rain`,`temperature`,`time_from`,`wind`,`city_id`) VALUES (1287981000,'1011',1289975772,NULL,'OMDB 250400Z 19004KT 160V230 CAVOK 28/M00 Q1011 NOSIG',NULL,'28.0',1287979200,'2.05555555555556',10);
INSERT INTO `weather_metar_archives` (`time_to`,`pressure`,`created_at`,`snow`,`raw`,`rain`,`temperature`,`time_from`,`wind`,`city_id`) VALUES (1287984600,'1012',1289975772,NULL,'OMDB 250500Z 17006KT 140V200 CAVOK 30/04 Q1012 NOSIG',NULL,'30.0',1287982800,'3.08333333333333',10);
INSERT INTO `weather_metar_archives` (`time_to`,`pressure`,`created_at`,`snow`,`raw`,`rain`,`temperature`,`time_from`,`wind`,`city_id`) VALUES (1287988200,'1012',1289975772,NULL,'OMDB 250600Z 17009KT 8000 NSC 31/07 Q1012 NOSIG',NULL,'31.0',1287986400,'4.625',10);
INSERT INTO `weather_metar_archives` (`time_to`,`pressure`,`created_at`,`snow`,`raw`,`rain`,`temperature`,`time_from`,`wind`,`city_id`) VALUES (1287991800,NULL,1289975772,NULL,'OMDB 250700Z 19009KT 160V220 8000 NSC 33/09 Q101',NULL,'33.0',1287990000,'4.625',10);
INSERT INTO `weather_metar_archives` (`time_to`,`pressure`,`created_at`,`snow`,`raw`,`rain`,`temperature`,`time_from`,`wind`,`city_id`) VALUES (1287991800,'1012',1289975772,NULL,'OMDB 250700Z 19009KT 160V220 8000 NSC 33/09 Q1012 NOSIG',NULL,'33.0',1287990000,'4.625',10);
